{"type": "FeatureCollection", "bbox": [13.387866, 49.06841, 14.876473, 50.219644], "features": [{"type": "Feature", "properties": {"group_index": 0, "value": 3600.0, "center": [14.022997025984044, 49.69141103010378]}, "geometry": {"coordinates": [[[13.425909, 49.748965], [13.425658, 49.745374], [13.426756, 49.7366], [13.426171, 49.736129], [13.426869, 49.733699], [13.42704, 49.733608], [13.427125, 49.733566], [13.427216, 49.733524], [13.430891, 49.730008], [13.43325, 49.72946], [13.435843, 49.728947], [13.436407, 49.72875], [13.442612, 49.724992], [13.443498, 49.7245], [13.44408, 49.724495], [13.446819, 49.724947], [13.451032, 49.726897], [13.453008, 49.718204], [13.451574, 49.717261], [13.450601, 49.716684], [13.449605, 49.71613], [13.449213, 49.715931], [13.447516, 49.715093], [13.445334, 49.714084], [13.443646, 49.713287], [13.442457, 49.712691], [13.441251, 49.71204], [13.438641, 49.71041], [13.430363, 49.710763], [13.427012, 49.716129], [13.426608, 49.716138], [13.42416, 49.716015], [13.418418, 49.720434], [13.418183, 49.72087], [13.417174, 49.721448], [13.416987, 49.721438], [13.416397, 49.721325], [13.415015, 49.71916], [13.409514, 49.715339], [13.409333, 49.715269], [13.408371, 49.712921], [13.408879, 49.712402], [13.410689, 49.710511], [13.41082, 49.710386], [13.415693, 49.705364], [13.415786, 49.705267], [13.415789, 49.705264], [13.415883, 49.705167], [13.421336, 49.699582], [13.422601, 49.69687], [13.422607, 49.696869], [13.424325, 49.696412], [13.426536, 49.687808], [13.426232, 49.687529], [13.425479, 49.686934], [13.424998, 49.686602], [13.42444, 49.68626], [13.423986, 49.686007], [13.423482, 49.685756], [13.422866, 49.685467], [13.422197, 49.685192], [13.421275, 49.684855], [13.420098, 49.684465], [13.418826, 49.684086], [13.417217, 49.683674], [13.414109, 49.683061], [13.413263, 49.682939], [13.41163, 49.682732], [13.409806, 49.682587], [13.408937, 49.682548], [13.407667, 49.682538], [13.406357, 49.682546], [13.401298, 49.682863], [13.400323, 49.682995], [13.399451, 49.683132], [13.397594, 49.683483], [13.395677, 49.683974], [13.394888, 49.684184], [13.391657, 49.685147], [13.388915, 49.685982], [13.387866, 49.682539], [13.390608, 49.681703], [13.39386, 49.680734], [13.394747, 49.680496], [13.3967, 49.679995], [13.398777, 49.679596], [13.39976, 49.679439], [13.400815, 49.679296], [13.406262, 49.678947], [13.407644, 49.678938], [13.408965, 49.678948], [13.409964, 49.678991], [13.411912, 49.679143], [13.41371, 49.679366], [13.414625, 49.679498], [13.417995, 49.680159], [13.419718, 49.680598], [13.421122, 49.681014], [13.422405, 49.681437], [13.423431, 49.681811], [13.424228, 49.682135], [13.425002, 49.682493], [13.425586, 49.682782], [13.426183, 49.68311], [13.42687, 49.683527], [13.427514, 49.683965], [13.436412, 49.683948], [13.438271, 49.682023], [13.44013, 49.680098], [13.44272, 49.682599], [13.441221, 49.686149], [13.440694, 49.686849], [13.439226, 49.690136], [13.440489, 49.696512], [13.440438, 49.700112], [13.440504, 49.70733], [13.443104, 49.708954], [13.444162, 49.70952], [13.445258, 49.710068], [13.44687, 49.710828], [13.449027, 49.711825], [13.450806, 49.712702], [13.451234, 49.712919], [13.452348, 49.713536], [13.460458, 49.71395], [13.463314, 49.713032], [13.463737, 49.714052], [13.464367, 49.716357], [13.464511, 49.716807], [13.469727, 49.72295], [13.471345, 49.723494], [13.473024, 49.724021], [13.474746, 49.724529], [13.480791, 49.724675], [13.481215, 49.724543], [13.482257, 49.724312], [13.483404, 49.724141], [13.485156, 49.724002], [13.489478, 49.716647], [13.487545, 49.71361], [13.487007, 49.712586], [13.487391, 49.709006], [13.491272, 49.703023], [13.491364, 49.699424], [13.492942, 49.698347], [13.493677, 49.698415], [13.495318, 49.700508], [13.495288, 49.703431], [13.499503, 49.709255], [13.500939, 49.712556], [13.505223, 49.715523], [13.510191, 49.714536], [13.510743, 49.714269], [13.511408, 49.713966], [13.513289, 49.713684], [13.514793, 49.713612], [13.521395, 49.70917], [13.522761, 49.709646], [13.524374, 49.710359], [13.531677, 49.707923], [13.537745, 49.706031], [13.539688, 49.703], [13.541109, 49.703912], [13.542519, 49.704747], [13.544233, 49.705706], [13.545298, 49.706322], [13.546023, 49.706708], [13.546588, 49.707063], [13.547119, 49.70747], [13.548019, 49.708328], [13.548654, 49.709178], [13.551812, 49.712062], [13.554205, 49.713307], [13.561648, 49.710388], [13.562166, 49.710667], [13.56855, 49.711667], [13.571507, 49.709612], [13.577526, 49.705829], [13.580845, 49.697687], [13.580774, 49.695406], [13.581645, 49.695007], [13.586579, 49.688003], [13.588861, 49.680533], [13.59098, 49.677623], [13.592457, 49.678699], [13.595156, 49.679842], [13.595662, 49.679942], [13.596051, 49.680077], [13.59663, 49.68039], [13.5973, 49.680923], [13.600911, 49.683137], [13.607894, 49.681792], [13.609306, 49.680882], [13.61155, 49.678806], [13.612645, 49.676762], [13.613575, 49.673162], [13.607215, 49.667247], [13.598593, 49.665032], [13.597556, 49.665399], [13.597358, 49.664097], [13.590009, 49.660626], [13.587975, 49.664652], [13.587938, 49.666427], [13.587644, 49.667251], [13.587115, 49.668278], [13.584292, 49.670647], [13.581623, 49.674925], [13.578415, 49.67446], [13.573975, 49.674595], [13.571691, 49.674935], [13.56985, 49.675564], [13.568687, 49.672157], [13.568508, 49.668483], [13.569109, 49.666178], [13.569489, 49.663412], [13.564335, 49.657608], [13.557773, 49.659862], [13.556628, 49.661116], [13.556322, 49.661583], [13.555916, 49.662166], [13.554336, 49.664805], [13.553936, 49.665492], [13.553584, 49.665859], [13.546246, 49.664207], [13.54558, 49.664156], [13.545027, 49.664081], [13.540493, 49.660222], [13.534067, 49.658364], [13.532239, 49.657679], [13.532572, 49.655089], [13.533179, 49.654204], [13.533526, 49.654298], [13.537077, 49.654256], [13.537715, 49.65432], [13.539454, 49.654372], [13.540612, 49.654363], [13.543146, 49.657596], [13.547094, 49.659207], [13.552433, 49.652165], [13.549221, 49.644361], [13.547773, 49.643957], [13.545501, 49.643761], [13.544757, 49.643684], [13.544133, 49.643555], [13.538901, 49.643916], [13.532851, 49.644729], [13.530305, 49.644135], [13.530183, 49.644105], [13.525432, 49.644857], [13.52475, 49.644732], [13.522683, 49.644265], [13.519135, 49.644288], [13.511187, 49.647518], [13.510884, 49.647923], [13.50977, 49.649919], [13.508629, 49.652915], [13.50849, 49.653421], [13.507318, 49.657995], [13.50448, 49.659069], [13.501307, 49.657616], [13.501244, 49.657493], [13.501652, 49.654033], [13.505079, 49.650204], [13.505304, 49.649757], [13.505734, 49.649163], [13.503103, 49.641237], [13.501629, 49.64091], [13.500456, 49.6409], [13.499677, 49.640786], [13.496727, 49.640972], [13.495867, 49.641211], [13.495069, 49.641315], [13.494471, 49.641314], [13.493281, 49.641238], [13.493212, 49.63508], [13.493933, 49.634966], [13.494614, 49.634959], [13.495534, 49.635211], [13.501954, 49.635771], [13.506105, 49.632001], [13.508101, 49.631607], [13.510255, 49.632787], [13.517372, 49.632477], [13.52482, 49.630291], [13.527461, 49.622915], [13.525069, 49.620627], [13.524786, 49.620404], [13.523189, 49.61933], [13.522669, 49.618785], [13.522315, 49.618046], [13.522066, 49.616998], [13.515977, 49.610493], [13.51379, 49.609975], [13.511877, 49.609054], [13.510671, 49.607339], [13.510556, 49.607005], [13.510137, 49.605903], [13.511315, 49.605252], [13.511698, 49.605083], [13.517744, 49.601321], [13.521113, 49.600259], [13.524638, 49.598249], [13.522867, 49.590777], [13.517918, 49.587939], [13.51666, 49.587756], [13.511132, 49.588553], [13.510498, 49.588775], [13.509168, 49.589034], [13.507665, 49.589189], [13.499518, 49.587986], [13.496778, 49.585354], [13.498786, 49.582366], [13.503802, 49.578964], [13.504913, 49.578108], [13.505374, 49.578049], [13.505733, 49.578221], [13.507397, 49.578772], [13.515054, 49.578637], [13.513684, 49.569925], [13.512785, 49.569592], [13.513673, 49.561515], [13.515672, 49.558521], [13.518038, 49.559976], [13.519983, 49.560871], [13.521968, 49.561785], [13.529349, 49.559795], [13.53077, 49.560049], [13.531244, 49.560094], [13.532711, 49.560335], [13.540006, 49.556368], [13.540476, 49.555276], [13.541171, 49.554516], [13.541808, 49.554024], [13.544008, 49.556873], [13.545079, 49.558333], [13.545851, 49.559311], [13.546224, 49.559829], [13.546579, 49.560251], [13.546941, 49.560872], [13.554735, 49.563872], [13.557578, 49.560246], [13.557929, 49.559709], [13.558939, 49.558224], [13.562191, 49.559773], [13.562115, 49.560281], [13.56192, 49.560827], [13.561633, 49.561256], [13.560232, 49.563978], [13.560026, 49.564591], [13.559631, 49.565278], [13.55935, 49.5656], [13.55897, 49.565916], [13.556043, 49.572047], [13.56108, 49.579084], [13.561738, 49.579308], [13.563063, 49.579918], [13.56542, 49.581043], [13.565905, 49.581361], [13.567039, 49.582411], [13.568199, 49.583159], [13.568418, 49.583262], [13.572357, 49.584179], [13.574344, 49.584214], [13.575717, 49.584315], [13.577577, 49.58449], [13.579402, 49.584662], [13.580493, 49.584761], [13.581157, 49.584858], [13.581915, 49.585013], [13.584703, 49.586182], [13.587141, 49.58724], [13.587964, 49.587538], [13.590232, 49.588226], [13.592558, 49.588921], [13.595086, 49.588555], [13.596776, 49.58806], [13.597119, 49.579302], [13.595185, 49.578449], [13.593146, 49.577546], [13.591308, 49.576588], [13.586397, 49.575733], [13.582892, 49.57408], [13.582742, 49.574026], [13.577523, 49.573784], [13.575671, 49.573896], [13.574696, 49.57255], [13.574593, 49.572412], [13.574514, 49.572195], [13.575342, 49.570311], [13.574856, 49.561861], [13.575181, 49.558275], [13.569521, 49.552583], [13.56941, 49.552543], [13.570134, 49.55089], [13.570636, 49.549158], [13.571998, 49.547434], [13.575342, 49.545743], [13.57791, 49.539814], [13.577241, 49.534712], [13.577186, 49.531112], [13.580588, 49.530428], [13.582492, 49.523481], [13.582555, 49.519882], [13.585264, 49.515448], [13.584125, 49.50661], [13.581504, 49.506196], [13.580601, 49.50602], [13.57419, 49.507722], [13.573683, 49.507926], [13.573035, 49.50812], [13.571743, 49.508659], [13.569913, 49.509816], [13.567302, 49.507338], [13.564793, 49.50568], [13.558127, 49.503796], [13.555936, 49.502729], [13.555918, 49.502685], [13.556767, 49.500462], [13.556928, 49.500397], [13.562749, 49.499329], [13.56279, 49.499315], [13.563298, 49.499218], [13.566544, 49.491701], [13.5603, 49.489823], [13.55746, 49.49069], [13.556408, 49.487247], [13.557606, 49.485014], [13.560317, 49.484764], [13.564266, 49.476967], [13.566273, 49.473978], [13.567432, 49.474756], [13.569918, 49.475982], [13.570523, 49.476226], [13.571134, 49.47663], [13.571657, 49.47723], [13.578361, 49.478855], [13.581783, 49.474445], [13.578336, 49.469748], [13.576983, 49.466411], [13.579423, 49.46347], [13.58454, 49.461651], [13.58612, 49.461842], [13.586238, 49.461977], [13.586604, 49.462602], [13.586764, 49.463304], [13.586955, 49.464321], [13.58598, 49.471976], [13.586034, 49.472925], [13.585887, 49.473563], [13.592785, 49.479204], [13.594362, 49.47829], [13.596647, 49.475254], [13.597511, 49.474627], [13.60127, 49.468786], [13.604583, 49.463474], [13.602557, 49.454743], [13.601207, 49.454406], [13.599655, 49.453199], [13.599553, 49.453056], [13.599207, 49.452369], [13.599228, 49.45204], [13.599261, 49.4515], [13.599966, 49.449485], [13.600166, 49.449504], [13.60087, 49.449706], [13.602284, 49.450388], [13.611134, 49.449128], [13.612071, 49.448775], [13.612863, 49.448455], [13.615343, 49.447274], [13.616057, 49.44883], [13.621525, 49.455519], [13.623587, 49.45847], [13.629432, 49.464575], [13.631685, 49.464202], [13.63298, 49.463858], [13.633521, 49.46375], [13.636316, 49.463547], [13.637232, 49.463439], [13.642483, 49.460716], [13.646404, 49.463397], [13.647017, 49.46358], [13.648124, 49.464015], [13.650057, 49.464385], [13.652083, 49.464775], [13.652862, 49.464951], [13.653476, 49.465141], [13.6563, 49.465485], [13.65665, 49.465487], [13.658092, 49.465389], [13.65872, 49.465294], [13.662599, 49.457486], [13.660776, 49.455193], [13.660398, 49.454899], [13.659802, 49.454222], [13.653039, 49.452151], [13.649823, 49.451953], [13.6479, 49.45162], [13.644702, 49.451471], [13.643973, 49.451493], [13.642529, 49.451338], [13.642911, 49.447759], [13.638362, 49.440134], [13.638163, 49.439985], [13.637487, 49.439505], [13.636979, 49.438869], [13.636859, 49.438706], [13.636638, 49.43761], [13.637509, 49.436349], [13.63827, 49.436129], [13.63853, 49.436059], [13.638582, 49.436075], [13.643554, 49.437163], [13.649796, 49.436298], [13.653006, 49.436084], [13.653699, 49.436074], [13.654182, 49.436094], [13.656122, 49.436352], [13.659393, 49.436118], [13.660319, 49.435952], [13.66206, 49.435447], [13.663483, 49.435133], [13.664099, 49.434961], [13.664367, 49.434871], [13.664888, 49.434665], [13.66532, 49.434548], [13.671858, 49.429508], [13.671965, 49.428071], [13.668262, 49.421462], [13.665052, 49.421554], [13.664949, 49.417956], [13.671401, 49.412565], [13.670987, 49.408279], [13.671575, 49.408032], [13.674762, 49.4063], [13.674917, 49.406309], [13.676016, 49.40732], [13.676081, 49.407436], [13.676453, 49.408217], [13.67645, 49.408246], [13.679091, 49.416673], [13.679714, 49.419128], [13.686062, 49.422838], [13.688632, 49.4212], [13.689059, 49.420863], [13.689491, 49.42062], [13.693704, 49.413156], [13.693624, 49.412346], [13.694251, 49.411051], [13.697359, 49.402858], [13.697031, 49.402263], [13.696771, 49.399306], [13.697311, 49.399217], [13.698296, 49.39916], [13.700706, 49.39854], [13.707144, 49.393545], [13.706683, 49.385909], [13.704235, 49.38473], [13.702322, 49.384318], [13.700934, 49.381813], [13.700617, 49.380831], [13.6938, 49.375935], [13.69257, 49.376577], [13.690952, 49.377861], [13.689091, 49.379611], [13.688641, 49.379976], [13.68658, 49.382315], [13.685171, 49.385628], [13.679813, 49.389181], [13.677135, 49.386775], [13.677736, 49.382609], [13.6769, 49.374207], [13.676286, 49.37066], [13.679678, 49.370073], [13.683069, 49.369485], [13.683626, 49.369274], [13.686437, 49.367385], [13.684962, 49.35869], [13.685791, 49.355187], [13.685989, 49.34827], [13.686192, 49.347056], [13.690055, 49.344717], [13.694483, 49.339281], [13.695618, 49.337722], [13.697581, 49.329677], [13.701166, 49.329352], [13.707703, 49.325025], [13.708142, 49.322572], [13.708887, 49.321626], [13.710098, 49.322047], [13.717717, 49.323347], [13.719564, 49.324361], [13.720725, 49.324872], [13.729066, 49.322573], [13.729293, 49.321533], [13.729482, 49.320704], [13.729984, 49.319092], [13.731666, 49.319536], [13.732704, 49.320793], [13.735594, 49.322145], [13.741342, 49.328439], [13.742891, 49.32796], [13.744136, 49.327197], [13.746307, 49.323506], [13.745882, 49.32028], [13.745832, 49.319274], [13.749522, 49.318673], [13.751502, 49.318493], [13.752465, 49.318274], [13.753852, 49.318119], [13.761362, 49.317673], [13.762091, 49.317163], [13.761723, 49.308588], [13.753913, 49.309111], [13.748315, 49.309251], [13.745497, 49.308994], [13.743564, 49.309632], [13.743019, 49.309775], [13.741576, 49.310041], [13.741193, 49.310152], [13.739586, 49.310921], [13.739002, 49.311146], [13.737282, 49.311661], [13.73625, 49.308212], [13.73797, 49.307697], [13.738254, 49.307576], [13.740091, 49.306591], [13.742448, 49.298161], [13.742161, 49.295519], [13.741989, 49.29459], [13.742518, 49.292761], [13.74299, 49.292132], [13.744382, 49.290573], [13.744751, 49.290318], [13.74511, 49.29015], [13.745952, 49.289852], [13.75391, 49.291928], [13.756431, 49.291654], [13.759949, 49.294136], [13.765892, 49.289085], [13.766365, 49.288732], [13.767247, 49.288214], [13.771593, 49.284353], [13.772426, 49.282301], [13.77407, 49.281741], [13.777107, 49.280339], [13.777666, 49.28008], [13.779239, 49.279382], [13.779891, 49.27914], [13.780671, 49.278985], [13.781392, 49.278891], [13.783019, 49.278795], [13.78451, 49.278768], [13.7858, 49.2787], [13.786682, 49.278698], [13.788388, 49.278775], [13.789119, 49.278882], [13.789691, 49.279025], [13.791588, 49.279697], [13.791707, 49.279722], [13.796049, 49.279382], [13.796303, 49.279296], [13.797194, 49.278913], [13.798371, 49.278414], [13.798799, 49.278329], [13.799298, 49.278305], [13.79969, 49.278345], [13.80162, 49.278299], [13.80195, 49.278294], [13.802079, 49.281862], [13.807945, 49.285837], [13.811122, 49.28532], [13.815079, 49.28373], [13.817526, 49.281518], [13.819993, 49.279288], [13.821225, 49.277485], [13.81742, 49.270108], [13.814171, 49.270075], [13.813918, 49.270042], [13.813415, 49.269935], [13.810338, 49.268946], [13.807556, 49.268026], [13.806727, 49.267906], [13.804341, 49.267607], [13.799703, 49.268855], [13.796215, 49.267965], [13.791244, 49.265115], [13.788867, 49.265036], [13.788489, 49.264988], [13.788133, 49.264908], [13.786656, 49.264463], [13.78622, 49.264345], [13.784382, 49.264119], [13.783744, 49.264039], [13.782566, 49.26398], [13.781912, 49.263902], [13.778873, 49.263292], [13.778608, 49.263185], [13.77683, 49.262692], [13.774551, 49.262069], [13.773006, 49.261594], [13.772443, 49.26152], [13.771563, 49.261509], [13.766714, 49.268508], [13.766826, 49.26932], [13.766706, 49.269957], [13.766479, 49.270482], [13.765755, 49.272386], [13.765715, 49.272535], [13.764319, 49.273191], [13.759141, 49.271574], [13.756468, 49.271636], [13.751444, 49.273883], [13.748848, 49.271389], [13.748525, 49.263707], [13.741519, 49.258628], [13.741045, 49.258632], [13.739326, 49.25878], [13.737742, 49.259225], [13.73733, 49.258101], [13.736768, 49.25576], [13.737697, 49.249886], [13.740298, 49.247397], [13.747346, 49.247891], [13.750562, 49.24607], [13.753289, 49.24842], [13.7602, 49.253334], [13.765817, 49.252698], [13.768097, 49.253584], [13.773625, 49.258048], [13.775582, 49.25862], [13.777778, 49.259219], [13.781588, 49.251603], [13.781352, 49.250415], [13.781572, 49.24968], [13.782138, 49.24897], [13.782594, 49.248655], [13.783228, 49.248323], [13.784338, 49.247835], [13.786935, 49.246058], [13.790266, 49.247423], [13.798051, 49.244099], [13.797727, 49.235978], [13.795074, 49.233545], [13.787859, 49.231297], [13.785745, 49.231901], [13.785168, 49.232026], [13.784534, 49.232122], [13.782871, 49.232356], [13.781413, 49.229071], [13.782048, 49.22867], [13.782666, 49.228515], [13.783853, 49.228486], [13.787509, 49.227385], [13.788998, 49.226803], [13.791227, 49.218709], [13.792748, 49.215446], [13.794023, 49.215831], [13.802021, 49.215173], [13.803964, 49.21323], [13.804547, 49.212609], [13.804997, 49.213052], [13.807085, 49.215348], [13.810641, 49.223369], [13.811699, 49.22681], [13.818079, 49.232003], [13.82018, 49.230998], [13.821443, 49.231301], [13.821498, 49.231319], [13.821643, 49.231463], [13.822082, 49.232087], [13.824104, 49.234048], [13.828737, 49.235896], [13.829498, 49.236047], [13.830354, 49.236364], [13.831557, 49.236959], [13.832065, 49.237203], [13.833005, 49.237925], [13.83375, 49.238484], [13.834226, 49.238894], [13.834517, 49.239183], [13.83923, 49.241416], [13.83998, 49.241355], [13.846438, 49.241522], [13.847771, 49.24057], [13.849726, 49.238795], [13.849192, 49.230679], [13.846608, 49.230306], [13.843095, 49.229434], [13.842014, 49.229564], [13.840849, 49.229828], [13.840519, 49.229869], [13.837219, 49.228869], [13.838789, 49.226694], [13.833899, 49.22029], [13.833024, 49.219785], [13.832725, 49.219228], [13.831766, 49.21739], [13.832131, 49.217121], [13.833402, 49.215914], [13.835407, 49.213767], [13.836101, 49.212134], [13.836339, 49.206902], [13.828448, 49.204206], [13.827896, 49.204204], [13.82662, 49.202759], [13.826652, 49.202501], [13.826911, 49.201714], [13.828817, 49.194115], [13.826603, 49.190109], [13.828521, 49.187063], [13.825666, 49.179022], [13.822685, 49.178389], [13.823432, 49.174867], [13.826414, 49.1755], [13.826737, 49.175539], [13.830004, 49.175575], [13.835316, 49.169547], [13.837358, 49.167616], [13.838015, 49.1675], [13.838405, 49.167468], [13.838794, 49.168165], [13.84094, 49.172068], [13.847446, 49.17278], [13.848199, 49.17254], [13.848926, 49.172381], [13.852523, 49.173171], [13.856811, 49.179714], [13.859306, 49.180463], [13.860281, 49.180695], [13.861157, 49.181332], [13.866935, 49.183142], [13.870366, 49.182052], [13.878357, 49.179415], [13.878922, 49.170981], [13.878522, 49.170394], [13.878242, 49.169782], [13.88482, 49.165063], [13.885457, 49.164322], [13.886647, 49.164036], [13.889827, 49.164391], [13.896415, 49.163497], [13.89677, 49.163418], [13.897199, 49.163363], [13.905541, 49.161929], [13.909099, 49.162178], [13.909121, 49.165778], [13.908698, 49.172398], [13.911461, 49.177968], [13.912102, 49.185695], [13.912351, 49.186278], [13.920188, 49.189709], [13.920901, 49.189447], [13.921995, 49.188954], [13.923982, 49.187938], [13.928651, 49.187453], [13.932013, 49.186591], [13.932865, 49.186717], [13.938969, 49.188654], [13.945664, 49.187165], [13.948147, 49.185214], [13.948967, 49.184938], [13.94963, 49.184942], [13.953589, 49.183867], [13.958855, 49.18635], [13.959971, 49.189773], [13.965279, 49.196879], [13.965838, 49.196818], [13.966577, 49.196923], [13.971594, 49.196327], [13.975074, 49.196655], [13.981554, 49.202349], [13.98243, 49.202619], [13.984061, 49.203237], [13.990003, 49.197608], [13.990057, 49.194008], [13.988182, 49.186768], [13.985042, 49.185131], [13.985649, 49.18421], [13.983748, 49.175985], [13.978372, 49.175433], [13.977539, 49.175675], [13.976972, 49.175778], [13.975587, 49.175922], [13.975026, 49.175924], [13.973964, 49.175881], [13.973286, 49.175879], [13.97227, 49.175918], [13.971692, 49.175899], [13.971233, 49.175849], [13.97003, 49.175805], [13.969678, 49.175773], [13.968113, 49.175565], [13.96734, 49.175551], [13.966427, 49.175581], [13.965301, 49.17554], [13.962165, 49.176211], [13.961475, 49.176377], [13.960561, 49.176371], [13.959144, 49.175061], [13.954613, 49.171173], [13.953799, 49.170982], [13.953149, 49.170763], [13.952482, 49.170395], [13.952175, 49.170141], [13.950875, 49.169253], [13.95254, 49.166061], [13.952916, 49.166257], [13.953936, 49.166902], [13.956429, 49.167819], [13.958668, 49.168419], [13.959212, 49.168551], [13.959769, 49.168766], [13.961752, 49.169163], [13.964973, 49.170771], [13.968286, 49.171969], [13.970139, 49.172202], [13.97035, 49.17222], [13.974762, 49.164489], [13.974394, 49.164019], [13.974179, 49.163646], [13.973993, 49.163134], [13.972887, 49.161266], [13.972656, 49.160965], [13.966953, 49.158059], [13.965348, 49.15799], [13.965021, 49.157988], [13.964512, 49.158012], [13.964342, 49.154416], [13.964851, 49.154392], [13.965348, 49.15439], [13.967105, 49.154463], [13.974535, 49.152231], [13.976607, 49.153888], [13.97738, 49.154436], [13.977651, 49.155585], [13.977648, 49.155653], [13.978856, 49.163628], [13.979234, 49.164324], [13.97947, 49.164887], [13.979815, 49.16583], [13.98021, 49.166665], [13.981429, 49.168586], [13.981826, 49.169228], [13.984928, 49.172293], [13.990187, 49.17256], [13.992886, 49.171448], [13.993772, 49.170791], [13.994774, 49.170438], [13.998383, 49.16303], [13.998451, 49.162196], [13.998861, 49.16122], [14.001412, 49.158712], [14.001998, 49.158675], [14.003246, 49.158718], [14.006254, 49.160913], [14.007632, 49.164665], [14.008169, 49.168224], [14.003442, 49.171252], [14.002657, 49.171975], [14.001918, 49.172295], [13.998645, 49.1804], [14.00502, 49.183023], [14.008109, 49.184759], [14.008157, 49.184789], [14.014435, 49.186601], [14.015372, 49.186606], [14.016255, 49.186585], [14.018326, 49.186369], [14.024173, 49.180139], [14.024157, 49.179419], [14.024217, 49.178299], [14.024346, 49.177103], [14.024274, 49.175037], [14.024428, 49.173696], [14.027298, 49.165724], [14.025142, 49.161989], [14.023922, 49.158602], [14.025884, 49.151824], [14.027284, 49.15104], [14.030576, 49.149584], [14.039167, 49.14916], [14.040988, 49.148907], [14.043388, 49.148791], [14.044002, 49.148742], [14.045598, 49.148435], [14.046362, 49.148269], [14.051252, 49.141158], [14.051609, 49.137575], [14.058675, 49.135477], [14.061707, 49.132427], [14.06207, 49.131938], [14.064962, 49.134082], [14.071611, 49.131788], [14.074735, 49.126906], [14.076317, 49.122672], [14.076394, 49.12252], [14.07666, 49.122112], [14.078477, 49.120031], [14.078697, 49.120004], [14.079301, 49.119999], [14.079616, 49.120132], [14.080501, 49.120841], [14.086705, 49.125241], [14.091105, 49.130111], [14.091977, 49.131281], [14.093035, 49.132592], [14.094357, 49.134327], [14.094531, 49.134537], [14.095488, 49.135691], [14.094034, 49.1373], [14.09156, 49.142902], [14.093226, 49.147167], [14.093237, 49.147485], [14.09316, 49.148094], [14.093083, 49.14931], [14.093251, 49.152629], [14.098228, 49.159306], [14.098983, 49.159664], [14.101537, 49.160468], [14.103673, 49.162098], [14.105261, 49.162785], [14.112467, 49.159103], [14.11353, 49.157485], [14.113789, 49.156984], [14.114632, 49.154084], [14.115773, 49.151412], [14.1219, 49.146004], [14.12291, 49.142549], [14.123752, 49.142795], [14.124639, 49.143107], [14.125336, 49.143376], [14.126474, 49.143902], [14.129382, 49.144667], [14.134814, 49.1439], [14.138565, 49.142751], [14.142592, 49.140343], [14.142827, 49.134006], [14.142172, 49.132605], [14.141494, 49.131295], [14.138104, 49.128051], [14.135964, 49.125156], [14.138308, 49.122618], [14.139311, 49.123099], [14.140087, 49.1236], [14.142854, 49.124861], [14.143201, 49.124958], [14.143482, 49.125062], [14.144068, 49.125381], [14.144746, 49.125945], [14.153663, 49.125837], [14.154066, 49.125302], [14.154481, 49.124932], [14.156473, 49.12267], [14.155312, 49.114331], [14.153713, 49.113622], [14.151119, 49.112625], [14.149571, 49.110462], [14.152253, 49.108059], [14.157211, 49.103366], [14.160649, 49.101133], [14.16105, 49.101201], [14.16344, 49.10372], [14.168481, 49.110095], [14.171235, 49.109982], [14.177565, 49.105142], [14.177374, 49.101547], [14.18028, 49.09979], [14.185197, 49.097446], [14.186586, 49.096829], [14.188694, 49.098301], [14.192425, 49.101152], [14.198894, 49.096842], [14.199394, 49.091495], [14.203435, 49.086788], [14.207421, 49.08018], [14.207249, 49.07474], [14.207724, 49.071172], [14.208408, 49.069283], [14.2119, 49.06841], [14.212514, 49.070864], [14.212765, 49.071398], [14.218279, 49.075653], [14.222383, 49.074624], [14.224525, 49.077518], [14.224023, 49.084417], [14.224299, 49.08494], [14.226319, 49.088066], [14.23415, 49.085711], [14.241228, 49.080409], [14.242607, 49.077084], [14.244943, 49.077943], [14.245616, 49.078226], [14.251816, 49.079147], [14.257724, 49.077208], [14.261825, 49.077176], [14.265643, 49.077607], [14.27457, 49.076913], [14.275665, 49.076653], [14.277389, 49.076238], [14.28409, 49.073851], [14.285785, 49.074291], [14.285813, 49.074318], [14.285691, 49.077075], [14.285372, 49.077233], [14.283928, 49.077886], [14.282722, 49.078366], [14.281611, 49.078771], [14.28011, 49.079246], [14.278299, 49.079721], [14.279951, 49.088339], [14.280629, 49.088419], [14.281497, 49.088601], [14.282543, 49.088672], [14.282406, 49.091642], [14.282299, 49.092264], [14.281659, 49.093899], [14.280886, 49.093845], [14.280566, 49.093795], [14.279693, 49.093543], [14.27646, 49.091947], [14.275928, 49.091656], [14.27549, 49.091243], [14.273679, 49.08957], [14.270468, 49.087854], [14.268798, 49.0873], [14.261096, 49.089074], [14.259134, 49.090587], [14.257172, 49.092101], [14.25521, 49.093614], [14.253248, 49.095127], [14.251144, 49.102879], [14.253585, 49.104556], [14.255104, 49.105678], [14.255376, 49.10593], [14.255832, 49.106438], [14.256627, 49.107382], [14.257013, 49.107776], [14.258014, 49.109733], [14.25782, 49.111034], [14.262204, 49.11844], [14.263719, 49.11862], [14.26474, 49.118621], [14.26507, 49.118635], [14.267467, 49.118566], [14.267903, 49.12214], [14.2662, 49.127505], [14.265712, 49.127462], [14.263923, 49.127042], [14.256983, 49.126842], [14.256545, 49.127007], [14.255843, 49.127221], [14.253741, 49.127744], [14.253398, 49.12786], [14.253056, 49.127988], [14.249815, 49.130205], [14.248681, 49.136325], [14.248928, 49.139917], [14.257101, 49.143419], [14.261214, 49.148], [14.268455, 49.147353], [14.271631, 49.145657], [14.279459, 49.149509], [14.280546, 49.149484], [14.281525, 49.149388], [14.282547, 49.149243], [14.287911, 49.152801], [14.292066, 49.14683], [14.29303, 49.145581], [14.293603, 49.145115], [14.294851, 49.144549], [14.295245, 49.144626], [14.300793, 49.147014], [14.304301, 49.147221], [14.306665, 49.149314], [14.306651, 49.149376], [14.305543, 49.1506], [14.305531, 49.150604], [14.300797, 49.155269], [14.303126, 49.160216], [14.305346, 49.161177], [14.305895, 49.161451], [14.306733, 49.161837], [14.307586, 49.162303], [14.311767, 49.162904], [14.311915, 49.166501], [14.309219, 49.167728], [14.309032, 49.167623], [14.305945, 49.166307], [14.299828, 49.165364], [14.298279, 49.16572], [14.297845, 49.165799], [14.296683, 49.165967], [14.296029, 49.166103], [14.295539, 49.166229], [14.289327, 49.162039], [14.283861, 49.166187], [14.283988, 49.169785], [14.287952, 49.177058], [14.291477, 49.176326], [14.291631, 49.177068], [14.296542, 49.18321], [14.303179, 49.183605], [14.303815, 49.183411], [14.304475, 49.183239], [14.30651, 49.18273], [14.306968, 49.182647], [14.308299, 49.182442], [14.31063, 49.181539], [14.311803, 49.181165], [14.312481, 49.180992], [14.314878, 49.18012], [14.314976, 49.180113], [14.31535, 49.180122], [14.317367, 49.180915], [14.320115, 49.181382], [14.320696, 49.181394], [14.321126, 49.183424], [14.321098, 49.183557], [14.320621, 49.184993], [14.320041, 49.184981], [14.319348, 49.184986], [14.316257, 49.18471], [14.309921, 49.190774], [14.310008, 49.191654], [14.309757, 49.192566], [14.309429, 49.193073], [14.309019, 49.193494], [14.308729, 49.193724], [14.304267, 49.199436], [14.303098, 49.206647], [14.304279, 49.209651], [14.307532, 49.215374], [14.311151, 49.217869], [14.318091, 49.212898], [14.318361, 49.209308], [14.320906, 49.204406], [14.327619, 49.201432], [14.329029, 49.19812], [14.329329, 49.198248], [14.329641, 49.198414], [14.330511, 49.198896], [14.335569, 49.199256], [14.339454, 49.192999], [14.340232, 49.189484], [14.344673, 49.189093], [14.345927, 49.189612], [14.346441, 49.189866], [14.348024, 49.191926], [14.349681, 49.198138], [14.353916, 49.204279], [14.358148, 49.206986], [14.358381, 49.207104], [14.356752, 49.210315], [14.358828, 49.21627], [14.363798, 49.216378], [14.365427, 49.215445], [14.366814, 49.214725], [14.367342, 49.214521], [14.368937, 49.214077], [14.370589, 49.21361], [14.371126, 49.215093], [14.374227, 49.222188], [14.375439, 49.223546], [14.378951, 49.228786], [14.380664, 49.231277], [14.381133, 49.233637], [14.380904, 49.233718], [14.3804, 49.233868], [14.379178, 49.234152], [14.376755, 49.234424], [14.372345, 49.234498], [14.363524, 49.235929], [14.360435, 49.238755], [14.354269, 49.244094], [14.353691, 49.244333], [14.353051, 49.24442], [14.352675, 49.244417], [14.345848, 49.24629], [14.342692, 49.249433], [14.341968, 49.249766], [14.339443, 49.251515], [14.337595, 49.260305], [14.337374, 49.261027], [14.334202, 49.261038], [14.332734, 49.260824], [14.332275, 49.26077], [14.331836, 49.260738], [14.330604, 49.260712], [14.330063, 49.260652], [14.329448, 49.260507], [14.328854, 49.260287], [14.321104, 49.263943], [14.319202, 49.267], [14.323247, 49.275013], [14.325161, 49.274791], [14.325574, 49.278368], [14.325438, 49.282254], [14.325707, 49.285844], [14.330868, 49.292091], [14.331372, 49.295655], [14.328859, 49.30138], [14.32836, 49.302819], [14.328139, 49.303481], [14.327659, 49.304165], [14.326946, 49.304637], [14.326436, 49.304814], [14.325866, 49.304909], [14.321777, 49.306861], [14.31941, 49.307403], [14.31702, 49.307938], [14.315441, 49.308507], [14.314801, 49.308815], [14.313774, 49.309041], [14.310484, 49.310187], [14.306508, 49.309944], [14.305974, 49.309978], [14.299422, 49.312512], [14.297322, 49.314962], [14.296125, 49.316306], [14.293938, 49.319018], [14.296628, 49.326384], [14.296994, 49.326651], [14.297333, 49.327006], [14.304521, 49.331289], [14.31269, 49.328063], [14.313763, 49.327371], [14.315795, 49.325452], [14.316723, 49.324366], [14.317573, 49.323583], [14.31848, 49.323165], [14.319025, 49.322993], [14.327579, 49.321093], [14.328914, 49.318812], [14.331019, 49.315892], [14.331471, 49.316193], [14.33564, 49.318476], [14.336127, 49.318655], [14.337178, 49.319313], [14.343402, 49.324689], [14.345235, 49.324739], [14.346982, 49.324789], [14.35007, 49.324734], [14.350572, 49.324685], [14.355615, 49.323419], [14.356812, 49.323807], [14.360806, 49.326406], [14.361327, 49.327778], [14.368966, 49.332013], [14.375942, 49.335366], [14.379533, 49.340703], [14.384457, 49.339119], [14.385104, 49.338598], [14.385696, 49.338379], [14.38604, 49.338327], [14.387892, 49.338153], [14.388149, 49.338163], [14.392344, 49.343879], [14.398217, 49.34597], [14.399098, 49.346203], [14.40088, 49.346537], [14.403137, 49.34734], [14.410186, 49.344569], [14.414841, 49.345314], [14.42016, 49.342172], [14.423028, 49.344348], [14.425981, 49.352029], [14.429538, 49.35148], [14.430796, 49.351446], [14.434006, 49.350415], [14.435107, 49.353842], [14.4303, 49.356753], [14.426733, 49.357237], [14.420678, 49.361279], [14.418889, 49.364403], [14.415055, 49.367896], [14.419418, 49.374021], [14.420174, 49.374092], [14.425841, 49.373106], [14.426628, 49.372972], [14.429843, 49.371351], [14.436471, 49.375175], [14.44045, 49.37578], [14.445758, 49.376088], [14.449183, 49.37286], [14.450865, 49.370967], [14.451379, 49.370918], [14.45255, 49.371745], [14.452674, 49.37198], [14.456357, 49.379626], [14.457514, 49.381315], [14.459486, 49.384124], [14.459118, 49.384431], [14.458185, 49.384853], [14.457593, 49.384925], [14.457493, 49.384915], [14.449822, 49.383563], [14.446245, 49.383969], [14.439909, 49.379339], [14.43593, 49.378734], [14.435092, 49.378633], [14.434757, 49.378607], [14.427927, 49.384104], [14.428101, 49.385053], [14.429901, 49.393058], [14.4318, 49.395387], [14.432262, 49.395903], [14.433438, 49.396986], [14.435286, 49.398149], [14.435684, 49.39844], [14.440203, 49.400603], [14.44095, 49.400862], [14.441413, 49.401052], [14.441581, 49.401142], [14.440397, 49.403792], [14.446426, 49.409331], [14.44744, 49.409143], [14.44972, 49.408804], [14.450415, 49.408762], [14.450861, 49.408773], [14.457618, 49.403238], [14.461216, 49.403358], [14.462179, 49.404415], [14.462902, 49.404956], [14.463588, 49.405551], [14.469659, 49.40601], [14.47192, 49.401603], [14.471388, 49.398043], [14.468602, 49.391781], [14.470389, 49.388656], [14.471311, 49.389183], [14.479223, 49.39235], [14.481381, 49.390826], [14.485471, 49.390903], [14.48853, 49.3928], [14.488133, 49.398166], [14.493929, 49.401546], [14.496069, 49.401669], [14.495863, 49.405263], [14.496838, 49.413235], [14.498781, 49.416266], [14.499079, 49.419317], [14.499698, 49.421252], [14.500277, 49.423076], [14.504243, 49.427409], [14.509704, 49.428902], [14.51411, 49.421468], [14.512172, 49.417722], [14.512262, 49.416245], [14.512454, 49.414823], [14.516022, 49.415305], [14.520789, 49.421709], [14.5218, 49.422064], [14.529374, 49.417993], [14.529554, 49.417408], [14.529847, 49.413049], [14.528998, 49.410103], [14.532457, 49.409106], [14.53385, 49.413383], [14.533995, 49.414216], [14.533897, 49.416315], [14.533793, 49.416856], [14.533652, 49.420315], [14.539174, 49.426563], [14.541654, 49.427109], [14.544447, 49.427732], [14.547239, 49.428356], [14.550031, 49.42898], [14.557771, 49.429981], [14.558497, 49.430019], [14.558902, 49.430067], [14.559594, 49.430197], [14.55946, 49.431476], [14.55893, 49.433735], [14.553837, 49.434171], [14.549247, 49.432493], [14.546454, 49.43187], [14.543662, 49.431246], [14.54087, 49.430622], [14.538401, 49.43008], [14.535927, 49.429536], [14.530786, 49.435977], [14.527189, 49.435831], [14.521765, 49.442216], [14.518646, 49.444015], [14.521036, 49.452608], [14.521528, 49.456174], [14.515851, 49.461492], [14.516026, 49.463571], [14.515854, 49.468839], [14.513856, 49.471834], [14.513322, 49.471478], [14.511896, 49.470347], [14.511273, 49.469885], [14.510625, 49.469224], [14.509747, 49.468097], [14.508204, 49.464428], [14.507078, 49.462784], [14.504019, 49.459923], [14.501901, 49.459114], [14.501518, 49.458926], [14.499299, 49.457369], [14.494438, 49.464586], [14.494615, 49.466975], [14.491102, 49.467764], [14.484574, 49.466149], [14.484048, 49.462587], [14.475919, 49.461534], [14.474944, 49.462588], [14.473053, 49.464339], [14.471794, 49.465164], [14.469898, 49.466513], [14.469059, 49.467231], [14.468134, 49.467474], [14.467434, 49.467753], [14.465131, 49.468439], [14.464655, 49.477087], [14.464618, 49.480687], [14.469993, 49.487384], [14.473496, 49.488469], [14.473915, 49.488556], [14.482359, 49.486095], [14.483024, 49.485502], [14.483638, 49.485128], [14.485631, 49.483626], [14.488281, 49.486062], [14.492458, 49.493989], [14.491076, 49.497313], [14.486139, 49.499983], [14.480154, 49.505463], [14.480034, 49.509662], [14.477558, 49.512275], [14.471215, 49.51464], [14.469827, 49.517961], [14.465039, 49.518787], [14.459593, 49.522621], [14.464197, 49.52843], [14.464845, 49.52859], [14.465408, 49.52885], [14.467252, 49.529504], [14.46762, 49.529981], [14.46791, 49.530633], [14.467955, 49.530805], [14.468259, 49.532167], [14.468272, 49.532522], [14.468247, 49.53296], [14.467003, 49.534558], [14.466414, 49.535794], [14.466113, 49.536537], [14.46567, 49.537107], [14.465021, 49.53759], [14.464451, 49.537886], [14.46147, 49.540396], [14.459796, 49.542162], [14.45927, 49.54201], [14.458301, 49.541322], [14.451719, 49.537648], [14.450967, 49.537705], [14.450301, 49.53772], [14.446132, 49.545377], [14.446573, 49.547187], [14.446747, 49.547819], [14.45022, 49.552922], [14.458062, 49.555109], [14.460041, 49.554454], [14.461665, 49.554968], [14.46174, 49.555645], [14.46172, 49.556121], [14.461745, 49.557817], [14.46171, 49.558424], [14.469041, 49.563323], [14.470869, 49.56131], [14.47168, 49.560648], [14.474178, 49.55564], [14.474974, 49.554567], [14.474829, 49.547981], [14.472082, 49.545654], [14.472127, 49.545543], [14.472359, 49.545106], [14.473039, 49.54411], [14.474399, 49.543214], [14.475314, 49.542712], [14.477013, 49.541561], [14.477659, 49.541065], [14.480346, 49.533702], [14.483246, 49.531569], [14.485457, 49.534162], [14.486931, 49.535735], [14.487268, 49.536207], [14.487548, 49.537265], [14.487302, 49.538218], [14.487535, 49.546348], [14.49592, 49.545268], [14.498067, 49.543376], [14.499367, 49.542088], [14.501723, 49.539733], [14.502274, 49.538845], [14.502661, 49.538556], [14.502756, 49.538503], [14.505214, 49.540803], [14.504704, 49.543728], [14.504399, 49.544176], [14.504239, 49.544352], [14.502976, 49.551296], [14.503369, 49.552279], [14.51161, 49.554152], [14.514641, 49.54924], [14.514774, 49.548236], [14.514172, 49.545274], [14.514098, 49.545115], [14.51738, 49.543577], [14.519838, 49.535784], [14.518911, 49.534229], [14.517153, 49.532003], [14.516643, 49.531433], [14.517465, 49.530363], [14.517853, 49.529881], [14.518215, 49.529596], [14.518779, 49.529248], [14.522229, 49.532355], [14.52575, 49.535214], [14.532656, 49.534095], [14.536071, 49.535233], [14.544694, 49.53645], [14.545401, 49.536377], [14.546878, 49.536168], [14.547776, 49.536054], [14.548383, 49.536106], [14.54977, 49.536933], [14.550072, 49.537224], [14.551764, 49.538718], [14.55916, 49.539588], [14.560834, 49.536148], [14.560869, 49.535247], [14.561282, 49.534351], [14.561741, 49.533866], [14.564566, 49.530233], [14.565018, 49.529774], [14.565312, 49.529559], [14.565995, 49.529139], [14.571979, 49.524972], [14.57314, 49.523982], [14.575968, 49.52621], [14.57548, 49.52683], [14.574293, 49.52868], [14.573275, 49.529113], [14.570333, 49.530789], [14.573479, 49.53916], [14.57389, 49.539235], [14.574886, 49.539337], [14.575792, 49.539603], [14.575965, 49.539704], [14.574335, 49.542895], [14.57251, 49.549096], [14.573197, 49.550743], [14.572487, 49.552571], [14.572148, 49.553704], [14.57187, 49.555206], [14.578219, 49.560538], [14.580576, 49.559748], [14.58307, 49.557637], [14.583887, 49.549414], [14.583103, 49.548358], [14.583059, 49.548207], [14.586153, 49.546616], [14.586324, 49.546692], [14.586661, 49.54685], [14.587388, 49.54736], [14.595903, 49.549618], [14.596628, 49.549738], [14.59736, 49.550063], [14.59786, 49.550455], [14.598257, 49.550972], [14.598476, 49.551504], [14.59875, 49.552777], [14.596645, 49.555697], [14.58867, 49.556266], [14.587441, 49.558109], [14.586553, 49.559263], [14.585161, 49.560933], [14.58699, 49.569349], [14.588007, 49.569525], [14.588516, 49.569632], [14.590202, 49.569943], [14.591565, 49.570154], [14.593326, 49.570188], [14.594405, 49.570116], [14.596815, 49.570562], [14.596161, 49.574102], [14.601421, 49.579482], [14.603789, 49.579164], [14.604268, 49.582732], [14.6019, 49.58305], [14.599975, 49.584019], [14.597008, 49.590736], [14.602758, 49.593428], [14.606129, 49.594691], [14.60703, 49.598746], [14.615501, 49.600446], [14.617754, 49.598539], [14.618802, 49.597326], [14.620893, 49.595316], [14.622082, 49.594202], [14.622467, 49.593915], [14.62303, 49.593571], [14.62361, 49.593302], [14.626921, 49.591259], [14.62845, 49.591741], [14.629114, 49.592788], [14.629188, 49.594132], [14.629306, 49.600451], [14.630757, 49.604049], [14.631404, 49.605175], [14.631506, 49.605454], [14.631811, 49.606242], [14.631549, 49.607561], [14.630223, 49.607859], [14.628453, 49.60754], [14.623044, 49.606244], [14.618165, 49.608543], [14.611214, 49.610027], [14.613082, 49.616354], [14.615304, 49.618003], [14.616087, 49.61882], [14.61673, 49.619576], [14.621644, 49.623108], [14.622394, 49.623325], [14.622941, 49.623615], [14.623625, 49.624059], [14.622777, 49.627558], [14.631519, 49.628889], [14.638625, 49.627822], [14.642179, 49.628395], [14.649261, 49.625406], [14.648315, 49.621332], [14.647682, 49.613692], [14.650158, 49.611079], [14.658057, 49.607372], [14.658123, 49.605164], [14.657229, 49.600533], [14.657051, 49.599958], [14.657738, 49.597924], [14.659685, 49.5976], [14.661802, 49.598549], [14.662229, 49.600148], [14.662402, 49.602098], [14.666894, 49.60876], [14.667338, 49.610298], [14.667902, 49.613854], [14.674729, 49.616638], [14.676206, 49.616292], [14.676826, 49.616038], [14.677328, 49.615937], [14.67784, 49.615898], [14.678351, 49.615909], [14.680635, 49.616075], [14.683017, 49.616251], [14.690647, 49.616131], [14.691919, 49.619498], [14.691635, 49.619605], [14.687262, 49.621019], [14.686235, 49.620556], [14.682928, 49.619863], [14.68256, 49.619822], [14.680374, 49.619666], [14.677111, 49.620196], [14.676463, 49.620386], [14.675826, 49.620427], [14.674176, 49.620195], [14.669631, 49.620479], [14.669011, 49.629151], [14.673082, 49.631394], [14.680831, 49.63391], [14.682001, 49.63355], [14.683912, 49.632812], [14.684586, 49.632467], [14.685895, 49.634887], [14.69059, 49.638502], [14.691578, 49.640982], [14.690851, 49.644508], [14.68792, 49.643904], [14.684988, 49.6433], [14.682749, 49.643565], [14.678329, 49.650827], [14.677612, 49.650782], [14.677115, 49.650733], [14.676505, 49.650606], [14.676017, 49.650434], [14.67562, 49.650235], [14.674993, 49.649754], [14.674635, 49.649356], [14.674344, 49.648867], [14.674124, 49.648172], [14.674082, 49.647581], [14.674137, 49.647099], [14.67, 49.640366], [14.664848, 49.640685], [14.662163, 49.640658], [14.65809, 49.648537], [14.660029, 49.65157], [14.662962, 49.655674], [14.663051, 49.655761], [14.663037, 49.655865], [14.660801, 49.657614], [14.659161, 49.666223], [14.661288, 49.666749], [14.661876, 49.667], [14.665565, 49.668116], [14.666967, 49.668135], [14.667997, 49.669843], [14.668168, 49.671545], [14.667461, 49.673734], [14.665284, 49.676601], [14.666688, 49.685299], [14.670931, 49.687009], [14.678196, 49.686599], [14.682355, 49.68531], [14.684596, 49.687751], [14.684643, 49.687804], [14.687013, 49.692024], [14.68604, 49.69549], [14.683768, 49.695277], [14.683267, 49.695168], [14.682305, 49.694792], [14.681804, 49.694557], [14.681341, 49.694262], [14.673666, 49.692008], [14.673272, 49.691979], [14.672557, 49.691848], [14.671578, 49.691618], [14.67116, 49.69147], [14.669889, 49.690629], [14.668957, 49.69002], [14.664944, 49.688528], [14.661298, 49.688411], [14.65754, 49.688287], [14.6536, 49.695989], [14.656155, 49.697364], [14.656721, 49.697691], [14.659158, 49.698219], [14.662174, 49.698541], [14.661792, 49.702121], [14.661647, 49.706809], [14.661238, 49.714084], [14.661143, 49.717683], [14.661565, 49.726327], [14.661828, 49.727267], [14.662133, 49.728673], [14.66234, 49.729832], [14.66275, 49.732359], [14.663159, 49.734887], [14.659606, 49.735463], [14.659196, 49.732935], [14.658787, 49.730408], [14.658589, 49.729306], [14.658311, 49.728035], [14.658101, 49.727307], [14.657701, 49.726102], [14.657442, 49.725438], [14.648807, 49.722927], [14.64795, 49.723229], [14.645224, 49.723284], [14.642603, 49.722054], [14.641903, 49.721832], [14.641182, 49.721534], [14.642554, 49.718206], [14.642985, 49.710192], [14.64397, 49.70673], [14.63713, 49.702857], [14.634673, 49.700226], [14.630573, 49.696604], [14.629767, 49.696381], [14.629174, 49.696126], [14.628538, 49.695713], [14.62811, 49.69537], [14.621181, 49.693835], [14.615115, 49.699868], [14.614579, 49.701818], [14.614123, 49.703097], [14.614283, 49.706148], [14.621942, 49.708911], [14.622321, 49.708671], [14.623196, 49.708157], [14.624093, 49.707625], [14.625203, 49.707055], [14.625776, 49.70665], [14.627855, 49.709589], [14.629122, 49.71154], [14.630771, 49.71474], [14.62769, 49.717771], [14.625473, 49.720607], [14.619039, 49.718975], [14.618692, 49.718759], [14.618294, 49.718449], [14.615317, 49.716601], [14.61328, 49.711984], [14.612783, 49.711413], [14.611825, 49.709407], [14.611016, 49.707662], [14.610643, 49.707138], [14.609675, 49.706042], [14.601632, 49.708973], [14.601311, 49.709686], [14.600977, 49.710256], [14.600168, 49.711301], [14.599758, 49.71175], [14.59935, 49.712108], [14.596872, 49.714774], [14.592584, 49.717118], [14.590161, 49.722658], [14.591618, 49.726241], [14.592125, 49.727047], [14.592012, 49.732861], [14.595169, 49.736022], [14.595812, 49.736353], [14.603778, 49.735406], [14.606433, 49.732974], [14.607372, 49.734], [14.614663, 49.737939], [14.617204, 49.738337], [14.617954, 49.738411], [14.621655, 49.737947], [14.622741, 49.741379], [14.621617, 49.741734], [14.620984, 49.741876], [14.62041, 49.741966], [14.619629, 49.742034], [14.618662, 49.742055], [14.617737, 49.742005], [14.612412, 49.744176], [14.614641, 49.752874], [14.615266, 49.75307], [14.618132, 49.754216], [14.625327, 49.752705], [14.627056, 49.751525], [14.628195, 49.751375], [14.628586, 49.751316], [14.634038, 49.7483], [14.634844, 49.748273], [14.635888, 49.748299], [14.636059, 49.74844], [14.637582, 49.749685], [14.63875, 49.751424], [14.641486, 49.75453], [14.649978, 49.755323], [14.652765, 49.7573], [14.659457, 49.757239], [14.659901, 49.757099], [14.660904, 49.757513], [14.661299, 49.757712], [14.661611, 49.758038], [14.660983, 49.760533], [14.655649, 49.765682], [14.654484, 49.767288], [14.651236, 49.765735], [14.642599, 49.764434], [14.639352, 49.762897], [14.633368, 49.761907], [14.632766, 49.761997], [14.625953, 49.767645], [14.625501, 49.768229], [14.624886, 49.768625], [14.623559, 49.768785], [14.622695, 49.768617], [14.620054, 49.768638], [14.617729, 49.776723], [14.61745, 49.780312], [14.61222, 49.781008], [14.611522, 49.780979], [14.609727, 49.780791], [14.608592, 49.780639], [14.604994, 49.779136], [14.60431, 49.778805], [14.603915, 49.778581], [14.59907, 49.776449], [14.598261, 49.776187], [14.597433, 49.775359], [14.589747, 49.779303], [14.587995, 49.779324], [14.587441, 49.779299], [14.585579, 49.778965], [14.579203, 49.77999], [14.574981, 49.781319], [14.569205, 49.786969], [14.570078, 49.79106], [14.575896, 49.793786], [14.578697, 49.795894], [14.578642, 49.795996], [14.578196, 49.796549], [14.577538, 49.79699], [14.576695, 49.797335], [14.57623, 49.797508], [14.575654, 49.797696], [14.573286, 49.798244], [14.572882, 49.79831], [14.572757, 49.798329], [14.572328, 49.798351], [14.571725, 49.798299], [14.568946, 49.797869], [14.568394, 49.797764], [14.568063, 49.79768], [14.56211, 49.797827], [14.558861, 49.799378], [14.551726, 49.802683], [14.550151, 49.803889], [14.548321, 49.811184], [14.548484, 49.813985], [14.548939, 49.815832], [14.546918, 49.818811], [14.544086, 49.821586], [14.541592, 49.822305], [14.540854, 49.822396], [14.53612, 49.822919], [14.535491, 49.823068], [14.534955, 49.823156], [14.534542, 49.823196], [14.534154, 49.82321], [14.53332, 49.82315], [14.526829, 49.825438], [14.523929, 49.827483], [14.525226, 49.835376], [14.525653, 49.838238], [14.525435, 49.845917], [14.525479, 49.846296], [14.525333, 49.846363], [14.523433, 49.847186], [14.523036, 49.847279], [14.522719, 49.847328], [14.520591, 49.847546], [14.520062, 49.847502], [14.514891, 49.85225], [14.519806, 49.857106], [14.520426, 49.85709], [14.522588, 49.857419], [14.526832, 49.856172], [14.527942, 49.856362], [14.529108, 49.85664], [14.529682, 49.85692], [14.538054, 49.859587], [14.540038, 49.85932], [14.540252, 49.859292], [14.540672, 49.859458], [14.540742, 49.859488], [14.541138, 49.859665], [14.541668, 49.862529], [14.541512, 49.862609], [14.541225, 49.862735], [14.540453, 49.863076], [14.540302, 49.863075], [14.536111, 49.8638], [14.533438, 49.865268], [14.533127, 49.865297], [14.532665, 49.865302], [14.532269, 49.865236], [14.531508, 49.864867], [14.52332, 49.86661], [14.523221, 49.870209], [14.520214, 49.871458], [14.518994, 49.87201], [14.516414, 49.878399], [14.521652, 49.8816], [14.521918, 49.881616], [14.52232, 49.881666], [14.525747, 49.886339], [14.530036, 49.88925], [14.530455, 49.889392], [14.531029, 49.889725], [14.536238, 49.890782], [14.539495, 49.88564], [14.540151, 49.884529], [14.543723, 49.884977], [14.552084, 49.884094], [14.552663, 49.883394], [14.554181, 49.881927], [14.555079, 49.881187], [14.555518, 49.880931], [14.556249, 49.880675], [14.556655, 49.880625], [14.557238, 49.88059], [14.563357, 49.886624], [14.567601, 49.885774], [14.56801, 49.885579], [14.57094, 49.884652], [14.572078, 49.88463], [14.572807, 49.884839], [14.581327, 49.881943], [14.582967, 49.87967], [14.583372, 49.879136], [14.583972, 49.878488], [14.584424, 49.878153], [14.584924, 49.877879], [14.585622, 49.869175], [14.584898, 49.868723], [14.5842, 49.868193], [14.578712, 49.864935], [14.578329, 49.864828], [14.57784, 49.864597], [14.577294, 49.864128], [14.576756, 49.86276], [14.576972, 49.8618], [14.577257, 49.861266], [14.581975, 49.856082], [14.582495, 49.855327], [14.58313, 49.854859], [14.583718, 49.854581], [14.584815, 49.854157], [14.585311, 49.854075], [14.585782, 49.854073], [14.586733, 49.854176], [14.586905, 49.85421], [14.589943, 49.855107], [14.589956, 49.855218], [14.589807, 49.856192], [14.591121, 49.863593], [14.596366, 49.864066], [14.599096, 49.865696], [14.604235, 49.867312], [14.609565, 49.870084], [14.613998, 49.87108], [14.615789, 49.871523], [14.616311, 49.871649], [14.619128, 49.87235], [14.619472, 49.87245], [14.619791, 49.872562], [14.620253, 49.87277], [14.620749, 49.873049], [14.62119, 49.873363], [14.627862, 49.874582], [14.631382, 49.87285], [14.632124, 49.87247], [14.633328, 49.873047], [14.633859, 49.873473], [14.633764, 49.875675], [14.632735, 49.882899], [14.635151, 49.885568], [14.642854, 49.889776], [14.65132, 49.889446], [14.652255, 49.888355], [14.655293, 49.890288], [14.656623, 49.895593], [14.66348, 49.898985], [14.669799, 49.89284], [14.667287, 49.890774], [14.6676, 49.890251], [14.6686, 49.883953], [14.668587, 49.882963], [14.669254, 49.878048], [14.668503, 49.874527], [14.663447, 49.869976], [14.662034, 49.869499], [14.663184, 49.866088], [14.664597, 49.866564], [14.665326, 49.866766], [14.667383, 49.867277], [14.672196, 49.867028], [14.674713, 49.866997], [14.677969, 49.858905], [14.672895, 49.857308], [14.672364, 49.857289], [14.670049, 49.856631], [14.668787, 49.85326], [14.669483, 49.852258], [14.673212, 49.84545], [14.672508, 49.838607], [14.672717, 49.837898], [14.672931, 49.837513], [14.673226, 49.837102], [14.674361, 49.837235], [14.680011, 49.830874], [14.680507, 49.829106], [14.680644, 49.828234], [14.681051, 49.82725], [14.681859, 49.819187], [14.685355, 49.81833], [14.688628, 49.826282], [14.689122, 49.831761], [14.689243, 49.832556], [14.689253, 49.833164], [14.689135, 49.83399], [14.688947, 49.83464], [14.688605, 49.835393], [14.688364, 49.835808], [14.687281, 49.837053], [14.686457, 49.837741], [14.685602, 49.838329], [14.687643, 49.846702], [14.695788, 49.843924], [14.69944, 49.84457], [14.702529, 49.845643], [14.705287, 49.846115], [14.707008, 49.847482], [14.710146, 49.851194], [14.711888, 49.855546], [14.715649, 49.862097], [14.72309, 49.86702], [14.724153, 49.867392], [14.726324, 49.870932], [14.728064, 49.872824], [14.728411, 49.873304], [14.726916, 49.881516], [14.7273, 49.882477], [14.732368, 49.88792], [14.732778, 49.888283], [14.733139, 49.888797], [14.735287, 49.89074], [14.736194, 49.891259], [14.740624, 49.8919], [14.743568, 49.88444], [14.743613, 49.884396], [14.745844, 49.882668], [14.747769, 49.880961], [14.748139, 49.880605], [14.751502, 49.875018], [14.751882, 49.874751], [14.752382, 49.87454], [14.753276, 49.874338], [14.753832, 49.874202], [14.754264, 49.87413], [14.755544, 49.873935], [14.758363, 49.873816], [14.758431, 49.865326], [14.757088, 49.862144], [14.752945, 49.85438], [14.750997, 49.854221], [14.74931, 49.854485], [14.748932, 49.854522], [14.748515, 49.854513], [14.748155, 49.854462], [14.746569, 49.854083], [14.746246, 49.853959], [14.747537, 49.850599], [14.752365, 49.844868], [14.753538, 49.841465], [14.755409, 49.84211], [14.757281, 49.842755], [14.758428, 49.84305], [14.766443, 49.840864], [14.767177, 49.840389], [14.767921, 49.840112], [14.773347, 49.844372], [14.781943, 49.844269], [14.782802, 49.844074], [14.785637, 49.844602], [14.785591, 49.84508], [14.791609, 49.850276], [14.795325, 49.846996], [14.795559, 49.846457], [14.795951, 49.845738], [14.796612, 49.844774], [14.797227, 49.844072], [14.798017, 49.843328], [14.798917, 49.842632], [14.799983, 49.841958], [14.800751, 49.841547], [14.801699, 49.841107], [14.802336, 49.840858], [14.80291, 49.840655], [14.803564, 49.840453], [14.804871, 49.840124], [14.808646, 49.841411], [14.814187, 49.837269], [14.813301, 49.832784], [14.816148, 49.830581], [14.823721, 49.83157], [14.825167, 49.831683], [14.827353, 49.832447], [14.832811, 49.836068], [14.838015, 49.834958], [14.841314, 49.834249], [14.844614, 49.83354], [14.847913, 49.832832], [14.85118, 49.83213], [14.852833, 49.831745], [14.853477, 49.831576], [14.854872, 49.831173], [14.855674, 49.830911], [14.856506, 49.830614], [14.857545, 49.830208], [14.858044, 49.829997], [14.865203, 49.825367], [14.865966, 49.824641], [14.868036, 49.822644], [14.870106, 49.820646], [14.87204, 49.818781], [14.873973, 49.816915], [14.876473, 49.819506], [14.87454, 49.821371], [14.872606, 49.823237], [14.870536, 49.825235], [14.868466, 49.827232], [14.867683, 49.827976], [14.866506, 49.829016], [14.865291, 49.829981], [14.863772, 49.831031], [14.862728, 49.831663], [14.861706, 49.832229], [14.860909, 49.832633], [14.859563, 49.83326], [14.858954, 49.833521], [14.857819, 49.833966], [14.856886, 49.834301], [14.855993, 49.834594], [14.854479, 49.835033], [14.85375, 49.835226], [14.851999, 49.835636], [14.848669, 49.836352], [14.84537, 49.83706], [14.84207, 49.837769], [14.838771, 49.838477], [14.832028, 49.84375], [14.831591, 49.843519], [14.830066, 49.842623], [14.82267, 49.841738], [14.820672, 49.842007], [14.819514, 49.842143], [14.817387, 49.842362], [14.815284, 49.842579], [14.811105, 49.841167], [14.80552, 49.843665], [14.804454, 49.843941], [14.803988, 49.84409], [14.803539, 49.844251], [14.803019, 49.844457], [14.80126, 49.853056], [14.804384, 49.854844], [14.804058, 49.855413], [14.803785, 49.856003], [14.803309, 49.856835], [14.802352, 49.85938], [14.807335, 49.864969], [14.808284, 49.865123], [14.808713, 49.865277], [14.809653, 49.865699], [14.81096, 49.866751], [14.811827, 49.868266], [14.813314, 49.871211], [14.81153, 49.874338], [14.803768, 49.872305], [14.803345, 49.872251], [14.80299, 49.872012], [14.802337, 49.871367], [14.793841, 49.870883], [14.785872, 49.872025], [14.780251, 49.876154], [14.775599, 49.881251], [14.774218, 49.882002], [14.773312, 49.882247], [14.772982, 49.882228], [14.772312, 49.881898], [14.771943, 49.881637], [14.764648, 49.879527], [14.758084, 49.885651], [14.757892, 49.886224], [14.75748, 49.887187], [14.75715, 49.887788], [14.756606, 49.888615], [14.756054, 49.88931], [14.75558, 49.889826], [14.754933, 49.890454], [14.752687, 49.892182], [14.750962, 49.893381], [14.74905, 49.90123], [14.749052, 49.902433], [14.750903, 49.909794], [14.750871, 49.91004], [14.755578, 49.915684], [14.759376, 49.91413], [14.767547, 49.910656], [14.771629, 49.909364], [14.774068, 49.912012], [14.773971, 49.912101], [14.772727, 49.913141], [14.771685, 49.913928], [14.766535, 49.920268], [14.765573, 49.923339], [14.761979, 49.923139], [14.753686, 49.919963], [14.747461, 49.920596], [14.74323, 49.92488], [14.7409, 49.927624], [14.738372, 49.929455], [14.735033, 49.929756], [14.72976, 49.930276], [14.724689, 49.937449], [14.724015, 49.940986], [14.720376, 49.945666], [14.717553, 49.953219], [14.718288, 49.956098], [14.717338, 49.957699], [14.716309, 49.958659], [14.716069, 49.958542], [14.715608, 49.958241], [14.712321, 49.956345], [14.711934, 49.956138], [14.709803, 49.954952], [14.702452, 49.956658], [14.701621, 49.957516], [14.698949, 49.957374], [14.691516, 49.957511], [14.690988, 49.957881], [14.689714, 49.965945], [14.691574, 49.967193], [14.692083, 49.967435], [14.692611, 49.96773], [14.698047, 49.968664], [14.698779, 49.968509], [14.700074, 49.969951], [14.700227, 49.970527], [14.703422, 49.978776], [14.701781, 49.98198], [14.701055, 49.981608], [14.699197, 49.980573], [14.69795, 49.979912], [14.697354, 49.979471], [14.696893, 49.978964], [14.694823, 49.976213], [14.694258, 49.975644], [14.693883, 49.975329], [14.693396, 49.974673], [14.690668, 49.97251], [14.683537, 49.972245], [14.682168, 49.972567], [14.681343, 49.972884], [14.679554, 49.973514], [14.677743, 49.972949], [14.675664, 49.972624], [14.672753, 49.980607], [14.676535, 49.982021], [14.680165, 49.985322], [14.681312, 49.985961], [14.682122, 49.986501], [14.689986, 49.98776], [14.692921, 49.988611], [14.695306, 49.98899], [14.696343, 49.992437], [14.692258, 49.995873], [14.691874, 49.995985], [14.684332, 49.994175], [14.68, 49.997713], [14.678661, 50.005768], [14.684677, 50.011566], [14.685899, 50.01131], [14.686395, 50.011256], [14.686684, 50.011253], [14.687288, 50.011283], [14.687796, 50.011352], [14.688151, 50.011418], [14.689095, 50.011632], [14.690364, 50.011951], [14.690636, 50.013015], [14.690386, 50.013878], [14.689488, 50.015442], [14.684968, 50.015155], [14.682934, 50.015248], [14.682689, 50.015275], [14.677644, 50.015397], [14.672181, 50.022406], [14.672066, 50.023079], [14.671763, 50.023697], [14.670884, 50.025679], [14.670333, 50.026621], [14.669595, 50.027486], [14.668538, 50.028787], [14.668418, 50.02886], [14.667113, 50.029219], [14.666941, 50.029186], [14.665105, 50.027215], [14.665253, 50.026918], [14.665734, 50.026256], [14.667038, 50.024952], [14.667954, 50.021132], [14.660766, 50.017537], [14.660025, 50.017829], [14.65482, 50.020358], [14.654387, 50.02079], [14.654078, 50.020979], [14.653354, 50.02105], [14.64625, 50.023366], [14.645641, 50.023719], [14.639722, 50.018334], [14.63515, 50.018569], [14.632759, 50.019081], [14.626086, 50.019273], [14.62482, 50.019154], [14.620557, 50.019272], [14.619235, 50.019541], [14.61849, 50.019741], [14.616227, 50.021188], [14.617966, 50.02988], [14.620586, 50.0304], [14.62126, 50.030551], [14.624091, 50.031341], [14.625505, 50.031948], [14.62453, 50.035414], [14.6235, 50.035125], [14.622986, 50.034898], [14.620332, 50.03403], [14.614896, 50.040634], [14.615133, 50.041457], [14.614595, 50.042064], [14.614305, 50.042396], [14.613996, 50.042673], [14.61164, 50.042169], [14.611476, 50.041823], [14.609584, 50.037782], [14.601167, 50.03668], [14.599161, 50.040247], [14.596053, 50.041542], [14.589648, 50.043767], [14.585968, 50.047234], [14.577384, 50.047951], [14.576202, 50.047364], [14.569242, 50.046759], [14.563594, 50.050706], [14.563538, 50.050722], [14.561471, 50.048688], [14.556741, 50.041915], [14.550414, 50.037237], [14.543361, 50.033384], [14.541514, 50.033329], [14.537614, 50.034088], [14.533078, 50.037815], [14.530655, 50.040428], [14.530482, 50.046989], [14.530551, 50.047247], [14.528007, 50.048559], [14.527147, 50.048335], [14.527081, 50.048307], [14.523083, 50.047541], [14.519467, 50.055563], [14.521119, 50.063934], [14.523512, 50.064173], [14.523696, 50.064274], [14.524131, 50.066774], [14.524058, 50.066866], [14.522084, 50.067605], [14.521027, 50.067388], [14.516082, 50.065745], [14.507534, 50.067402], [14.507431, 50.067433], [14.506671, 50.067665], [14.506094, 50.067837], [14.505393, 50.067713], [14.500813, 50.067551], [14.495508, 50.070947], [14.495316, 50.071006], [14.495303, 50.071009], [14.49511, 50.071067], [14.490567, 50.071459], [14.488875, 50.071472], [14.480725, 50.072755], [14.477341, 50.073145], [14.471538, 50.075364], [14.471126, 50.075342], [14.470012, 50.075276], [14.469514, 50.075253], [14.466226, 50.07322], [14.463508, 50.071871], [14.457618, 50.077553], [14.457364, 50.078142], [14.457339, 50.078205], [14.457112, 50.078799], [14.456468, 50.079362], [14.453719, 50.079935], [14.448327, 50.085295], [14.447252, 50.086582], [14.446546, 50.08748], [14.446544, 50.08748], [14.441737, 50.089169], [14.440607, 50.096585], [14.440354, 50.100176], [14.443307, 50.107973], [14.445388, 50.108773], [14.445473, 50.108818], [14.445957, 50.109184], [14.452574, 50.1119], [14.452728, 50.115497], [14.448279, 50.118211], [14.448088, 50.118152], [14.443143, 50.117381], [14.436869, 50.120557], [14.43544, 50.120427], [14.434945, 50.120355], [14.431529, 50.119772], [14.428373, 50.119142], [14.421473, 50.114104], [14.420483, 50.113576], [14.419778, 50.113142], [14.418942, 50.11255], [14.418133, 50.11188], [14.417683, 50.111452], [14.417239, 50.11099], [14.416551, 50.109408], [14.415998, 50.108396], [14.415699, 50.107609], [14.408943, 50.103946], [14.406364, 50.105776], [14.405569, 50.10664], [14.40428, 50.109477], [14.40346, 50.110644], [14.402558, 50.111253], [14.398481, 50.111677], [14.394515, 50.117017], [14.394498, 50.117096], [14.393282, 50.118369], [14.390334, 50.12482], [14.390999, 50.129771], [14.384717, 50.135926], [14.383568, 50.140995], [14.381948, 50.14388], [14.381303, 50.144202], [14.376954, 50.145501], [14.370152, 50.149491], [14.368963, 50.152445], [14.371906, 50.15841], [14.371284, 50.161956], [14.368868, 50.161914], [14.368746, 50.161893], [14.362536, 50.16081], [14.356967, 50.160628], [14.356952, 50.160629], [14.35614, 50.160643], [14.348849, 50.160996], [14.341506, 50.157905], [14.338694, 50.155522], [14.335487, 50.153886], [14.327569, 50.150891], [14.322653, 50.152792], [14.32, 50.159332], [14.317855, 50.16319], [14.311303, 50.163877], [14.309774, 50.163917], [14.309302, 50.163813], [14.305134, 50.162917], [14.304366, 50.162779], [14.302513, 50.162547], [14.295042, 50.163352], [14.294012, 50.163615], [14.287229, 50.167683], [14.285358, 50.170759], [14.27777, 50.168031], [14.275268, 50.16606], [14.275352, 50.162424], [14.275388, 50.161501], [14.277041, 50.154878], [14.277008, 50.153077], [14.277989, 50.1458], [14.27706, 50.143113], [14.276785, 50.142426], [14.276605, 50.141909], [14.276504, 50.141514], [14.276442, 50.140856], [14.273558, 50.136523], [14.268483, 50.136535], [14.266349, 50.138104], [14.262168, 50.14303], [14.262063, 50.143334], [14.261906, 50.143507], [14.255436, 50.142968], [14.253519, 50.144431], [14.255055, 50.152692], [14.256069, 50.155224], [14.260808, 50.160967], [14.263523, 50.161973], [14.262231, 50.164739], [14.259273, 50.169897], [14.253949, 50.173631], [14.251278, 50.171217], [14.245206, 50.170423], [14.245248, 50.178653], [14.24602, 50.17909], [14.246446, 50.179359], [14.247407, 50.18002], [14.248133, 50.1806], [14.248535, 50.18107], [14.248913, 50.182015], [14.24877, 50.183114], [14.248116, 50.185524], [14.245922, 50.185524], [14.24027, 50.180677], [14.238137, 50.179795], [14.236517, 50.179296], [14.229274, 50.182021], [14.227675, 50.181861], [14.223829, 50.173925], [14.221842, 50.173504], [14.219804, 50.173099], [14.217479, 50.172572], [14.215334, 50.172068], [14.21452, 50.171848], [14.211871, 50.170748], [14.209569, 50.169863], [14.202922, 50.171425], [14.20462, 50.179151], [14.206032, 50.179981], [14.206514, 50.18032], [14.207477, 50.180935], [14.209059, 50.181805], [14.210625, 50.182165], [14.21227, 50.182423], [14.213971, 50.18289], [14.215342, 50.182999], [14.215719, 50.183002], [14.216869, 50.182892], [14.217214, 50.186475], [14.212883, 50.187155], [14.211935, 50.187038], [14.20345, 50.187502], [14.203334, 50.18747], [14.202602, 50.187065], [14.202033, 50.186222], [14.193598, 50.184866], [14.19253, 50.185688], [14.191458, 50.186452], [14.19032, 50.187186], [14.188483, 50.188277], [14.18692, 50.189144], [14.185272, 50.190009], [14.18347, 50.19089], [14.18222, 50.191479], [14.179781, 50.192537], [14.17768, 50.193375], [14.174954, 50.194375], [14.173499, 50.194865], [14.171254, 50.195571], [14.169836, 50.19599], [14.167744, 50.196562], [14.165194, 50.197187], [14.162141, 50.197889], [14.159117, 50.198583], [14.156754, 50.199167], [14.155405, 50.199541], [14.154097, 50.199933], [14.152822, 50.200335], [14.151596, 50.200759], [14.149736, 50.201456], [14.14794, 50.202187], [14.146232, 50.202952], [14.144603, 50.203739], [14.142947, 50.204615], [14.141303, 50.205568], [14.140124, 50.206311], [14.137928, 50.20787], [14.136897, 50.208662], [14.135426, 50.209876], [14.133917, 50.21112], [14.129428, 50.217322], [14.124928, 50.219644], [14.1216, 50.218271], [14.117836, 50.216291], [14.11029, 50.213053], [14.107467, 50.212519], [14.105866, 50.212242], [14.103223, 50.211835], [14.09971, 50.211351], [14.098518, 50.211211], [14.096069, 50.210953], [14.094766, 50.210828], [14.09511, 50.207245], [14.096413, 50.20737], [14.098894, 50.20763], [14.10013, 50.207775], [14.103714, 50.208268], [14.106425, 50.208686], [14.108079, 50.208971], [14.110959, 50.209516], [14.119243, 50.208508], [14.120092, 50.208747], [14.124655, 50.209489], [14.133135, 50.207099], [14.134606, 50.205885], [14.135732, 50.205017], [14.136855, 50.204181], [14.138104, 50.203332], [14.13938, 50.202524], [14.141138, 50.201502], [14.142918, 50.200558], [14.144663, 50.199712], [14.146467, 50.198902], [14.148377, 50.198122], [14.150331, 50.197388], [14.151644, 50.196933], [14.153014, 50.1965], [14.15437, 50.196093], [14.155791, 50.195698], [14.158253, 50.195088], [14.161335, 50.19438], [14.164388, 50.193679], [14.169474, 50.186766], [14.169615, 50.183979], [14.171375, 50.179882], [14.171607, 50.177576], [14.166653, 50.170263], [14.162351, 50.169513], [14.161616, 50.169427], [14.158443, 50.168352], [14.157362, 50.168164], [14.15616, 50.167898], [14.155511, 50.167607], [14.155015, 50.167234], [14.154324, 50.166533], [14.156885, 50.164004], [14.159058, 50.164805], [14.159712, 50.164934], [14.16029, 50.165078], [14.162566, 50.16531], [14.165785, 50.157425], [14.165087, 50.156585], [14.164781, 50.154709], [14.162299, 50.149892], [14.15692, 50.148812], [14.156825, 50.148815], [14.150344, 50.146898], [14.149309, 50.1466], [14.146571, 50.146142], [14.145343, 50.146031], [14.142385, 50.141755], [14.134836, 50.139602], [14.134707, 50.139577], [14.131875, 50.139014], [14.123618, 50.141062], [14.120867, 50.142858], [14.119921, 50.143111], [14.11902, 50.143137], [14.118722, 50.143015], [14.118243, 50.140394], [14.112886, 50.134347], [14.110827, 50.134025], [14.103755, 50.135648], [14.102158, 50.136156], [14.100095, 50.137024], [14.098447, 50.137483], [14.095484, 50.138335], [14.091584, 50.137959], [14.085689, 50.135985], [14.081038, 50.134655], [14.073564, 50.137286], [14.071216, 50.140879], [14.070129, 50.142551], [14.069739, 50.142589], [14.069259, 50.142612], [14.068952, 50.142585], [14.063893, 50.137889], [14.063726, 50.13772], [14.06366, 50.137638], [14.063159, 50.136828], [14.062005, 50.133424], [14.059647, 50.12548], [14.059062, 50.12488], [14.051013, 50.122688], [14.048573, 50.124537], [14.047417, 50.126527], [14.046317, 50.12759], [14.045272, 50.128755], [14.043752, 50.129192], [14.043609, 50.129175], [14.034769, 50.128214], [14.033463, 50.124859], [14.036219, 50.116425], [14.032525, 50.1153], [14.03124, 50.115524], [14.02873, 50.116097], [14.027644, 50.116385], [14.026622, 50.116693], [14.025498, 50.11706], [14.024418, 50.117455], [14.023481, 50.117841], [14.022593, 50.118244], [14.021737, 50.11866], [14.020906, 50.119108], [14.020025, 50.119632], [14.019213, 50.120156], [14.018543, 50.120634], [14.017918, 50.121116], [14.017221, 50.121701], [14.016536, 50.122361], [14.015988, 50.122925], [14.015469, 50.123528], [14.014933, 50.124229], [14.014432, 50.124951], [14.013509, 50.126441], [14.011305, 50.130247], [14.009087, 50.134075], [14.00828, 50.135419], [14.007423, 50.136693], [14.006593, 50.137801], [14.00523, 50.139428], [14.003831, 50.1409], [14.00297, 50.141726], [14.002126, 50.142493], [14.001282, 50.143226], [14.000009, 50.144228], [13.998686, 50.14521], [13.997438, 50.146087], [13.995688, 50.147268], [13.993835, 50.148452], [13.991896, 50.149636], [13.989348, 50.151082], [13.988572, 50.15841], [13.988722, 50.158628], [13.985761, 50.160675], [13.9822, 50.159978], [13.974737, 50.157524], [13.971332, 50.15859], [13.968117, 50.159462], [13.966518, 50.159851], [13.964841, 50.160237], [13.96319, 50.160582], [13.960805, 50.161042], [13.958663, 50.161384], [13.956522, 50.1617], [13.954346, 50.161969], [13.952804, 50.162133], [13.951275, 50.162271], [13.949049, 50.162455], [13.948754, 50.158867], [13.95098, 50.158684], [13.95248, 50.158548], [13.953964, 50.158389], [13.956079, 50.158127], [13.958137, 50.157822], [13.960238, 50.157487], [13.962506, 50.157047], [13.964106, 50.156713], [13.96571, 50.156343], [13.967266, 50.155964], [13.970389, 50.155115], [13.97366, 50.154088], [13.980723, 50.149866], [13.98765, 50.147908], [13.990106, 50.146513], [13.991958, 50.14538], [13.993749, 50.144235], [13.995423, 50.143104], [13.996617, 50.142265], [13.997861, 50.141339], [13.999761, 50.139778], [14.000549, 50.139062], [14.005998, 50.132226], [14.008189, 50.128443], [14.010394, 50.124637], [14.011371, 50.123056], [14.011969, 50.122185], [14.012603, 50.121349], [14.013252, 50.120586], [14.013946, 50.119862], [14.014718, 50.119113], [14.015591, 50.118369], [14.01634, 50.117787], [14.017117, 50.117229], [14.018066, 50.116611], [14.019062, 50.116016], [14.020024, 50.115494], [14.021014, 50.115009], [14.021991, 50.114564], [14.023044, 50.114128], [14.024257, 50.113681], [14.0255, 50.113272], [14.026604, 50.112938], [14.027805, 50.112618], [14.030438, 50.112015], [14.031901, 50.111755], [14.03331, 50.111528], [14.035836, 50.111225], [14.039308, 50.110917], [14.042827, 50.110606], [14.046534, 50.102896], [14.048382, 50.100895], [14.048859, 50.10043], [14.05476, 50.095017], [14.055368, 50.094796], [14.056166, 50.094628], [14.057201, 50.094602], [14.063432, 50.090566], [14.061508, 50.081861], [14.061266, 50.07898], [14.061297, 50.078955], [14.061356, 50.078906], [14.06142, 50.078857], [14.063179, 50.078673], [14.063296, 50.078734], [14.065059, 50.07972], [14.073194, 50.078419], [14.080199, 50.080868], [14.082411, 50.080643], [14.084259, 50.080513], [14.088302, 50.073664], [14.089669, 50.071388], [14.094337, 50.06862], [14.095527, 50.067868], [14.095995, 50.067864], [14.097903, 50.06911], [14.097794, 50.069909], [14.097628, 50.070729], [14.101917, 50.077975], [14.104664, 50.078159], [14.107339, 50.078339], [14.112757, 50.072641], [14.11332, 50.072245], [14.117651, 50.069668], [14.118656, 50.069096], [14.122513, 50.071452], [14.123706, 50.073198], [14.125447, 50.075831], [14.132812, 50.071826], [14.133062, 50.068235], [14.132435, 50.062507], [14.1272, 50.056256], [14.126742, 50.056095], [14.122819, 50.05486], [14.122768, 50.053476], [14.123095, 50.05127], [14.123158, 50.050408], [14.123623, 50.050175], [14.124289, 50.050313], [14.125146, 50.050752], [14.127134, 50.05159], [14.130807, 50.052664], [14.131993, 50.053018], [14.132293, 50.053105], [14.133687, 50.053567], [14.134148, 50.05371], [14.139559, 50.046589], [14.139853, 50.038222], [14.133046, 50.033646], [14.13166, 50.033507], [14.131377, 50.033457], [14.128634, 50.032882], [14.127877, 50.032704], [14.125954, 50.032306], [14.12214, 50.032131], [14.118837, 50.031669], [14.118649, 50.031253], [14.118674, 50.028073], [14.12077, 50.027978], [14.122275, 50.019278], [14.116851, 50.013644], [14.114199, 50.013852], [14.110681, 50.012301], [14.110043, 50.012231], [14.108173, 50.012298], [14.104646, 50.011575], [14.09988, 50.018273], [14.101292, 50.020209], [14.104777, 50.021735], [14.10688, 50.021654], [14.108537, 50.023597], [14.107219, 50.024617], [14.10662, 50.025244], [14.101232, 50.031254], [14.105701, 50.038049], [14.105911, 50.038118], [14.109132, 50.042148], [14.111868, 50.045473], [14.111442, 50.047184], [14.111103, 50.047875], [14.109848, 50.048453], [14.109263, 50.048057], [14.100821, 50.047743], [14.100231, 50.047633], [14.099307, 50.047035], [14.099115, 50.046892], [14.098848, 50.046573], [14.089984, 50.045224], [14.088509, 50.048508], [14.086787, 50.047734], [14.08595, 50.047268], [14.085303, 50.046809], [14.084815, 50.04641], [14.084343, 50.045964], [14.081573, 50.043583], [14.078472, 50.038186], [14.07853, 50.03615], [14.070167, 50.033216], [14.066624, 50.033853], [14.059746, 50.028431], [14.057921, 50.02697], [14.057627, 50.02552], [14.054777, 50.017572], [14.054535, 50.017118], [14.053655, 50.01429], [14.052277, 50.011397], [14.045669, 50.009026], [14.042898, 50.010047], [14.038825, 50.012662], [14.037849, 50.013492], [14.035488, 50.015293], [14.034784, 50.015421], [14.033917, 50.015405], [14.03273, 50.015276], [14.025448, 50.011488], [14.019267, 50.008114], [14.014434, 50.011589], [14.012193, 50.016165], [14.01083, 50.019497], [14.009056, 50.018772], [14.00512, 50.016986], [14.002021, 50.013998], [13.995431, 50.013354], [13.992586, 50.014125], [13.987808, 50.013791], [13.984976, 50.013439], [13.979228, 50.007082], [13.979073, 50.003486], [13.97427, 49.99659], [13.970454, 49.992615], [13.963176, 49.987604], [13.961827, 49.987105], [13.959978, 49.985905], [13.952389, 49.987148], [13.946536, 49.99087], [13.946105, 49.994444], [13.942635, 49.994026], [13.935387, 49.993908], [13.932668, 49.994422], [13.92731, 49.988652], [13.925223, 49.987731], [13.923018, 49.986775], [13.915793, 49.987393], [13.911071, 49.994848], [13.911723, 49.998389], [13.906574, 50.000097], [13.903399, 49.999936], [13.897726, 50.003824], [13.896157, 50.008808], [13.892564, 50.009033], [13.886518, 50.009871], [13.88292, 50.009755], [13.88294, 50.009132], [13.883156, 50.008274], [13.883387, 50.007812], [13.885427, 50.002352], [13.88642, 50.001721], [13.889798, 49.993566], [13.889767, 49.992703], [13.890024, 49.990586], [13.890183, 49.989766], [13.890796, 49.987399], [13.884241, 49.98254], [13.87919, 49.982035], [13.878644, 49.982036], [13.877987, 49.981872], [13.875752, 49.980868], [13.86876, 49.985451], [13.865577, 49.986365], [13.864189, 49.986633], [13.864025, 49.98658], [13.863244, 49.982837], [13.863239, 49.98226], [13.86382, 49.975594], [13.866421, 49.973106], [13.869372, 49.9749], [13.872489, 49.975997], [13.874637, 49.976464], [13.88095, 49.976675], [13.887546, 49.977518], [13.891419, 49.977185], [13.892299, 49.976903], [13.893276, 49.976676], [13.897622, 49.972903], [13.897886, 49.97233], [13.898263, 49.971829], [13.900915, 49.969282], [13.901386, 49.968741], [13.902765, 49.963223], [13.904653, 49.954554], [13.896542, 49.951764], [13.895801, 49.952097], [13.894554, 49.95245], [13.890842, 49.955365], [13.889104, 49.964043], [13.889083, 49.964161], [13.88828, 49.96486], [13.887141, 49.965296], [13.88342, 49.965327], [13.879722, 49.965357], [13.877755, 49.963925], [13.877159, 49.963609], [13.876835, 49.963399], [13.876513, 49.963127], [13.87605, 49.962564], [13.875334, 49.961504], [13.875068, 49.961053], [13.874769, 49.960306], [13.87434, 49.95866], [13.874176, 49.958135], [13.874067, 49.955889], [13.868465, 49.950663], [13.861862, 49.948409], [13.861415, 49.948577], [13.857185, 49.95404], [13.860127, 49.958395], [13.859411, 49.961923], [13.859027, 49.965185], [13.856928, 49.96811], [13.855089, 49.966859], [13.847196, 49.968482], [13.840727, 49.969673], [13.839446, 49.969822], [13.8323, 49.971117], [13.827471, 49.97025], [13.827301, 49.966654], [13.826327, 49.962128], [13.826278, 49.960777], [13.823659, 49.952509], [13.822197, 49.95198], [13.821438, 49.951442], [13.816954, 49.948667], [13.814334, 49.947706], [13.813336, 49.94705], [13.804783, 49.945997], [13.804089, 49.948575], [13.801602, 49.951285], [13.794898, 49.95636], [13.794221, 49.957292], [13.793393, 49.957712], [13.792718, 49.957783], [13.792014, 49.957681], [13.791569, 49.957536], [13.789751, 49.95679], [13.789608, 49.956466], [13.78203, 49.952584], [13.781048, 49.953214], [13.777667, 49.955187], [13.7762, 49.957038], [13.775897, 49.957565], [13.775595, 49.957992], [13.77517, 49.958505], [13.767712, 49.95596], [13.765575, 49.95568], [13.764485, 49.954953], [13.761849, 49.949451], [13.755009, 49.944896], [13.752065, 49.944716], [13.751489, 49.944682], [13.745973, 49.944148], [13.744426, 49.940897], [13.745136, 49.94056], [13.746246, 49.940081], [13.746688, 49.939939], [13.748969, 49.939581], [13.750316, 49.939434], [13.750936, 49.939468], [13.751895, 49.93964], [13.752312, 49.939665], [13.75292, 49.939818], [13.755348, 49.9412], [13.756725, 49.941548], [13.757256, 49.941628], [13.75959, 49.942207], [13.763895, 49.941897], [13.764428, 49.941719], [13.765344, 49.941743], [13.77238, 49.939057], [13.776246, 49.933548], [13.775408, 49.925779], [13.777847, 49.92252], [13.776745, 49.916411], [13.768088, 49.916385], [13.76775, 49.916684], [13.767033, 49.917262], [13.766161, 49.918077], [13.76517, 49.919293], [13.764692, 49.919753], [13.763505, 49.920752], [13.76239, 49.92137], [13.760476, 49.922009], [13.759689, 49.922008], [13.756015, 49.922987], [13.752411, 49.928573], [13.752125, 49.929263], [13.748566, 49.92872], [13.745873, 49.921138], [13.743526, 49.91834], [13.736507, 49.912882], [13.73577, 49.912735], [13.734728, 49.911222], [13.726349, 49.911551], [13.724688, 49.915078], [13.724407, 49.917397], [13.723885, 49.917654], [13.722412, 49.917867], [13.722105, 49.917617], [13.721702, 49.917182], [13.715578, 49.911922], [13.706648, 49.912886], [13.706139, 49.913108], [13.703862, 49.913916], [13.698932, 49.916412], [13.697209, 49.92033], [13.697163, 49.920412], [13.695504, 49.921225], [13.695335, 49.921203], [13.693907, 49.9196], [13.694013, 49.91867], [13.694325, 49.916024], [13.694488, 49.913854], [13.694492, 49.912773], [13.694997, 49.911879], [13.69547, 49.911488], [13.696988, 49.902887], [13.694689, 49.900118], [13.695435, 49.89885], [13.695868, 49.897819], [13.692106, 49.889994], [13.6906, 49.890129], [13.689785, 49.890139], [13.68914, 49.890061], [13.680838, 49.89324], [13.67955, 49.895219], [13.679271, 49.89581], [13.678489, 49.896652], [13.677943, 49.896907], [13.677439, 49.897033], [13.676948, 49.897056], [13.676297, 49.896919], [13.673624, 49.895546], [13.667211, 49.898238], [13.666522, 49.899014], [13.66579, 49.89972], [13.664998, 49.900352], [13.664267, 49.900819], [13.662525, 49.90186], [13.660322, 49.903342], [13.658051, 49.900549], [13.65443, 49.892674], [13.65556, 49.889256], [13.657355, 49.889849], [13.65915, 49.890443], [13.660351, 49.890692], [13.666139, 49.890925], [13.670608, 49.884833], [13.67117, 49.883326], [13.667813, 49.875203], [13.666683, 49.874856], [13.665511, 49.874447], [13.664476, 49.874063], [13.663032, 49.873599], [13.660596, 49.872814], [13.65381, 49.877356], [13.650574, 49.879303], [13.650151, 49.879661], [13.649659, 49.879987], [13.649283, 49.880181], [13.648985, 49.880308], [13.648513, 49.880471], [13.643552, 49.885162], [13.64325, 49.885885], [13.643216, 49.885972], [13.642468, 49.887901], [13.639933, 49.890333], [13.639792, 49.890222], [13.639229, 49.889487], [13.639205, 49.889423], [13.638717, 49.887248], [13.638495, 49.886577], [13.639158, 49.88068], [13.632707, 49.877487], [13.629175, 49.878187], [13.626989, 49.876697], [13.626908, 49.876535], [13.628104, 49.870467], [13.627169, 49.86699], [13.632131, 49.860949], [13.6333, 49.859291], [13.633602, 49.859348], [13.634155, 49.859499], [13.640726, 49.854195], [13.634401, 49.849464], [13.633859, 49.849611], [13.633267, 49.849699], [13.631373, 49.849889], [13.630768, 49.849908], [13.628988, 49.850068], [13.628519, 49.850002], [13.628176, 49.849897], [13.625197, 49.849565], [13.624654, 49.84958], [13.621822, 49.849549], [13.62119, 49.857929], [13.617314, 49.861886], [13.612209, 49.861485], [13.606612, 49.862541], [13.602894, 49.86523], [13.601753, 49.865485], [13.59411, 49.869666], [13.591307, 49.867408], [13.591142, 49.860399], [13.591368, 49.859205], [13.590183, 49.85071], [13.589329, 49.849531], [13.587013, 49.841741], [13.58692, 49.839078], [13.587092, 49.83865], [13.586987, 49.830521], [13.585972, 49.82944], [13.586029, 49.829057], [13.587088, 49.82574], [13.587601, 49.825511], [13.588185, 49.825257], [13.59034, 49.824287], [13.591021, 49.823868], [13.591396, 49.823664], [13.593647, 49.815537], [13.590861, 49.813257], [13.591106, 49.80799], [13.588709, 49.80197], [13.588264, 49.801435], [13.587771, 49.800631], [13.58742, 49.799917], [13.587228, 49.799233], [13.587214, 49.798154], [13.581514, 49.794074], [13.577872, 49.798538], [13.577692, 49.79902], [13.577554, 49.799546], [13.577298, 49.800341], [13.573871, 49.799238], [13.567308, 49.79704], [13.563823, 49.79689], [13.563223, 49.796815], [13.562365, 49.796727], [13.555968, 49.796855], [13.548778, 49.801017], [13.545179, 49.801109], [13.540534, 49.796581], [13.536715, 49.79632], [13.535088, 49.795977], [13.53476, 49.79571], [13.531612, 49.790443], [13.530296, 49.787092], [13.530725, 49.781283], [13.534794, 49.776063], [13.532625, 49.767498], [13.532536, 49.76351], [13.533681, 49.756746], [13.528621, 49.753846], [13.527189, 49.753859], [13.526182, 49.753818], [13.524736, 49.753838], [13.524055, 49.753776], [13.516725, 49.75302], [13.514739, 49.753408], [13.514204, 49.753542], [13.512919, 49.753665], [13.510416, 49.754087], [13.506345, 49.75425], [13.501277, 49.757842], [13.500536, 49.758745], [13.496399, 49.764728], [13.494936, 49.76917], [13.491341, 49.768973], [13.485971, 49.763845], [13.484989, 49.760382], [13.479037, 49.758085], [13.478422, 49.758165], [13.477051, 49.758218], [13.476062, 49.758248], [13.475219, 49.758223], [13.473673, 49.758191], [13.470561, 49.758328], [13.468473, 49.758671], [13.466379, 49.759063], [13.464185, 49.759472], [13.459497, 49.760006], [13.452827, 49.760317], [13.452743, 49.760311], [13.444463, 49.75855], [13.443684, 49.755035], [13.441049, 49.748515], [13.437534, 49.748459], [13.435451, 49.748603], [13.428821, 49.751507], [13.428671, 49.751511], [13.426862, 49.750297], [13.425909, 49.748965]]], "type": "Polygon"}}], "metadata": {"attribution": "openrouteservice.org | OpenStreetMap contributors", "service": "isochrones", "timestamp": 1785652286072, "query": {"profile": "driving-car", "profileName": "driving-car", "locations": [[14.0229, 49.6914]], "range": [3600.0], "range_type": "time"}, "engine": {"version": "9.9.0", "build_date": "2026-06-12T10:08:58Z", "graph_date": "2026-07-26T12:04:00Z", "osm_date": "2026-07-20T00:00:00Z"}}}