{"type": "FeatureCollection", "bbox": [17.766833, 49.457674, 18.557133, 49.781139], "features": [{"type": "Feature", "properties": {"group_index": 0, "value": 1800.0, "center": [18.135163402420595, 49.588751959846924]}, "geometry": {"coordinates": [[[17.766833, 49.586366], [17.772911, 49.58135], [17.773534, 49.580843], [17.774148, 49.580416], [17.774704, 49.580077], [17.77524, 49.579791], [17.775839, 49.579508], [17.776432, 49.579265], [17.777034, 49.579049], [17.777682, 49.578849], [17.778337, 49.57868], [17.77896, 49.578546], [17.779654, 49.578426], [17.780263, 49.578347], [17.782342, 49.578243], [17.787808, 49.577884], [17.79017, 49.577941], [17.798327, 49.580383], [17.800938, 49.580771], [17.804225, 49.581213], [17.810413, 49.580873], [17.813434, 49.580323], [17.816465, 49.57977], [17.819497, 49.579218], [17.823139, 49.578231], [17.827181, 49.577824], [17.829972, 49.57732], [17.835203, 49.573609], [17.836413, 49.573332], [17.841284, 49.572341], [17.841619, 49.57219], [17.841806, 49.572123], [17.843796, 49.57261], [17.851635, 49.572853], [17.85291, 49.572366], [17.855417, 49.571302], [17.864088, 49.56977], [17.864254, 49.56922], [17.864555, 49.568637], [17.862895, 49.561452], [17.856829, 49.560961], [17.855208, 49.56053], [17.85452, 49.560254], [17.85284, 49.559736], [17.851951, 49.559155], [17.851548, 49.558806], [17.850306, 49.557969], [17.84991, 49.557488], [17.847269, 49.554767], [17.843099, 49.551991], [17.841853, 49.551169], [17.842099, 49.548668], [17.842184, 49.548509], [17.843433, 49.547934], [17.845962, 49.547832], [17.846708, 49.547884], [17.84751, 49.548218], [17.847702, 49.548356], [17.851461, 49.553286], [17.852062, 49.553954], [17.85773, 49.557475], [17.864337, 49.557982], [17.864853, 49.558227], [17.864956, 49.558318], [17.866513, 49.559784], [17.867156, 49.560559], [17.868474, 49.562589], [17.868857, 49.563439], [17.869685, 49.565381], [17.877563, 49.568852], [17.879581, 49.567793], [17.881716, 49.566685], [17.881054, 49.558207], [17.880663, 49.557765], [17.879961, 49.556956], [17.87676, 49.55418], [17.876326, 49.553944], [17.875739, 49.546498], [17.875445, 49.545805], [17.875108, 49.544795], [17.874656, 49.543774], [17.87384, 49.541853], [17.873024, 49.539932], [17.876338, 49.538525], [17.877153, 49.540446], [17.877969, 49.542367], [17.878267, 49.542997], [17.878465, 49.543494], [17.879454, 49.54559], [17.881278, 49.54794], [17.882005, 49.549098], [17.887095, 49.554217], [17.888928, 49.55896], [17.89567, 49.558593], [17.896482, 49.557781], [17.897721, 49.556868], [17.898689, 49.556291], [17.899602, 49.555862], [17.900471, 49.555507], [17.901668, 49.555122], [17.902385, 49.554934], [17.903346, 49.554744], [17.904245, 49.554606], [17.905183, 49.554498], [17.905872, 49.554449], [17.906501, 49.554428], [17.907678, 49.55444], [17.908341, 49.554476], [17.913273, 49.552508], [17.913283, 49.546188], [17.912014, 49.544735], [17.911604, 49.544207], [17.909003, 49.541944], [17.908463, 49.541522], [17.907007, 49.540442], [17.904921, 49.539389], [17.900539, 49.538714], [17.899947, 49.538522], [17.898362, 49.537998], [17.893758, 49.532647], [17.893738, 49.531288], [17.894577, 49.529142], [17.896999, 49.529225], [17.900593, 49.52901], [17.906446, 49.527573], [17.911009, 49.526476], [17.914504, 49.52522], [17.917699, 49.524251], [17.919004, 49.523756], [17.920199, 49.523219], [17.922178, 49.522277], [17.923039, 49.522066], [17.927579, 49.519856], [17.92888, 49.519008], [17.933235, 49.512039], [17.931492, 49.50889], [17.931944, 49.508639], [17.935769, 49.502851], [17.934511, 49.499478], [17.937015, 49.492393], [17.935164, 49.489305], [17.934884, 49.486534], [17.934868, 49.485989], [17.9349, 49.485565], [17.935999, 49.481334], [17.938197, 49.481102], [17.945683, 49.477438], [17.947934, 49.474629], [17.953426, 49.469371], [17.954139, 49.466605], [17.954449, 49.466156], [17.954604, 49.46597], [17.956763, 49.465356], [17.963453, 49.463466], [17.964422, 49.463077], [17.965251, 49.463011], [17.972227, 49.458414], [17.972629, 49.458178], [17.973526, 49.457674], [17.976391, 49.45849], [17.976572, 49.458595], [17.979091, 49.46133], [17.984414, 49.463607], [17.985238, 49.464185], [17.985438, 49.464386], [17.98696, 49.466298], [17.992114, 49.468405], [17.999055, 49.463938], [18.0005, 49.462208], [18.00068, 49.462205], [18.007766, 49.464463], [18.0101, 49.46742], [18.017961, 49.471306], [18.018542, 49.471167], [18.022413, 49.470029], [18.027289, 49.464736], [18.027782, 49.462153], [18.028001, 49.462049], [18.028023, 49.462039], [18.028244, 49.461938], [18.029865, 49.462221], [18.031905, 49.462693], [18.039275, 49.466482], [18.039956, 49.470017], [18.037321, 49.472785], [18.034041, 49.473947], [18.033493, 49.474186], [18.032377, 49.474536], [18.028029, 49.473915], [18.02388, 49.481215], [18.023338, 49.482387], [18.019891, 49.483179], [18.016656, 49.484313], [18.015964, 49.492159], [18.017957, 49.493256], [18.017259, 49.496788], [18.01495, 49.498653], [18.013844, 49.498696], [18.01195, 49.498889], [18.005466, 49.502569], [18.006707, 49.508108], [18.007129, 49.508531], [18.007631, 49.508959], [18.009312, 49.511447], [18.018085, 49.510498], [18.020521, 49.509238], [18.020559, 49.509226], [18.021039, 49.509561], [18.028196, 49.512613], [18.032931, 49.512349], [18.033293, 49.51226], [18.033725, 49.512235], [18.034272, 49.512307], [18.035177, 49.512607], [18.03539, 49.512866], [18.036499, 49.515956], [18.043147, 49.518242], [18.043821, 49.518115], [18.044339, 49.518107], [18.044797, 49.518136], [18.045364, 49.518232], [18.046157, 49.518571], [18.047005, 49.518996], [18.055328, 49.51638], [18.058924, 49.515712], [18.062528, 49.518287], [18.063065, 49.518801], [18.070637, 49.521879], [18.072912, 49.520174], [18.07317, 49.519926], [18.07369, 49.519352], [18.077342, 49.513391], [18.077891, 49.510243], [18.078138, 49.509353], [18.079548, 49.507946], [18.079989, 49.507784], [18.08082, 49.507564], [18.080952, 49.50755], [18.0818, 49.508473], [18.082191, 49.5089], [18.081516, 49.512582], [18.086862, 49.519571], [18.087269, 49.519607], [18.087692, 49.519686], [18.090034, 49.519969], [18.091833, 49.519944], [18.092172, 49.519916], [18.09259, 49.51991], [18.095002, 49.520218], [18.101965, 49.522712], [18.110041, 49.519514], [18.113724, 49.520709], [18.114459, 49.520814], [18.121466, 49.515216], [18.121592, 49.514704], [18.121824, 49.513804], [18.124683, 49.512039], [18.126666, 49.511964], [18.127549, 49.512002], [18.129935, 49.512241], [18.130978, 49.512459], [18.132163, 49.512876], [18.132946, 49.513285], [18.133485, 49.513619], [18.134057, 49.515821], [18.141545, 49.51793], [18.141752, 49.517834], [18.142588, 49.51752], [18.142708, 49.520258], [18.142756, 49.521088], [18.142715, 49.522443], [18.14258, 49.523182], [18.142343, 49.523944], [18.142137, 49.524535], [18.141803, 49.525005], [18.141282, 49.525442], [18.140927, 49.525619], [18.13753, 49.526994], [18.136392, 49.528072], [18.135792, 49.528826], [18.134371, 49.534159], [18.137722, 49.538275], [18.13877, 49.538848], [18.139677, 49.539458], [18.145657, 49.540698], [18.146706, 49.541273], [18.147506, 49.541771], [18.148464, 49.542496], [18.154687, 49.5457], [18.156066, 49.545992], [18.158181, 49.546626], [18.166361, 49.544266], [18.168642, 49.542114], [18.170025, 49.540414], [18.172245, 49.535754], [18.172322, 49.531277], [18.173274, 49.529706], [18.174009, 49.529233], [18.174575, 49.529077], [18.175038, 49.529048], [18.175819, 49.529188], [18.181014, 49.527917], [18.184151, 49.521741], [18.184929, 49.518941], [18.18644, 49.518371], [18.187163, 49.518669], [18.19236, 49.511443], [18.189277, 49.506326], [18.189026, 49.505805], [18.184807, 49.500854], [18.180779, 49.498312], [18.177662, 49.496959], [18.175514, 49.496044], [18.173696, 49.495243], [18.1724, 49.494515], [18.164833, 49.491884], [18.164728, 49.491393], [18.164818, 49.490301], [18.165072, 49.488227], [18.165156, 49.480163], [18.167988, 49.477941], [18.170668, 49.480144], [18.170768, 49.480514], [18.170879, 49.481101], [18.170878, 49.481738], [18.172011, 49.486211], [18.175537, 49.4896], [18.180465, 49.49215], [18.181382, 49.49261], [18.186579, 49.497557], [18.187026, 49.497955], [18.18748, 49.498443], [18.193844, 49.503996], [18.199739, 49.506401], [18.208484, 49.506963], [18.212057, 49.507406], [18.214687, 49.509937], [18.222816, 49.512289], [18.225675, 49.511923], [18.227262, 49.511911], [18.235228, 49.50821], [18.238181, 49.506136], [18.24126, 49.504827], [18.249486, 49.504871], [18.253162, 49.504182], [18.253903, 49.504739], [18.2543, 49.505502], [18.254368, 49.505804], [18.254434, 49.506422], [18.254423, 49.506747], [18.250788, 49.508228], [18.250232, 49.50869], [18.249131, 49.509261], [18.246386, 49.514876], [18.251845, 49.518565], [18.252394, 49.518699], [18.252876, 49.518892], [18.25798, 49.520244], [18.26153, 49.519857], [18.264208, 49.520361], [18.266109, 49.521001], [18.271237, 49.522072], [18.27373, 49.522386], [18.274787, 49.522541], [18.280387, 49.528362], [18.280117, 49.528795], [18.286719, 49.534784], [18.287519, 49.534533], [18.29591, 49.534624], [18.298122, 49.534955], [18.303053, 49.53579], [18.304408, 49.536075], [18.30959, 49.536931], [18.310148, 49.538123], [18.310042, 49.540503], [18.309482, 49.540574], [18.308962, 49.540605], [18.301177, 49.542203], [18.292871, 49.544031], [18.28755, 49.547221], [18.286319, 49.547996], [18.282916, 49.549916], [18.28175, 49.556103], [18.281856, 49.556462], [18.283746, 49.559478], [18.290381, 49.560285], [18.29067, 49.560615], [18.296286, 49.564042], [18.297811, 49.565104], [18.297541, 49.567571], [18.304733, 49.571506], [18.305611, 49.571566], [18.30705, 49.572037], [18.307919, 49.572367], [18.309338, 49.572823], [18.309938, 49.573136], [18.310921, 49.573824], [18.311303, 49.574263], [18.312126, 49.575741], [18.312077, 49.575955], [18.311823, 49.576551], [18.311268, 49.577149], [18.30504, 49.58348], [18.301472, 49.583], [18.294472, 49.5823], [18.291015, 49.589897], [18.291443, 49.590797], [18.299549, 49.593677], [18.30076, 49.593742], [18.302995, 49.595569], [18.303388, 49.595949], [18.310303, 49.599731], [18.314017, 49.600829], [18.317018, 49.601277], [18.319841, 49.601817], [18.320649, 49.60214], [18.320746, 49.602195], [18.320883, 49.603007], [18.319355, 49.605516], [18.31654, 49.604845], [18.312389, 49.60468], [18.310903, 49.604571], [18.308977, 49.604583], [18.308267, 49.604536], [18.307685, 49.604433], [18.303015, 49.604734], [18.299611, 49.605905], [18.299265, 49.605343], [18.293459, 49.602489], [18.293393, 49.602452], [18.286828, 49.603487], [18.287524, 49.611571], [18.289281, 49.612707], [18.289199, 49.612866], [18.288621, 49.614346], [18.296128, 49.619042], [18.299462, 49.620399], [18.304667, 49.623414], [18.312816, 49.626961], [18.316161, 49.622426], [18.315959, 49.619478], [18.318385, 49.61863], [18.318432, 49.618614], [18.318573, 49.618586], [18.321052, 49.618442], [18.321748, 49.61823], [18.322388, 49.618079], [18.322736, 49.618032], [18.323573, 49.617975], [18.324414, 49.617923], [18.324807, 49.618246], [18.32499, 49.618442], [18.325476, 49.619615], [18.325255, 49.627097], [18.331451, 49.633403], [18.332866, 49.633959], [18.33291, 49.634802], [18.332951, 49.635998], [18.339154, 49.642235], [18.341316, 49.639648], [18.343612, 49.633617], [18.34401, 49.631545], [18.34421, 49.630238], [18.345288, 49.63043], [18.346826, 49.63097], [18.353609, 49.630811], [18.355387, 49.625608], [18.35442, 49.620817], [18.353065, 49.618947], [18.3522, 49.617912], [18.350808, 49.616373], [18.349301, 49.614694], [18.348626, 49.613756], [18.348035, 49.612654], [18.343417, 49.609542], [18.337759, 49.612851], [18.33765, 49.613088], [18.335774, 49.613866], [18.335475, 49.613807], [18.334378, 49.611587], [18.331522, 49.608969], [18.331212, 49.608772], [18.330917, 49.608551], [18.330302, 49.608029], [18.33263, 49.605283], [18.335053, 49.60428], [18.337619, 49.597251], [18.338543, 49.593772], [18.339048, 49.590371], [18.33886, 49.587561], [18.33675, 49.58231], [18.338336, 49.579077], [18.339202, 49.579502], [18.342526, 49.581356], [18.344826, 49.581585], [18.350903, 49.57637], [18.351224, 49.575572], [18.351486, 49.575083], [18.352142, 49.566588], [18.354842, 49.564207], [18.362876, 49.561882], [18.365883, 49.563861], [18.36503, 49.565788], [18.363479, 49.569614], [18.36135, 49.574332], [18.360584, 49.57571], [18.3604, 49.576092], [18.358499, 49.576668], [18.35444, 49.582169], [18.360506, 49.587218], [18.361612, 49.58735], [18.36183, 49.58818], [18.362867, 49.595587], [18.363778, 49.597622], [18.363652, 49.598168], [18.36418, 49.606975], [18.364814, 49.608762], [18.365041, 49.609525], [18.372805, 49.613674], [18.373507, 49.613694], [18.374488, 49.616563], [18.382108, 49.618047], [18.382644, 49.618449], [18.383201, 49.619138], [18.390594, 49.622733], [18.394772, 49.622285], [18.395591, 49.622119], [18.395986, 49.622112], [18.396147, 49.622125], [18.395858, 49.625714], [18.395598, 49.62579], [18.392072, 49.627071], [18.391122, 49.62753], [18.39048, 49.627641], [18.38389, 49.632443], [18.384261, 49.63451], [18.386946, 49.638875], [18.387256, 49.640871], [18.387349, 49.642452], [18.387675, 49.644446], [18.392765, 49.649721], [18.393587, 49.650318], [18.393697, 49.650424], [18.393343, 49.653275], [18.392627, 49.653391], [18.389071, 49.654058], [18.383817, 49.651631], [18.381873, 49.648641], [18.374877, 49.648043], [18.372509, 49.654515], [18.376768, 49.65891], [18.377445, 49.659251], [18.378726, 49.659815], [18.380027, 49.660464], [18.381016, 49.661008], [18.382268, 49.661778], [18.383349, 49.662576], [18.384177, 49.663303], [18.384804, 49.663972], [18.385554, 49.665181], [18.386145, 49.665856], [18.386492, 49.666525], [18.391597, 49.670878], [18.394381, 49.671799], [18.403053, 49.67028], [18.403902, 49.669453], [18.405484, 49.668748], [18.409333, 49.665522], [18.411051, 49.664069], [18.413138, 49.663777], [18.41346, 49.663741], [18.413611, 49.663813], [18.418199, 49.667022], [18.423449, 49.665033], [18.424216, 49.657339], [18.423631, 49.654118], [18.423978, 49.653758], [18.426153, 49.652094], [18.429756, 49.650336], [18.432503, 49.649676], [18.438833, 49.646219], [18.439584, 49.64572], [18.440629, 49.64505], [18.441309, 49.645213], [18.442295, 49.648087], [18.441338, 49.65233], [18.440141, 49.653999], [18.439044, 49.655342], [18.437396, 49.663064], [18.444976, 49.667717], [18.445497, 49.667674], [18.450408, 49.666286], [18.450882, 49.666189], [18.456659, 49.665945], [18.457749, 49.665752], [18.459845, 49.665513], [18.460695, 49.665469], [18.461539, 49.66546], [18.462374, 49.665481], [18.463222, 49.665531], [18.464062, 49.665614], [18.464916, 49.665728], [18.465747, 49.665874], [18.46765, 49.666339], [18.468442, 49.666589], [18.469156, 49.666844], [18.471397, 49.667727], [18.473638, 49.66861], [18.475879, 49.669493], [18.478122, 49.670377], [18.481806, 49.671833], [18.484369, 49.672844], [18.487011, 49.673886], [18.488348, 49.674405], [18.491038, 49.675411], [18.494449, 49.67665], [18.498889, 49.678262], [18.501182, 49.679092], [18.507131, 49.681247], [18.508655, 49.681814], [18.51019, 49.682412], [18.511692, 49.68304], [18.520239, 49.682945], [18.520696, 49.68293], [18.521128, 49.682956], [18.527419, 49.682844], [18.534196, 49.680855], [18.540497, 49.680373], [18.540941, 49.680331], [18.541282, 49.683914], [18.542717, 49.692247], [18.543569, 49.695745], [18.54137, 49.696281], [18.535223, 49.702649], [18.535632, 49.704908], [18.536587, 49.706636], [18.536879, 49.706986], [18.537216, 49.707339], [18.537575, 49.707679], [18.537974, 49.708014], [18.538399, 49.708334], [18.538863, 49.708647], [18.539352, 49.708945], [18.539774, 49.709176], [18.5402, 49.709392], [18.541196, 49.70981], [18.541579, 49.709953], [18.542549, 49.710274], [18.544839, 49.710816], [18.547302, 49.711279], [18.549765, 49.711741], [18.552228, 49.712203], [18.554728, 49.712673], [18.555516, 49.712839], [18.556211, 49.713009], [18.557133, 49.71328], [18.556116, 49.716734], [18.549101, 49.715279], [18.546638, 49.714817], [18.544175, 49.714355], [18.541545, 49.713731], [18.540452, 49.713372], [18.539949, 49.713187], [18.538812, 49.712714], [18.538171, 49.712399], [18.537631, 49.712107], [18.537, 49.711728], [18.536397, 49.711326], [18.535818, 49.710896], [18.535274, 49.710447], [18.53476, 49.709972], [18.534286, 49.709483], [18.533841, 49.708964], [18.533441, 49.708437], [18.533069, 49.707869], [18.532753, 49.707311], [18.532467, 49.706699], [18.532273, 49.706205], [18.531514, 49.703613], [18.53094, 49.701592], [18.530754, 49.701008], [18.529089, 49.697678], [18.528697, 49.697145], [18.528268, 49.696609], [18.527819, 49.696097], [18.527335, 49.695588], [18.526816, 49.695084], [18.525814, 49.694208], [18.525654, 49.694084], [18.525059, 49.693627], [18.524416, 49.693169], [18.523733, 49.692718], [18.514831, 49.692758], [18.514211, 49.692938], [18.506502, 49.693174], [18.505671, 49.691753], [18.505615, 49.691522], [18.505654, 49.689675], [18.500278, 49.682707], [18.497664, 49.681647], [18.49322, 49.680033], [18.489809, 49.678795], [18.487086, 49.677776], [18.48571, 49.677243], [18.483047, 49.676193], [18.476442, 49.682179], [18.476476, 49.685778], [18.474405, 49.685798], [18.472334, 49.685818], [18.464223, 49.686409], [18.462389, 49.686663], [18.462275, 49.686616], [18.453941, 49.685017], [18.451179, 49.684983], [18.449229, 49.684712], [18.446881, 49.692933], [18.448204, 49.694224], [18.447232, 49.69769], [18.446336, 49.697439], [18.439175, 49.702515], [18.439288, 49.706113], [18.432584, 49.707461], [18.43252, 49.70717], [18.432463, 49.706379], [18.432479, 49.705823], [18.429256, 49.697661], [18.427485, 49.697112], [18.42132, 49.693847], [18.420223, 49.692695], [18.418756, 49.691266], [18.419176, 49.68769], [18.416447, 49.68254], [18.408884, 49.680085], [18.406171, 49.68079], [18.404672, 49.681259], [18.403149, 49.681695], [18.401605, 49.682094], [18.400057, 49.682453], [18.398494, 49.682771], [18.395241, 49.683307], [18.394407, 49.683418], [18.392562, 49.683623], [18.390644, 49.683784], [18.387714, 49.683949], [18.385716, 49.684033], [18.383715, 49.684118], [18.380709, 49.684242], [18.374664, 49.689283], [18.374608, 49.691143], [18.37556, 49.697892], [18.373067, 49.703037], [18.372948, 49.703308], [18.369654, 49.701854], [18.367, 49.700156], [18.36504, 49.698899], [18.362703, 49.6968], [18.357862, 49.69536], [18.354292, 49.700088], [18.352889, 49.700845], [18.352051, 49.701113], [18.347876, 49.70189], [18.343675, 49.702587], [18.341893, 49.702976], [18.340542, 49.703266], [18.334325, 49.70526], [18.329703, 49.7085], [18.329463, 49.708724], [18.327934, 49.7089], [18.327591, 49.708792], [18.319927, 49.706049], [18.318784, 49.705647], [18.317947, 49.705384], [18.310115, 49.708134], [18.307893, 49.710967], [18.304923, 49.713559], [18.301705, 49.716202], [18.301351, 49.716485], [18.297629, 49.720168], [18.297458, 49.720335], [18.295783, 49.721945], [18.294392, 49.725519], [18.299963, 49.731702], [18.30206, 49.732405], [18.302719, 49.732504], [18.303126, 49.732589], [18.302396, 49.736114], [18.29955, 49.736583], [18.296002, 49.737542], [18.292387, 49.73919], [18.290623, 49.745384], [18.291649, 49.747931], [18.292042, 49.748645], [18.292461, 49.74926], [18.29338, 49.751322], [18.290683, 49.753706], [18.286311, 49.75786], [18.283784, 49.75714], [18.283503, 49.757055], [18.275786, 49.760966], [18.277414, 49.767608], [18.278803, 49.77093], [18.276051, 49.778275], [18.273543, 49.781139], [18.269943, 49.781117], [18.269956, 49.778939], [18.270038, 49.777047], [18.270247, 49.774578], [18.270454, 49.772791], [18.270833, 49.770187], [18.271139, 49.767485], [18.271705, 49.764086], [18.272222, 49.760458], [18.272542, 49.758445], [18.272766, 49.757365], [18.273063, 49.756265], [18.273446, 49.75516], [18.268765, 49.747947], [18.267625, 49.748117], [18.267129, 49.747589], [18.266783, 49.747152], [18.26623, 49.744798], [18.266893, 49.74452], [18.26815, 49.744064], [18.275902, 49.7396], [18.27642, 49.738726], [18.276127, 49.730553], [18.273052, 49.72868], [18.269573, 49.728232], [18.264035, 49.728094], [18.262688, 49.727966], [18.257374, 49.728542], [18.24956, 49.732737], [18.24862, 49.735665], [18.248527, 49.736898], [18.248475, 49.737014], [18.248457, 49.745491], [18.248693, 49.746278], [18.248734, 49.746755], [18.248795, 49.749992], [18.249342, 49.755259], [18.249632, 49.755917], [18.24832, 49.758027], [18.247116, 49.758374], [18.246903, 49.75842], [18.245299, 49.756782], [18.245303, 49.756682], [18.245195, 49.750059], [18.240904, 49.744371], [18.233275, 49.743658], [18.229675, 49.743619], [18.225042, 49.742817], [18.224291, 49.74286], [18.223192, 49.742894], [18.216524, 49.739598], [18.212105, 49.74288], [18.21262, 49.748379], [18.212468, 49.748495], [18.21203, 49.748756], [18.211942, 49.748779], [18.209617, 49.749811], [18.208809, 49.750128], [18.20701, 49.751188], [18.206744, 49.751421], [18.203039, 49.75709], [18.211292, 49.759348], [18.214868, 49.759081], [18.220046, 49.759541], [18.220616, 49.759442], [18.221085, 49.75939], [18.227802, 49.760112], [18.230126, 49.760409], [18.23036, 49.760412], [18.23189, 49.761021], [18.231502, 49.762497], [18.231126, 49.764539], [18.229421, 49.764275], [18.226004, 49.764335], [18.221511, 49.76571], [18.218161, 49.767029], [18.214488, 49.774925], [18.215236, 49.778063], [18.213917, 49.780346], [18.213271, 49.780543], [18.212404, 49.780285], [18.2111, 49.779435], [18.204834, 49.774085], [18.196111, 49.772581], [18.19314, 49.776321], [18.192872, 49.776829], [18.192462, 49.777733], [18.192191, 49.778254], [18.191695, 49.778853], [18.190594, 49.779554], [18.189045, 49.780198], [18.188423, 49.779179], [18.188067, 49.77699], [18.190266, 49.773547], [18.191552, 49.771277], [18.19203, 49.770937], [18.194153, 49.769559], [18.197232, 49.76632], [18.197586, 49.765861], [18.197112, 49.757216], [18.195572, 49.751751], [18.190926, 49.748453], [18.189954, 49.745968], [18.18874, 49.743399], [18.186784, 49.739981], [18.185609, 49.73849], [18.184418, 49.736978], [18.18262, 49.73401], [18.174256, 49.733475], [18.173918, 49.733606], [18.173569, 49.733748], [18.169371, 49.735608], [18.163903, 49.740832], [18.16274, 49.744239], [18.157686, 49.747836], [18.156913, 49.751352], [18.154035, 49.75072], [18.147671, 49.755004], [18.146895, 49.757596], [18.146105, 49.758783], [18.145209, 49.758524], [18.143207, 49.757901], [18.136182, 49.75367], [18.132597, 49.752527], [18.131185, 49.750533], [18.130846, 49.749256], [18.130752, 49.748901], [18.130676, 49.748268], [18.130682, 49.747808], [18.129692, 49.741661], [18.129761, 49.741502], [18.131901, 49.733385], [18.131984, 49.73196], [18.133769, 49.724983], [18.128319, 49.720971], [18.12732, 49.72059], [18.126377, 49.72019], [18.125388, 49.719812], [18.124797, 49.7195], [18.123576, 49.718964], [18.122467, 49.718368], [18.121742, 49.717774], [18.118743, 49.71502], [18.113671, 49.712893], [18.111788, 49.71258], [18.111041, 49.712104], [18.110682, 49.711671], [18.104604, 49.707449], [18.102641, 49.707059], [18.102071, 49.706904], [18.101602, 49.706749], [18.100587, 49.706295], [18.091676, 49.705322], [18.091464, 49.705238], [18.09102, 49.704737], [18.086327, 49.701006], [18.085608, 49.700308], [18.082047, 49.697573], [18.081513, 49.697236], [18.076847, 49.695368], [18.075543, 49.695435], [18.074667, 49.695337], [18.074209, 49.695328], [18.073834, 49.695329], [18.072718, 49.695093], [18.070483, 49.694341], [18.065286, 49.696187], [18.065298, 49.702945], [18.070257, 49.7064], [18.070734, 49.710603], [18.069939, 49.711969], [18.06469, 49.717896], [18.062827, 49.717582], [18.061007, 49.717268], [18.056084, 49.718282], [18.053064, 49.722548], [18.05178, 49.725911], [18.050007, 49.72585], [18.045489, 49.73249], [18.050616, 49.738306], [18.052859, 49.738653], [18.055, 49.738954], [18.056081, 49.739077], [18.057431, 49.739217], [18.063408, 49.739616], [18.065975, 49.739708], [18.068911, 49.739788], [18.071881, 49.73987], [18.073538, 49.739948], [18.074793, 49.740026], [18.079607, 49.740542], [18.081147, 49.740806], [18.081895, 49.740952], [18.083015, 49.741213], [18.083979, 49.74147], [18.085352, 49.741898], [18.086276, 49.742231], [18.08712, 49.74257], [18.087872, 49.742905], [18.088603, 49.743256], [18.089277, 49.743611], [18.090181, 49.744128], [18.092855, 49.746046], [18.093748, 49.746878], [18.094519, 49.747697], [18.095129, 49.748434], [18.095719, 49.74926], [18.096562, 49.750722], [18.096895, 49.75148], [18.097063, 49.751915], [18.093705, 49.753211], [18.087495, 49.746739], [18.086931, 49.746445], [18.086316, 49.746151], [18.085661, 49.745861], [18.084939, 49.745574], [18.084135, 49.745287], [18.082912, 49.744909], [18.082092, 49.744693], [18.081081, 49.744459], [18.080464, 49.744341], [18.078999, 49.74409], [18.074489, 49.743613], [18.073317, 49.743541], [18.071711, 49.743466], [18.068812, 49.743387], [18.065877, 49.743306], [18.06328, 49.743214], [18.057137, 49.742805], [18.05571, 49.742658], [18.054594, 49.742531], [18.052358, 49.742218], [18.050066, 49.741863], [18.047143, 49.741328], [18.045723, 49.741041], [18.044012, 49.740671], [18.042739, 49.740377], [18.039478, 49.739557], [18.031638, 49.742245], [18.027649, 49.744978], [18.02445, 49.743326], [18.019695, 49.736443], [18.012714, 49.73774], [18.011694, 49.738305], [18.011204, 49.738536], [18.008595, 49.747043], [18.008833, 49.747341], [18.009082, 49.747624], [18.006383, 49.750006], [18.006134, 49.749723], [18.005793, 49.749303], [18.003504, 49.746528], [17.99928, 49.742872], [17.99285, 49.739756], [17.986709, 49.736713], [17.987981, 49.733346], [17.989504, 49.733921], [17.99092, 49.734435], [17.999465, 49.732038], [17.999738, 49.731912], [18.001377, 49.730966], [18.001718, 49.730757], [18.003864, 49.730551], [18.005109, 49.730894], [18.008064, 49.722565], [18.006892, 49.721453], [18.005557, 49.720147], [18.004241, 49.718859], [18.002134, 49.716856], [17.998088, 49.713211], [17.997644, 49.712979], [17.993166, 49.709561], [17.991746, 49.708582], [17.983086, 49.707536], [17.980105, 49.701697], [17.976478, 49.699932], [17.974915, 49.699196], [17.973329, 49.698483], [17.970771, 49.697428], [17.969878, 49.697065], [17.967832, 49.696276], [17.965828, 49.695535], [17.967077, 49.692159], [17.969081, 49.6929], [17.971172, 49.693705], [17.972128, 49.694094], [17.974702, 49.695155], [17.97639, 49.695913], [17.97801, 49.696675], [17.981703, 49.698471], [17.983561, 49.699446], [17.985401, 49.700446], [17.98706, 49.701389], [17.990867, 49.702677], [17.992243, 49.702584], [17.997182, 49.695276], [17.997027, 49.694595], [17.996005, 49.690942], [17.993537, 49.687939], [17.995282, 49.68479], [17.995426, 49.68487], [17.997166, 49.685825], [17.99722, 49.685902], [17.997615, 49.686436], [17.998426, 49.687437], [18.004939, 49.691055], [18.011827, 49.6908], [18.014369, 49.69335], [18.016106, 49.700435], [18.021374, 49.706541], [18.022685, 49.707252], [18.023267, 49.707593], [18.026113, 49.70923], [18.027767, 49.710168], [18.035337, 49.709293], [18.037155, 49.708421], [18.038845, 49.707658], [18.04435, 49.703874], [18.044451, 49.703802], [18.045183, 49.703529], [18.051374, 49.700598], [18.052042, 49.70034], [18.052561, 49.700215], [18.053065, 49.700138], [18.053936, 49.700058], [18.061221, 49.696138], [18.062443, 49.688844], [18.060423, 49.684707], [18.058958, 49.681853], [18.056976, 49.679277], [18.056526, 49.678724], [18.049653, 49.675385], [18.043763, 49.682018], [18.044033, 49.684322], [18.044314, 49.686112], [18.04412, 49.687031], [18.043259, 49.687779], [18.040504, 49.688064], [18.037644, 49.681684], [18.035879, 49.679857], [18.030037, 49.673786], [18.025269, 49.670978], [18.024465, 49.670744], [18.021666, 49.670164], [18.018971, 49.670168], [18.018448, 49.670207], [18.017494, 49.670033], [18.016906, 49.66974], [18.014479, 49.66812], [18.006819, 49.668412], [18.003918, 49.666279], [17.999252, 49.65953], [17.999904, 49.658712], [18.000965, 49.657523], [18.00135, 49.656997], [17.998265, 49.649188], [17.993171, 49.65107], [17.991963, 49.651539], [17.986655, 49.65583], [17.986455, 49.656335], [17.985745, 49.65799], [17.984888, 49.661675], [17.984744, 49.662464], [17.984512, 49.663262], [17.984213, 49.663987], [17.981885, 49.6675], [17.979824, 49.669497], [17.977728, 49.671494], [17.976776, 49.672412], [17.975149, 49.671621], [17.974277, 49.669821], [17.975554, 49.668044], [17.976927, 49.666298], [17.978889, 49.66328], [17.981616, 49.658584], [17.982437, 49.656571], [17.983028, 49.654203], [17.984766, 49.649478], [17.978781, 49.645174], [17.977525, 49.645172], [17.974964, 49.64569], [17.972333, 49.646455], [17.971196, 49.646933], [17.969959, 49.647493], [17.962365, 49.643841], [17.960456, 49.64546], [17.958312, 49.648849], [17.957963, 49.64867], [17.957231, 49.648135], [17.956813, 49.647801], [17.956208, 49.647022], [17.951142, 49.644388], [17.944678, 49.647269], [17.940435, 49.648224], [17.939976, 49.648361], [17.938401, 49.648779], [17.938018, 49.648841], [17.937208, 49.648907], [17.936804, 49.647084], [17.932248, 49.640702], [17.932011, 49.637889], [17.932132, 49.637771], [17.933674, 49.637397], [17.933978, 49.637528], [17.938564, 49.639479], [17.944066, 49.641804], [17.944172, 49.641838], [17.946534, 49.642619], [17.953203, 49.641487], [17.953638, 49.641361], [17.958622, 49.635105], [17.95788, 49.632443], [17.961684, 49.633235], [17.965002, 49.634331], [17.967512, 49.634058], [17.969834, 49.633815], [17.972156, 49.633571], [17.977317, 49.626407], [17.971683, 49.621028], [17.969821, 49.621062], [17.967933, 49.621061], [17.965554, 49.621024], [17.965062, 49.621054], [17.963011, 49.621227], [17.962053, 49.621099], [17.961652, 49.620955], [17.960668, 49.620513], [17.958561, 49.619343], [17.956727, 49.618189], [17.949736, 49.617678], [17.945667, 49.623927], [17.945188, 49.625031], [17.944614, 49.625679], [17.943571, 49.627316], [17.94343, 49.627369], [17.943371, 49.627384], [17.941684, 49.627771], [17.941166, 49.626486], [17.941092, 49.625212], [17.941429, 49.622269], [17.941542, 49.621548], [17.941965, 49.620824], [17.942088, 49.613046], [17.938071, 49.609337], [17.931649, 49.610845], [17.930481, 49.61425], [17.928235, 49.61348], [17.927469, 49.613155], [17.926909, 49.612798], [17.926513, 49.612407], [17.926066, 49.611372], [17.917827, 49.60798], [17.913875, 49.613616], [17.912924, 49.617089], [17.912999, 49.619477], [17.912761, 49.621005], [17.912478, 49.623039], [17.911324, 49.623623], [17.910978, 49.623777], [17.909273, 49.6243], [17.90626, 49.623687], [17.906225, 49.623556], [17.904673, 49.618955], [17.899438, 49.617087], [17.8973, 49.617534], [17.896425, 49.617685], [17.894548, 49.617962], [17.891282, 49.61904], [17.889167, 49.61987], [17.887851, 49.61652], [17.889966, 49.615689], [17.89208, 49.614858], [17.893582, 49.606245], [17.893144, 49.605497], [17.891096, 49.603061], [17.888944, 49.600627], [17.887392, 49.59933], [17.885787, 49.598387], [17.883728, 49.597362], [17.883385, 49.59718], [17.882918, 49.596838], [17.881635, 49.595108], [17.880581, 49.593964], [17.875927, 49.590667], [17.869081, 49.591203], [17.863923, 49.589087], [17.861871, 49.586129], [17.856955, 49.583221], [17.856344, 49.582784], [17.855449, 49.581319], [17.847654, 49.578913], [17.844265, 49.579254], [17.840101, 49.579675], [17.838686, 49.579852], [17.836698, 49.580158], [17.83408, 49.58056], [17.83312, 49.58072], [17.830375, 49.581208], [17.824081, 49.582329], [17.816035, 49.584287], [17.808914, 49.584772], [17.808148, 49.58485], [17.80702, 49.584918], [17.805932, 49.584922], [17.804825, 49.58488], [17.803744, 49.584781], [17.800409, 49.584332], [17.792599, 49.584837], [17.790692, 49.584861], [17.790433, 49.584863], [17.782963, 49.581868], [17.775305, 49.584038], [17.772566, 49.586436], [17.772183, 49.586877], [17.770406, 49.588397], [17.769787, 49.588887], [17.769248, 49.589219], [17.76853, 49.58957], [17.768124, 49.589726], [17.766833, 49.586366]]], "type": "Polygon"}}], "metadata": {"attribution": "openrouteservice.org | OpenStreetMap contributors", "service": "isochrones", "timestamp": 1785691411905, "query": {"profile": "driving-car", "profileName": "driving-car", "locations": [[18.1351564, 49.5887553]], "range": [1800.0], "range_type": "time"}, "engine": {"version": "9.9.0", "build_date": "2026-06-12T10:08:58Z", "graph_date": "2026-07-26T12:04:00Z", "osm_date": "2026-07-20T00:00:00Z"}}}