{"type": "FeatureCollection", "bbox": [17.407617, 49.360316, 18.777598, 49.910239], "features": [{"type": "Feature", "properties": {"group_index": 0, "value": 2700.0, "center": [18.135163402420595, 49.588751959846924]}, "geometry": {"coordinates": [[[17.408568, 49.582599], [17.416474, 49.583882], [17.418212, 49.583947], [17.423251, 49.583713], [17.424502, 49.583555], [17.426347, 49.583278], [17.42901, 49.582834], [17.432365, 49.582311], [17.434598, 49.582038], [17.436379, 49.581858], [17.437449, 49.581766], [17.440382, 49.581577], [17.44288, 49.581485], [17.449595, 49.578409], [17.451274, 49.5767], [17.456454, 49.575844], [17.459091, 49.575676], [17.459973, 49.575873], [17.460748, 49.576253], [17.466862, 49.576881], [17.471033, 49.57417], [17.472548, 49.565589], [17.472358, 49.561994], [17.471203, 49.55524], [17.468141, 49.550227], [17.467703, 49.547408], [17.467864, 49.547229], [17.469126, 49.546765], [17.469534, 49.546881], [17.470209, 49.547128], [17.478279, 49.543852], [17.478546, 49.543767], [17.4789, 49.543798], [17.479261, 49.543867], [17.479368, 49.543899], [17.480047, 49.544274], [17.480277, 49.544647], [17.4806, 49.54517], [17.48085, 49.545784], [17.480929, 49.546583], [17.480831, 49.547753], [17.480541, 49.549611], [17.483089, 49.557795], [17.48512, 49.558927], [17.487166, 49.560068], [17.488813, 49.560983], [17.490148, 49.561819], [17.491768, 49.56306], [17.497955, 49.562327], [17.498854, 49.555617], [17.50133, 49.553003], [17.507052, 49.551584], [17.509346, 49.550639], [17.509767, 49.550502], [17.511303, 49.550317], [17.512346, 49.550286], [17.512795, 49.550251], [17.513586, 49.550164], [17.514656, 49.550022], [17.516287, 49.549712], [17.518011, 49.549652], [17.519374, 49.549693], [17.519799, 49.549673], [17.521033, 49.549522], [17.520726, 49.540703], [17.520531, 49.540483], [17.520376, 49.540297], [17.520313, 49.540176], [17.516784, 49.536604], [17.511243, 49.535543], [17.509258, 49.535241], [17.503924, 49.533055], [17.502542, 49.532279], [17.50404, 49.529005], [17.50686, 49.527379], [17.506915, 49.527346], [17.50812, 49.52713], [17.512021, 49.51942], [17.509426, 49.517488], [17.509079, 49.517243], [17.508327, 49.51675], [17.507553, 49.516272], [17.503547, 49.514131], [17.501899, 49.513411], [17.500475, 49.51284], [17.499349, 49.512431], [17.498177, 49.512035], [17.496961, 49.511656], [17.495661, 49.511276], [17.493823, 49.510818], [17.48838, 49.509463], [17.487432, 49.509195], [17.48647, 49.508899], [17.484815, 49.50832], [17.484127, 49.508052], [17.483014, 49.507583], [17.482456, 49.507317], [17.481159, 49.50668], [17.480378, 49.506251], [17.479665, 49.505832], [17.47896, 49.505387], [17.477776, 49.50458], [17.4772, 49.504154], [17.476626, 49.503697], [17.475671, 49.50288], [17.472792, 49.500224], [17.469901, 49.497519], [17.467007, 49.494811], [17.465244, 49.493152], [17.463415, 49.491483], [17.462194, 49.490413], [17.460923, 49.489368], [17.457707, 49.487013], [17.455992, 49.485879], [17.454102, 49.484739], [17.453417, 49.484351], [17.452681, 49.483945], [17.451331, 49.483245], [17.450405, 49.482785], [17.448127, 49.48172], [17.446796, 49.48115], [17.444875, 49.48037], [17.442304, 49.479373], [17.439345, 49.478245], [17.436843, 49.477224], [17.435922, 49.476813], [17.434922, 49.476342], [17.436457, 49.473086], [17.443586, 49.476009], [17.446185, 49.477016], [17.448151, 49.477815], [17.449542, 49.478409], [17.451928, 49.479523], [17.452931, 49.48002], [17.454339, 49.48075], [17.455155, 49.481199], [17.455873, 49.481604], [17.457851, 49.482796], [17.45969, 49.484009], [17.461569, 49.485311], [17.463135, 49.486528], [17.46448, 49.487632], [17.465786, 49.488774], [17.467671, 49.490493], [17.469474, 49.492189], [17.472361, 49.494891], [17.475252, 49.497596], [17.478109, 49.500231], [17.485518, 49.504732], [17.486122, 49.504966], [17.487655, 49.505499], [17.488489, 49.505754], [17.489355, 49.505997], [17.494695, 49.507325], [17.496533, 49.507783], [17.497967, 49.508199], [17.499248, 49.508598], [17.500501, 49.50902], [17.501704, 49.509457], [17.503235, 49.510068], [17.504988, 49.510832], [17.509356, 49.513156], [17.510216, 49.513685], [17.511051, 49.514231], [17.5115, 49.514547], [17.514196, 49.516552], [17.516513, 49.518364], [17.517887, 49.519415], [17.518874, 49.520135], [17.519927, 49.520876], [17.521, 49.521567], [17.5221, 49.52224], [17.522997, 49.522762], [17.524228, 49.523455], [17.525369, 49.524038], [17.526514, 49.524611], [17.527755, 49.525188], [17.529789, 49.526063], [17.531917, 49.526938], [17.534073, 49.527824], [17.536129, 49.528672], [17.542604, 49.527097], [17.544026, 49.523789], [17.539542, 49.517428], [17.537204, 49.516522], [17.534665, 49.516111], [17.533776, 49.515767], [17.530945, 49.513656], [17.530896, 49.513638], [17.529792, 49.511629], [17.5298, 49.511589], [17.530287, 49.51101], [17.532128, 49.510255], [17.536044, 49.509804], [17.536183, 49.509854], [17.543125, 49.514954], [17.545409, 49.515838], [17.547693, 49.516722], [17.550173, 49.51768], [17.552655, 49.518639], [17.560811, 49.518293], [17.562558, 49.51751], [17.562773, 49.51754], [17.570635, 49.519983], [17.578173, 49.518515], [17.578367, 49.518508], [17.583317, 49.521186], [17.58342, 49.521236], [17.59087, 49.522631], [17.593286, 49.521679], [17.593416, 49.521659], [17.593417, 49.521659], [17.593479, 49.521767], [17.59965, 49.526894], [17.605616, 49.524512], [17.606209, 49.524554], [17.608194, 49.524806], [17.614707, 49.529951], [17.618158, 49.530816], [17.620456, 49.531264], [17.623403, 49.531834], [17.628895, 49.534717], [17.637279, 49.532906], [17.638032, 49.532173], [17.644152, 49.536114], [17.644623, 49.536305], [17.64647, 49.536759], [17.653126, 49.532605], [17.65371, 49.530365], [17.653969, 49.530176], [17.656067, 49.530529], [17.656244, 49.53078], [17.656674, 49.531435], [17.656963, 49.532135], [17.657057, 49.53263], [17.657078, 49.533953], [17.657225, 49.535896], [17.657226, 49.536465], [17.66234, 49.542586], [17.668489, 49.539718], [17.669651, 49.537165], [17.670075, 49.536467], [17.670368, 49.536149], [17.67063, 49.53592], [17.670773, 49.535794], [17.677592, 49.534271], [17.679223, 49.531062], [17.683514, 49.531316], [17.687235, 49.531885], [17.690675, 49.53316], [17.69136, 49.537441], [17.700175, 49.537797], [17.70056, 49.536863], [17.706037, 49.536329], [17.706487, 49.536365], [17.709942, 49.536279], [17.71468, 49.536948], [17.721408, 49.536976], [17.725691, 49.53578], [17.732709, 49.532113], [17.732139, 49.528558], [17.727207, 49.522369], [17.727123, 49.522319], [17.71886, 49.520627], [17.712445, 49.519726], [17.711828, 49.519828], [17.71119, 49.519799], [17.710823, 49.519711], [17.710353, 49.51955], [17.711514, 49.516143], [17.712943, 49.515668], [17.718675, 49.510201], [17.71958, 49.510797], [17.720577, 49.511284], [17.722111, 49.511804], [17.729926, 49.507506], [17.728635, 49.500883], [17.727589, 49.497438], [17.730251, 49.492483], [17.733436, 49.490806], [17.740098, 49.494604], [17.743808, 49.493735], [17.746776, 49.492077], [17.749871, 49.490813], [17.750267, 49.490649], [17.75164, 49.493977], [17.748255, 49.502122], [17.749008, 49.510067], [17.749381, 49.510493], [17.7546, 49.513127], [17.759729, 49.509384], [17.760734, 49.509469], [17.761244, 49.509564], [17.768319, 49.506535], [17.769229, 49.504447], [17.769445, 49.503271], [17.772967, 49.502528], [17.779684, 49.497786], [17.779631, 49.496405], [17.779536, 49.495741], [17.779476, 49.494821], [17.779549, 49.494327], [17.779844, 49.49362], [17.780341, 49.493011], [17.780741, 49.492676], [17.786004, 49.487446], [17.786249, 49.487184], [17.786648, 49.486862], [17.787057, 49.486621], [17.787741, 49.486376], [17.789326, 49.485877], [17.791277, 49.484956], [17.791645, 49.484764], [17.793449, 49.483547], [17.795423, 49.482229], [17.795933, 49.481935], [17.796548, 49.481654], [17.797333, 49.481344], [17.799139, 49.48084], [17.801202, 49.472613], [17.794748, 49.469489], [17.791487, 49.467633], [17.792643, 49.464224], [17.794825, 49.464964], [17.795837, 49.465208], [17.79675, 49.465393], [17.799325, 49.466085], [17.799918, 49.466309], [17.800473, 49.466601], [17.800944, 49.466937], [17.801906, 49.467959], [17.803534, 49.469619], [17.804268, 49.470726], [17.805521, 49.472066], [17.813451, 49.468417], [17.813282, 49.464821], [17.812717, 49.459185], [17.812225, 49.455619], [17.810125, 49.448188], [17.807538, 49.447376], [17.805771, 49.446629], [17.800399, 49.44665], [17.798177, 49.443818], [17.803081, 49.436424], [17.803081, 49.436423], [17.805232, 49.436556], [17.805232, 49.436557], [17.807224, 49.43795], [17.807588, 49.438266], [17.816113, 49.440572], [17.820015, 49.439321], [17.82644, 49.434173], [17.826131, 49.43199], [17.82591, 49.430874], [17.829441, 49.430174], [17.836305, 49.431878], [17.839465, 49.430411], [17.845108, 49.429992], [17.853129, 49.426839], [17.853357, 49.426854], [17.859825, 49.426507], [17.863272, 49.424143], [17.8707, 49.425536], [17.877193, 49.426771], [17.880264, 49.424892], [17.880363, 49.425053], [17.88059, 49.425518], [17.880759, 49.426008], [17.881876, 49.429886], [17.883173, 49.432001], [17.884965, 49.437209], [17.892419, 49.43582], [17.893139, 49.435489], [17.8937, 49.435294], [17.894672, 49.435165], [17.900217, 49.431318], [17.901224, 49.427862], [17.907118, 49.421636], [17.903877, 49.41653], [17.90088, 49.414536], [17.900142, 49.414092], [17.897486, 49.412972], [17.897131, 49.412119], [17.898423, 49.409753], [17.898825, 49.40905], [17.899545, 49.408091], [17.905282, 49.403089], [17.905759, 49.400607], [17.905768, 49.400464], [17.906393, 49.399969], [17.908564, 49.399333], [17.90928, 49.399684], [17.910007, 49.400753], [17.909862, 49.402077], [17.913796, 49.40862], [17.914202, 49.408769], [17.914563, 49.408954], [17.914926, 49.4092], [17.922323, 49.406844], [17.921624, 49.402993], [17.92127, 49.401791], [17.921232, 49.401661], [17.921251, 49.400977], [17.9216, 49.400015], [17.923043, 49.396638], [17.924803, 49.396955], [17.930669, 49.391426], [17.930283, 49.388704], [17.930323, 49.388427], [17.930923, 49.385135], [17.931688, 49.381618], [17.933025, 49.373383], [17.929262, 49.371923], [17.926591, 49.371282], [17.925491, 49.371055], [17.926218, 49.367529], [17.927319, 49.367757], [17.930101, 49.368422], [17.932827, 49.369075], [17.933342, 49.369211], [17.934007, 49.369439], [17.93566, 49.370044], [17.943471, 49.366818], [17.943917, 49.365988], [17.944177, 49.365577], [17.944424, 49.365245], [17.944835, 49.36475], [17.945274, 49.364307], [17.945966, 49.36371], [17.946357, 49.363425], [17.946861, 49.363098], [17.947192, 49.362908], [17.94763, 49.362678], [17.948475, 49.362292], [17.948955, 49.362113], [17.951973, 49.361393], [17.960128, 49.360316], [17.961485, 49.36365], [17.960731, 49.363957], [17.960122, 49.364159], [17.959021, 49.364436], [17.958153, 49.364594], [17.957197, 49.364706], [17.956634, 49.36475], [17.950671, 49.369783], [17.954734, 49.373993], [17.956218, 49.375068], [17.956568, 49.37536], [17.95671, 49.378435], [17.962595, 49.384403], [17.964428, 49.387501], [17.964882, 49.391665], [17.964779, 49.395254], [17.961642, 49.397285], [17.960021, 49.397657], [17.955565, 49.404904], [17.955696, 49.405582], [17.955824, 49.406687], [17.963256, 49.410888], [17.965084, 49.409531], [17.96533, 49.409333], [17.965616, 49.409142], [17.966324, 49.408579], [17.968184, 49.409542], [17.968811, 49.411174], [17.976508, 49.414115], [17.977341, 49.413792], [17.983787, 49.409201], [17.982265, 49.405613], [17.97994, 49.402565], [17.979431, 49.401992], [17.979215, 49.400104], [17.980237, 49.393206], [17.980249, 49.393114], [17.981982, 49.391462], [17.98709, 49.391846], [17.992623, 49.390081], [17.998906, 49.390085], [18.001998, 49.389105], [18.00376, 49.390022], [18.003866, 49.390285], [18.003875, 49.390428], [18.003925, 49.391458], [18.003868, 49.391692], [18.003681, 49.392287], [18.0023, 49.393827], [18.001816, 49.394264], [18.00169, 49.394347], [17.998212, 49.399242], [17.993263, 49.40538], [17.998274, 49.411444], [18.004574, 49.409166], [18.006843, 49.409358], [18.008109, 49.409845], [18.012611, 49.414972], [18.018725, 49.413632], [18.022007, 49.410971], [18.025088, 49.412832], [18.030792, 49.419095], [18.032079, 49.418999], [18.032488, 49.419063], [18.038451, 49.41791], [18.041107, 49.416506], [18.043219, 49.415248], [18.045771, 49.414532], [18.050322, 49.415392], [18.050762, 49.415504], [18.05118, 49.415687], [18.057625, 49.418415], [18.058436, 49.41899], [18.064114, 49.425147], [18.066414, 49.428481], [18.069662, 49.430781], [18.075763, 49.430255], [18.077931, 49.428759], [18.081549, 49.420806], [18.083363, 49.418056], [18.083422, 49.418075], [18.089834, 49.41775], [18.092418, 49.415472], [18.096677, 49.414242], [18.09704, 49.414201], [18.097298, 49.41419], [18.101292, 49.415263], [18.106649, 49.411942], [18.111758, 49.409976], [18.113162, 49.409892], [18.113458, 49.410065], [18.11361, 49.410242], [18.114159, 49.412659], [18.116731, 49.418556], [18.118182, 49.420034], [18.118839, 49.420684], [18.121036, 49.422347], [18.128172, 49.422506], [18.130009, 49.420557], [18.132906, 49.4194], [18.138877, 49.420441], [18.139641, 49.42059], [18.141556, 49.421364], [18.147661, 49.424017], [18.152016, 49.42257], [18.152685, 49.422127], [18.153001, 49.421958], [18.153757, 49.421794], [18.154702, 49.42202], [18.155618, 49.423066], [18.157021, 49.426498], [18.159754, 49.429651], [18.160709, 49.431051], [18.160925, 49.431484], [18.165802, 49.436039], [18.17195, 49.430473], [18.171761, 49.429078], [18.17389, 49.427354], [18.174032, 49.427402], [18.174582, 49.427703], [18.175163, 49.428428], [18.176404, 49.429693], [18.180961, 49.431814], [18.187499, 49.429981], [18.191035, 49.429305], [18.199605, 49.430622], [18.200466, 49.429791], [18.202924, 49.429229], [18.211421, 49.429019], [18.212563, 49.427457], [18.214712, 49.424812], [18.215119, 49.424494], [18.217266, 49.422789], [18.219862, 49.420743], [18.227291, 49.425539], [18.22941, 49.427062], [18.230116, 49.42777], [18.238064, 49.431332], [18.241114, 49.432575], [18.249791, 49.432708], [18.250193, 49.432642], [18.254798, 49.433164], [18.258532, 49.433603], [18.262999, 49.434569], [18.263439, 49.434738], [18.266272, 49.436305], [18.265817, 49.438047], [18.265447, 49.439809], [18.265405, 49.439799], [18.262244, 49.439278], [18.25764, 49.439926], [18.254209, 49.444868], [18.253756, 49.445549], [18.252219, 49.447046], [18.249937, 49.446952], [18.249576, 49.446586], [18.249145, 49.445845], [18.249023, 49.445198], [18.242321, 49.440487], [18.238763, 49.443366], [18.237828, 49.446516], [18.238832, 49.449973], [18.238465, 49.45008], [18.236708, 49.450658], [18.230455, 49.455359], [18.227186, 49.460815], [18.225479, 49.461745], [18.217584, 49.46404], [18.210654, 49.468596], [18.208788, 49.471675], [18.209276, 49.479079], [18.211486, 49.480446], [18.211906, 49.480696], [18.212411, 49.481205], [18.212799, 49.481787], [18.209974, 49.485722], [18.20843, 49.488974], [18.20665, 49.488215], [18.205811, 49.487902], [18.205334, 49.487668], [18.204607, 49.486989], [18.196267, 49.487888], [18.194834, 49.492313], [18.194423, 49.493544], [18.193312, 49.493603], [18.190531, 49.494144], [18.18748, 49.498443], [18.191771, 49.503474], [18.192904, 49.503792], [18.193396, 49.503895], [18.193844, 49.503996], [18.199739, 49.506401], [18.200596, 49.506904], [18.209107, 49.505699], [18.210107, 49.504903], [18.211288, 49.504126], [18.212043, 49.503618], [18.212678, 49.503242], [18.214969, 49.503921], [18.218391, 49.506468], [18.227029, 49.50519], [18.227382, 49.505039], [18.227456, 49.505013], [18.23377, 49.50562], [18.242471, 49.504138], [18.243361, 49.503725], [18.246943, 49.501708], [18.247734, 49.501182], [18.248526, 49.501073], [18.249538, 49.501373], [18.25012, 49.501897], [18.253162, 49.504182], [18.253903, 49.504739], [18.2543, 49.505502], [18.262382, 49.506518], [18.260921, 49.497945], [18.259969, 49.496891], [18.260014, 49.49552], [18.260205, 49.495134], [18.262191, 49.490836], [18.265749, 49.490283], [18.27232, 49.49345], [18.278358, 49.492904], [18.284436, 49.492864], [18.285969, 49.492974], [18.286408, 49.493228], [18.287448, 49.494031], [18.287899, 49.494417], [18.296727, 49.494989], [18.299722, 49.492992], [18.302013, 49.494447], [18.307387, 49.496034], [18.309508, 49.49666], [18.310438, 49.497361], [18.311246, 49.498554], [18.311266, 49.498653], [18.308045, 49.500051], [18.30461, 49.502505], [18.302255, 49.505365], [18.302135, 49.505429], [18.301541, 49.50568], [18.300916, 49.50578], [18.299946, 49.505712], [18.299007, 49.505781], [18.295498, 49.504971], [18.293434, 49.505218], [18.287884, 49.512019], [18.288238, 49.513933], [18.289439, 49.516983], [18.298176, 49.518251], [18.300091, 49.517931], [18.300704, 49.517843], [18.303854, 49.517288], [18.304904, 49.517137], [18.308082, 49.515211], [18.309088, 49.514634], [18.309949, 49.51464], [18.317769, 49.514891], [18.319154, 49.513477], [18.322835, 49.516381], [18.328661, 49.514654], [18.330062, 49.513438], [18.331272, 49.512899], [18.335037, 49.510412], [18.336778, 49.502883], [18.336723, 49.502298], [18.336795, 49.501771], [18.337042, 49.50117], [18.334814, 49.492494], [18.334315, 49.491436], [18.332872, 49.488908], [18.325315, 49.486786], [18.322984, 49.484729], [18.323776, 49.483407], [18.325245, 49.482434], [18.327733, 49.481215], [18.332019, 49.477488], [18.328469, 49.471352], [18.328085, 49.467772], [18.328081, 49.466457], [18.328133, 49.46599], [18.328255, 49.465483], [18.328477, 49.464655], [18.32873, 49.463892], [18.332313, 49.464234], [18.335693, 49.46661], [18.336509, 49.467021], [18.344126, 49.46346], [18.345562, 49.46255], [18.346854, 49.462451], [18.354517, 49.46426], [18.356036, 49.470912], [18.355519, 49.473106], [18.354943, 49.474342], [18.351141, 49.477894], [18.34895, 49.48644], [18.351973, 49.488396], [18.35206, 49.494724], [18.355482, 49.502874], [18.357774, 49.505274], [18.357262, 49.506251], [18.356525, 49.508168], [18.35186, 49.511553], [18.357444, 49.517857], [18.359026, 49.51928], [18.362081, 49.521594], [18.365083, 49.523868], [18.365308, 49.524063], [18.372581, 49.526456], [18.375792, 49.524319], [18.379242, 49.522529], [18.380076, 49.522266], [18.380491, 49.522225], [18.381354, 49.522346], [18.382599, 49.522762], [18.386116, 49.524754], [18.391997, 49.523271], [18.39229, 49.523115], [18.396292, 49.520895], [18.403466, 49.518728], [18.405213, 49.517525], [18.41074, 49.510549], [18.4115, 49.505019], [18.410989, 49.498828], [18.408649, 49.496092], [18.406666, 49.489345], [18.407565, 49.481722], [18.408235, 49.481561], [18.411003, 49.482974], [18.413353, 49.483439], [18.416016, 49.483575], [18.417095, 49.483368], [18.416747, 49.474404], [18.415968, 49.474216], [18.415727, 49.474106], [18.417614, 49.466447], [18.421348, 49.459853], [18.423063, 49.457914], [18.424548, 49.458202], [18.429615, 49.461555], [18.429766, 49.461674], [18.438265, 49.462692], [18.438807, 49.462323], [18.43924, 49.462118], [18.439689, 49.461963], [18.443545, 49.460373], [18.443974, 49.460178], [18.444433, 49.460027], [18.44518, 49.459866], [18.445543, 49.459829], [18.445848, 49.45982], [18.44732, 49.459834], [18.455605, 49.457265], [18.457681, 49.456323], [18.458187, 49.456097], [18.46237, 49.454425], [18.463125, 49.454153], [18.463632, 49.454069], [18.464063, 49.454062], [18.464533, 49.454108], [18.469128, 49.454776], [18.470039, 49.455368], [18.470018, 49.455544], [18.4697, 49.456405], [18.469352, 49.45689], [18.469016, 49.457235], [18.468779, 49.457439], [18.468411, 49.457684], [18.468066, 49.457853], [18.467467, 49.458032], [18.46675, 49.458099], [18.463855, 49.458309], [18.457142, 49.462109], [18.451077, 49.465674], [18.450719, 49.465891], [18.449775, 49.466171], [18.449087, 49.466189], [18.448565, 49.466097], [18.439797, 49.466397], [18.43411, 49.470727], [18.43001, 49.473578], [18.42603, 49.481237], [18.423193, 49.488279], [18.422974, 49.488844], [18.421376, 49.492393], [18.421141, 49.4928], [18.420776, 49.493235], [18.418204, 49.497854], [18.41947, 49.504668], [18.419709, 49.505671], [18.419509, 49.506641], [18.418161, 49.514898], [18.419887, 49.523192], [18.420202, 49.525321], [18.422482, 49.531991], [18.424813, 49.533935], [18.425373, 49.53431], [18.426554, 49.535294], [18.429578, 49.537248], [18.429342, 49.537613], [18.428828, 49.538224], [18.426883, 49.540748], [18.426208, 49.541496], [18.425724, 49.541756], [18.423343, 49.543294], [18.422581, 49.543243], [18.422455, 49.543154], [18.422135, 49.542881], [18.421404, 49.542129], [18.421115, 49.541834], [18.420634, 49.541018], [18.420478, 49.540519], [18.415735, 49.534564], [18.415233, 49.534418], [18.414806, 49.534211], [18.414463, 49.533976], [18.411492, 49.532412], [18.41101, 49.532257], [18.410106, 49.531902], [18.402958, 49.534726], [18.402677, 49.537702], [18.404634, 49.543246], [18.407596, 49.545115], [18.408541, 49.545545], [18.409331, 49.545792], [18.411748, 49.547557], [18.412557, 49.547908], [18.41384, 49.54938], [18.413895, 49.550317], [18.413665, 49.55114], [18.420962, 49.556399], [18.422703, 49.55558], [18.42744, 49.555412], [18.429202, 49.555237], [18.43018, 49.555092], [18.430717, 49.555047], [18.432265, 49.555695], [18.432362, 49.558298], [18.427861, 49.565396], [18.42743, 49.566053], [18.427068, 49.566398], [18.423945, 49.56685], [18.421004, 49.574365], [18.427996, 49.576971], [18.431124, 49.578699], [18.433184, 49.581917], [18.435364, 49.584781], [18.436712, 49.590548], [18.440683, 49.59594], [18.448281, 49.5964], [18.448816, 49.596427], [18.449509, 49.5971], [18.456981, 49.598553], [18.45941, 49.59919], [18.459803, 49.599227], [18.461303, 49.599362], [18.462302, 49.599304], [18.465352, 49.59788], [18.46736, 49.593475], [18.461709, 49.58896], [18.460631, 49.589035], [18.45986, 49.589203], [18.459727, 49.589066], [18.459253, 49.588103], [18.459037, 49.58758], [18.459006, 49.587455], [18.459092, 49.585686], [18.4598, 49.585467], [18.463491, 49.583434], [18.459744, 49.575705], [18.459096, 49.575571], [18.457332, 49.575165], [18.45672, 49.575028], [18.457506, 49.571515], [18.463086, 49.571191], [18.465833, 49.571091], [18.466408, 49.57113], [18.467166, 49.571238], [18.467738, 49.571331], [18.476055, 49.56795], [18.477336, 49.565112], [18.477807, 49.563164], [18.478497, 49.560856], [18.47945, 49.558251], [18.479775, 49.557601], [18.483501, 49.550196], [18.488535, 49.545954], [18.491404, 49.548128], [18.491126, 49.548495], [18.490164, 49.549911], [18.488907, 49.551893], [18.48817, 49.553103], [18.485637, 49.555782], [18.484823, 49.557312], [18.482209, 49.561432], [18.484971, 49.567532], [18.488679, 49.568367], [18.48981, 49.568157], [18.490299, 49.568006], [18.491532, 49.567515], [18.492772, 49.566862], [18.493497, 49.567085], [18.493948, 49.567277], [18.494986, 49.568874], [18.494853, 49.575482], [18.499569, 49.582104], [18.500124, 49.582453], [18.508584, 49.581358], [18.517027, 49.582107], [18.522926, 49.583732], [18.529128, 49.587966], [18.533737, 49.584752], [18.534068, 49.584043], [18.534439, 49.583428], [18.535751, 49.582233], [18.536449, 49.581848], [18.536775, 49.581706], [18.537311, 49.58151], [18.538013, 49.581336], [18.538673, 49.581265], [18.53946, 49.581228], [18.539972, 49.581231], [18.540783, 49.581286], [18.54184, 49.58142], [18.542945, 49.588336], [18.542909, 49.588405], [18.541061, 49.592675], [18.540687, 49.593282], [18.540146, 49.593778], [18.539176, 49.594101], [18.532992, 49.596337], [18.528552, 49.603511], [18.523792, 49.607823], [18.523325, 49.608286], [18.521561, 49.60927], [18.517579, 49.61046], [18.511289, 49.615739], [18.515723, 49.623247], [18.517962, 49.622942], [18.519279, 49.623263], [18.523733, 49.622831], [18.524366, 49.622655], [18.526655, 49.622304], [18.52758, 49.622055], [18.529564, 49.621283], [18.531216, 49.62083], [18.533089, 49.620523], [18.534547, 49.620572], [18.534424, 49.62417], [18.531878, 49.624368], [18.530529, 49.624751], [18.528901, 49.625404], [18.527625, 49.625771], [18.527535, 49.634378], [18.531073, 49.634867], [18.53576, 49.640016], [18.5361, 49.642], [18.544926, 49.641739], [18.544743, 49.639334], [18.545882, 49.638481], [18.546316, 49.638396], [18.546825, 49.638357], [18.551699, 49.631146], [18.551789, 49.630977], [18.552618, 49.630145], [18.556357, 49.623073], [18.556464, 49.622337], [18.556858, 49.61974], [18.560452, 49.619942], [18.565774, 49.620966], [18.573472, 49.619544], [18.580146, 49.615964], [18.582078, 49.608888], [18.582234, 49.607368], [18.584032, 49.606398], [18.58614, 49.60591], [18.588672, 49.607576], [18.590685, 49.610561], [18.591171, 49.615974], [18.589507, 49.61885], [18.58744, 49.621474], [18.586677, 49.627553], [18.588334, 49.632132], [18.587743, 49.637443], [18.591676, 49.641412], [18.592596, 49.641685], [18.596268, 49.647029], [18.603202, 49.644468], [18.603313, 49.644387], [18.604076, 49.644019], [18.605284, 49.643657], [18.606041, 49.64339], [18.609453, 49.642242], [18.612613, 49.64069], [18.614998, 49.639454], [18.618586, 49.638311], [18.623047, 49.640455], [18.62724, 49.643685], [18.633119, 49.643305], [18.639432, 49.64127], [18.642648, 49.639809], [18.648359, 49.636791], [18.649183, 49.636145], [18.654085, 49.630795], [18.650031, 49.626554], [18.64979, 49.626374], [18.649539, 49.62608], [18.649408, 49.625701], [18.649386, 49.625639], [18.651946, 49.623491], [18.652287, 49.623507], [18.654963, 49.624702], [18.661015, 49.62877], [18.667265, 49.630832], [18.669921, 49.630721], [18.674602, 49.631314], [18.679991, 49.629634], [18.680487, 49.629403], [18.683325, 49.627719], [18.684194, 49.627102], [18.684616, 49.626776], [18.69104, 49.627834], [18.696157, 49.62512], [18.700172, 49.623605], [18.700904, 49.623243], [18.702165, 49.622273], [18.701596, 49.613337], [18.701333, 49.613271], [18.700287, 49.611011], [18.70057, 49.610529], [18.702213, 49.60978], [18.702476, 49.609847], [18.703775, 49.610051], [18.70809, 49.602578], [18.708009, 49.602348], [18.707625, 49.601417], [18.709852, 49.598771], [18.710246, 49.59894], [18.710393, 49.599115], [18.710525, 49.599274], [18.716643, 49.605268], [18.715765, 49.608759], [18.71429, 49.612512], [18.714285, 49.61512], [18.717098, 49.620136], [18.72587, 49.620854], [18.72663, 49.620411], [18.730453, 49.614444], [18.730738, 49.613635], [18.731117, 49.613023], [18.736034, 49.607928], [18.736395, 49.607592], [18.739446, 49.599291], [18.738856, 49.595739], [18.741248, 49.589581], [18.741535, 49.588083], [18.74054, 49.579389], [18.740367, 49.578963], [18.740124, 49.578229], [18.739912, 49.577361], [18.739793, 49.57656], [18.739751, 49.575542], [18.739804, 49.574613], [18.739925, 49.573812], [18.74039, 49.572247], [18.74098, 49.570812], [18.741497, 49.569876], [18.741778, 49.569471], [18.744738, 49.57152], [18.745114, 49.580346], [18.745418, 49.581041], [18.745933, 49.583347], [18.745948, 49.58417], [18.751215, 49.591295], [18.754055, 49.593507], [18.753165, 49.595589], [18.752532, 49.59633], [18.749442, 49.600933], [18.748467, 49.604398], [18.747235, 49.612555], [18.747435, 49.61411], [18.747502, 49.614662], [18.747175, 49.616155], [18.742527, 49.619549], [18.741472, 49.627869], [18.744509, 49.628584], [18.745807, 49.628785], [18.745712, 49.632383], [18.745219, 49.63237], [18.744833, 49.632336], [18.738357, 49.635789], [18.741393, 49.643817], [18.743562, 49.647064], [18.750247, 49.652812], [18.749647, 49.656361], [18.748302, 49.656134], [18.747782, 49.656008], [18.746283, 49.655484], [18.74514, 49.655065], [18.744647, 49.654854], [18.7385, 49.6524], [18.732338, 49.651367], [18.727302, 49.649781], [18.718829, 49.649429], [18.717979, 49.650644], [18.717665, 49.651217], [18.716956, 49.652509], [18.715629, 49.652114], [18.711491, 49.65237], [18.709576, 49.660273], [18.710673, 49.665045], [18.711216, 49.667362], [18.711063, 49.667581], [18.709342, 49.66839], [18.701074, 49.670631], [18.694674, 49.676108], [18.694, 49.676716], [18.693276, 49.677211], [18.692319, 49.685891], [18.69516, 49.689988], [18.703245, 49.690658], [18.704804, 49.690236], [18.706063, 49.690968], [18.707045, 49.691612], [18.710161, 49.695146], [18.710739, 49.695711], [18.711744, 49.697069], [18.70885, 49.69921], [18.701719, 49.696248], [18.699803, 49.696326], [18.690967, 49.69607], [18.689975, 49.696172], [18.689341, 49.695995], [18.680701, 49.698336], [18.679697, 49.698612], [18.678248, 49.698685], [18.670383, 49.698638], [18.66829, 49.702696], [18.668278, 49.70284], [18.668104, 49.703356], [18.668098, 49.703368], [18.661964, 49.709901], [18.667821, 49.715004], [18.668434, 49.71497], [18.668435, 49.71497], [18.670932, 49.715385], [18.67199, 49.715409], [18.672896, 49.715392], [18.672964, 49.718991], [18.670323, 49.719432], [18.669973, 49.719478], [18.666314, 49.721075], [18.665745, 49.721382], [18.665067, 49.721524], [18.664645, 49.721534], [18.661035, 49.720125], [18.658224, 49.728128], [18.65862, 49.728543], [18.658807, 49.728771], [18.662262, 49.731159], [18.668519, 49.732672], [18.669131, 49.732436], [18.67011, 49.732754], [18.67022, 49.732849], [18.67061, 49.733309], [18.670428, 49.735794], [18.667829, 49.738779], [18.668578, 49.743592], [18.67522, 49.744557], [18.675316, 49.744491], [18.680834, 49.742771], [18.681381, 49.742439], [18.682264, 49.74196], [18.683062, 49.743037], [18.683982, 49.745124], [18.684587, 49.750846], [18.686323, 49.75432], [18.68917, 49.75768], [18.694937, 49.76091], [18.702669, 49.763253], [18.703653, 49.763359], [18.704619, 49.763505], [18.705257, 49.763625], [18.706286, 49.76386], [18.707473, 49.76418], [18.710425, 49.764994], [18.711211, 49.765232], [18.712548, 49.765692], [18.713107, 49.765924], [18.714045, 49.766366], [18.714501, 49.766604], [18.715389, 49.767113], [18.716018, 49.767525], [18.71805, 49.768967], [18.720082, 49.770409], [18.723067, 49.772526], [18.724036, 49.773248], [18.731252, 49.776733], [18.732576, 49.776899], [18.733566, 49.777045], [18.734526, 49.777229], [18.735446, 49.777443], [18.736874, 49.77785], [18.739456, 49.778646], [18.742038, 49.779443], [18.74462, 49.780239], [18.74782, 49.781227], [18.752047, 49.78253], [18.756273, 49.783832], [18.7605, 49.785134], [18.764679, 49.786422], [18.772419, 49.787426], [18.776743, 49.787593], [18.777598, 49.787602], [18.77756, 49.791202], [18.776705, 49.791193], [18.772276, 49.791024], [18.769747, 49.790923], [18.768695, 49.790856], [18.767822, 49.790771], [18.766701, 49.790608], [18.765912, 49.790459], [18.765141, 49.790285], [18.763716, 49.789891], [18.75944, 49.788574], [18.755214, 49.787272], [18.750987, 49.78597], [18.74676, 49.784668], [18.743559, 49.783679], [18.740977, 49.782883], [18.738395, 49.782087], [18.729914, 49.780164], [18.729424, 49.780071], [18.728463, 49.779838], [18.727963, 49.77969], [18.72762, 49.779585], [18.726716, 49.779253], [18.726181, 49.779027], [18.72534, 49.778614], [18.724968, 49.778412], [18.724249, 49.777965], [18.7233, 49.777262], [18.721795, 49.776065], [18.720919, 49.775415], [18.717996, 49.773344], [18.715966, 49.771902], [18.707969, 49.769712], [18.70536, 49.769512], [18.704931, 49.769535], [18.704543, 49.769503], [18.704363, 49.76947], [18.704073, 49.769344], [18.699463, 49.766793], [18.693696, 49.77156], [18.694855, 49.777329], [18.691803, 49.779238], [18.684141, 49.775352], [18.683777, 49.77177], [18.676253, 49.766842], [18.669927, 49.765227], [18.667472, 49.765707], [18.665417, 49.766073], [18.662365, 49.77378], [18.660834, 49.777038], [18.660484, 49.776873], [18.660067, 49.776625], [18.651384, 49.775753], [18.648804, 49.776424], [18.643499, 49.777192], [18.639075, 49.781031], [18.638423, 49.782048], [18.637321, 49.783155], [18.636609, 49.783647], [18.634862, 49.791431], [18.636377, 49.793209], [18.633637, 49.795544], [18.632122, 49.793767], [18.630607, 49.791989], [18.625776, 49.788007], [18.623684, 49.785402], [18.623249, 49.783509], [18.6231, 49.78185], [18.617275, 49.775248], [18.609639, 49.779375], [18.609162, 49.782943], [18.607755, 49.789145], [18.606806, 49.790594], [18.60629, 49.79072], [18.604214, 49.78979], [18.595915, 49.790997], [18.595187, 49.791799], [18.589606, 49.798324], [18.58914, 49.79943], [18.584101, 49.80617], [18.583584, 49.808626], [18.583201, 49.810551], [18.582769, 49.812392], [18.582253, 49.813945], [18.581736, 49.81525], [18.58126, 49.816289], [18.580666, 49.817444], [18.579882, 49.818778], [18.579389, 49.819536], [18.578789, 49.820392], [18.577516, 49.822072], [18.57697, 49.82272], [18.575963, 49.823761], [18.575172, 49.824496], [18.574625, 49.824958], [18.569114, 49.831746], [18.567722, 49.83193], [18.567615, 49.831921], [18.565807, 49.830322], [18.566111, 49.828685], [18.566249, 49.827971], [18.566369, 49.827558], [18.56666, 49.826908], [18.566902, 49.826497], [18.567235, 49.826041], [18.567719, 49.825517], [18.568142, 49.825135], [18.568596, 49.82479], [18.570378, 49.823631], [18.57096, 49.82323], [18.57173, 49.822659], [18.572391, 49.822135], [18.572844, 49.82175], [18.573507, 49.821128], [18.574379, 49.820221], [18.574749, 49.819769], [18.575918, 49.81822], [18.57644, 49.817472], [18.576861, 49.81682], [18.573315, 49.808591], [18.571173, 49.805697], [18.574338, 49.801326], [18.57597, 49.798912], [18.577548, 49.796382], [18.57874, 49.794447], [18.580558, 49.793815], [18.585877, 49.789902], [18.588915, 49.786363], [18.584737, 49.780533], [18.582494, 49.779966], [18.57886, 49.780803], [18.575762, 49.781371], [18.574973, 49.781441], [18.573699, 49.781523], [18.570461, 49.77914], [18.569901, 49.778756], [18.563092, 49.774473], [18.561832, 49.774729], [18.55867, 49.773715], [18.551961, 49.772643], [18.54847, 49.778483], [18.547055, 49.77948], [18.543076, 49.782502], [18.538281, 49.782406], [18.531079, 49.782306], [18.525767, 49.785745], [18.52532, 49.785766], [18.523437, 49.784204], [18.52235, 49.782679], [18.52151, 49.78162], [18.522531, 49.780186], [18.523335, 49.778517], [18.522404, 49.770888], [18.518552, 49.767025], [18.513871, 49.764065], [18.513323, 49.761403], [18.504425, 49.760903], [18.501028, 49.760342], [18.500259, 49.760326], [18.500335, 49.756727], [18.492139, 49.755389], [18.49051, 49.760099], [18.490853, 49.767766], [18.49402, 49.773243], [18.494129, 49.774647], [18.494516, 49.776808], [18.49405, 49.776873], [18.49045, 49.776748], [18.490106, 49.776684], [18.488769, 49.776317], [18.485303, 49.775308], [18.477583, 49.773962], [18.476701, 49.773718], [18.473148, 49.773135], [18.465591, 49.776275], [18.465327, 49.776272], [18.464911, 49.776225], [18.461941, 49.775578], [18.456289, 49.773823], [18.456154, 49.773771], [18.455776, 49.77361], [18.447587, 49.774008], [18.445993, 49.776072], [18.445582, 49.776212], [18.441788, 49.775865], [18.441019, 49.775567], [18.440629, 49.775252], [18.440628, 49.775251], [18.440238, 49.774936], [18.436285, 49.770544], [18.435376, 49.769076], [18.434501, 49.767956], [18.433583, 49.766084], [18.425367, 49.763728], [18.421349, 49.765668], [18.420667, 49.766262], [18.420384, 49.766513], [18.419197, 49.766617], [18.418885, 49.766586], [18.417954, 49.766237], [18.410282, 49.769736], [18.409549, 49.770833], [18.406271, 49.771414], [18.399344, 49.771924], [18.395751, 49.773997], [18.393964, 49.775147], [18.392865, 49.775112], [18.386283, 49.774017], [18.384263, 49.779222], [18.388335, 49.783342], [18.390394, 49.783983], [18.392111, 49.7845], [18.393051, 49.784753], [18.394051, 49.784966], [18.400792, 49.785709], [18.400991, 49.785722], [18.401882, 49.78576], [18.401949, 49.785846], [18.402407, 49.787533], [18.402405, 49.787987], [18.402376, 49.788224], [18.400766, 49.789315], [18.400296, 49.789428], [18.400245, 49.789424], [18.39341, 49.788509], [18.392303, 49.788275], [18.391183, 49.787978], [18.389358, 49.787431], [18.387264, 49.786779], [18.380356, 49.786597], [18.375403, 49.787076], [18.375394, 49.787077], [18.372855, 49.786531], [18.367103, 49.785337], [18.361932, 49.786013], [18.359654, 49.786278], [18.352221, 49.790301], [18.350928, 49.791171], [18.350459, 49.791012], [18.350068, 49.790846], [18.349341, 49.790316], [18.348583, 49.78953], [18.340273, 49.787638], [18.336157, 49.791983], [18.335989, 49.799362], [18.343351, 49.80403], [18.343999, 49.804256], [18.349365, 49.811014], [18.350528, 49.811275], [18.351448, 49.811535], [18.352283, 49.811814], [18.358458, 49.815338], [18.358748, 49.815505], [18.35876, 49.815512], [18.359249, 49.81579], [18.357472, 49.818921], [18.353063, 49.818944], [18.351719, 49.818062], [18.344751, 49.816432], [18.342131, 49.817388], [18.33871, 49.819147], [18.336163, 49.820044], [18.331917, 49.823416], [18.331287, 49.831624], [18.33269, 49.834939], [18.330299, 49.837564], [18.328113, 49.837274], [18.321, 49.842506], [18.320741, 49.842614], [18.31922, 49.842665], [18.312264, 49.845691], [18.306309, 49.847348], [18.305827, 49.847368], [18.305788, 49.847369], [18.305305, 49.847378], [18.30112, 49.847808], [18.297224, 49.854825], [18.298367, 49.8585], [18.299522, 49.860421], [18.299506, 49.860527], [18.298359, 49.862042], [18.298157, 49.862094], [18.297834, 49.862075], [18.294768, 49.862824], [18.295425, 49.871065], [18.297576, 49.871737], [18.298975, 49.872232], [18.300186, 49.872698], [18.302075, 49.873495], [18.302659, 49.873769], [18.310056, 49.874011], [18.312685, 49.876006], [18.312914, 49.876158], [18.313184, 49.876353], [18.313974, 49.876985], [18.314325, 49.87728], [18.31446, 49.877408], [18.315089, 49.878036], [18.315139, 49.878147], [18.312961, 49.880612], [18.307574, 49.886128], [18.306938, 49.888066], [18.306289, 49.890041], [18.305834, 49.891327], [18.307906, 49.899589], [18.307991, 49.899694], [18.313742, 49.906048], [18.314782, 49.90654], [18.315681, 49.906909], [18.314312, 49.910239], [18.313413, 49.909869], [18.31221, 49.909306], [18.310891, 49.908599], [18.31004, 49.908089], [18.309372, 49.907657], [18.308853, 49.907294], [18.308115, 49.906756], [18.307382, 49.906167], [18.306793, 49.905659], [18.306006, 49.904922], [18.305459, 49.904363], [18.304244, 49.902884], [18.303598, 49.901967], [18.303227, 49.901333], [18.301897, 49.898092], [18.30164, 49.896848], [18.301548, 49.896067], [18.301501, 49.895184], [18.301526, 49.894269], [18.301577, 49.89369], [18.30187, 49.89202], [18.302142, 49.891032], [18.302417, 49.890195], [18.302894, 49.888842], [18.303518, 49.886942], [18.304154, 49.885005], [18.300151, 49.877799], [18.29611, 49.875397], [18.295152, 49.8751], [18.29325, 49.874565], [18.291299, 49.874016], [18.290103, 49.873663], [18.288982, 49.873308], [18.287535, 49.872822], [18.286189, 49.87234], [18.285429, 49.872049], [18.283387, 49.871227], [18.281734, 49.870504], [18.280714, 49.87003], [18.279717, 49.869544], [18.277796, 49.868544], [18.274627, 49.866804], [18.273302, 49.866134], [18.272575, 49.865811], [18.271712, 49.865467], [18.270918, 49.865174], [18.269995, 49.864865], [18.269179, 49.864619], [18.260259, 49.865274], [18.257626, 49.865253], [18.255867, 49.864872], [18.254104, 49.864509], [18.251584, 49.860687], [18.251251, 49.860027], [18.245074, 49.85409], [18.243177, 49.853731], [18.24242, 49.853631], [18.239999, 49.853326], [18.237522, 49.853133], [18.235535, 49.852865], [18.234434, 49.852677], [18.233683, 49.852534], [18.232956, 49.852374], [18.232438, 49.852249], [18.231807, 49.852073], [18.230814, 49.851765], [18.229888, 49.851431], [18.22918, 49.851148], [18.228506, 49.85085], [18.227776, 49.850493], [18.227073, 49.850108], [18.226322, 49.84966], [18.22548, 49.849103], [18.224055, 49.848046], [18.223059, 49.847222], [18.222086, 49.846339], [18.220912, 49.845148], [18.220127, 49.844254], [18.219485, 49.843462], [18.219038, 49.842858], [18.214536, 49.838452], [18.214209, 49.838193], [18.213832, 49.837757], [18.213562, 49.837279], [18.21345, 49.836132], [18.211601, 49.828592], [18.206823, 49.827577], [18.203709, 49.828518], [18.200772, 49.831379], [18.200512, 49.831872], [18.198963, 49.834163], [18.191674, 49.838114], [18.191277, 49.838418], [18.190012, 49.839358], [18.189471, 49.839785], [18.182009, 49.837645], [18.1777, 49.837818], [18.174485, 49.842648], [18.171488, 49.845954], [18.169237, 49.848712], [18.169187, 49.848707], [18.167498, 49.84731], [18.159417, 49.844844], [18.153921, 49.847891], [18.149349, 49.852526], [18.146758, 49.855025], [18.145886, 49.854573], [18.137225, 49.853948], [18.136819, 49.854317], [18.136087, 49.85492], [18.134898, 49.855734], [18.134018, 49.856273], [18.131256, 49.857898], [18.128495, 49.859523], [18.126015, 49.860986], [18.120425, 49.866304], [18.119953, 49.866907], [18.119219, 49.867648], [18.118471, 49.868248], [18.118024, 49.868547], [18.117385, 49.868926], [18.116347, 49.869433], [18.115453, 49.869774], [18.114215, 49.870176], [18.112192, 49.870743], [18.105993, 49.874449], [18.105198, 49.875018], [18.104641, 49.875402], [18.10406, 49.875765], [18.103447, 49.876099], [18.102879, 49.876375], [18.102342, 49.876601], [18.101499, 49.876903], [18.100831, 49.877099], [18.095297, 49.878717], [18.086988, 49.877403], [18.087135, 49.873806], [18.088638, 49.873867], [18.094006, 49.874099], [18.095361, 49.874122], [18.103896, 49.871523], [18.105899, 49.869923], [18.10671, 49.869313], [18.107163, 49.869002], [18.107643, 49.868704], [18.108174, 49.868415], [18.108719, 49.868152], [18.109834, 49.867714], [18.111116, 49.867308], [18.118472, 49.862413], [18.118782, 49.861925], [18.119118, 49.861481], [18.119669, 49.860878], [18.121081, 49.859748], [18.121651, 49.859382], [18.124186, 49.857886], [18.126666, 49.856422], [18.12943, 49.854796], [18.132111, 49.852778], [18.134192, 49.849754], [18.134517, 49.849], [18.135246, 49.841782], [18.134498, 49.839014], [18.126342, 49.835308], [18.125165, 49.835869], [18.124658, 49.835946], [18.117119, 49.835562], [18.114898, 49.837616], [18.114752, 49.837796], [18.11302, 49.838229], [18.112869, 49.838166], [18.112868, 49.838166], [18.107888, 49.834888], [18.10777, 49.831509], [18.108407, 49.831326], [18.108716, 49.831275], [18.115061, 49.825143], [18.116911, 49.817811], [18.117652, 49.817064], [18.120131, 49.810128], [18.11868, 49.807487], [18.118992, 49.807334], [18.120424, 49.807169], [18.124139, 49.803991], [18.122037, 49.797566], [18.12094, 49.796869], [18.114119, 49.798439], [18.113673, 49.798874], [18.113405, 49.799079], [18.110299, 49.800759], [18.107955, 49.80532], [18.104145, 49.807008], [18.098558, 49.811057], [18.097858, 49.811459], [18.093332, 49.816784], [18.09167, 49.817913], [18.091128, 49.818211], [18.090512, 49.818394], [18.089068, 49.818469], [18.088095, 49.818334], [18.083878, 49.819535], [18.08593, 49.827536], [18.086477, 49.827826], [18.08687, 49.828109], [18.087255, 49.828482], [18.087674, 49.82905], [18.087953, 49.829562], [18.08814, 49.829955], [18.088368, 49.830691], [18.08846, 49.831332], [18.088755, 49.832734], [18.085527, 49.834327], [18.080716, 49.831137], [18.080167, 49.830858], [18.079734, 49.830016], [18.071584, 49.828056], [18.070499, 49.828819], [18.068428, 49.825875], [18.059945, 49.824258], [18.059192, 49.824797], [18.058773, 49.825009], [18.052359, 49.830883], [18.04722, 49.833778], [18.046295, 49.834439], [18.04607, 49.834544], [18.044549, 49.831281], [18.045054, 49.830849], [18.045335, 49.830612], [18.045765, 49.830221], [18.047945, 49.825635], [18.04951, 49.82361], [18.052625, 49.821806], [18.055106, 49.818286], [18.049957, 49.811441], [18.046479, 49.81237], [18.039625, 49.810477], [18.037911, 49.818864], [18.038177, 49.820101], [18.037712, 49.821186], [18.037086, 49.821722], [18.03516, 49.825733], [18.032396, 49.827646], [18.031206, 49.826999], [18.030574, 49.825548], [18.030337, 49.825041], [18.030182, 49.824568], [18.026278, 49.81994], [18.019217, 49.821762], [18.018592, 49.822043], [18.016741, 49.82063], [18.009621, 49.819635], [18.006089, 49.818937], [17.999609, 49.823355], [17.996174, 49.824432], [17.990387, 49.823881], [17.984007, 49.826811], [17.980498, 49.832235], [17.97894, 49.833422], [17.977916, 49.834163], [17.973431, 49.838983], [17.973253, 49.843044], [17.970935, 49.845799], [17.97074, 49.845891], [17.967228, 49.845101], [17.965607, 49.844332], [17.965144, 49.840762], [17.967882, 49.836597], [17.970161, 49.834603], [17.967196, 49.826797], [17.963668, 49.82608], [17.957747, 49.825809], [17.956187, 49.82624], [17.951651, 49.822102], [17.94671, 49.823257], [17.946406, 49.823215], [17.938913, 49.822245], [17.937422, 49.818969], [17.938592, 49.817655], [17.939403, 49.810494], [17.93349, 49.809752], [17.933, 49.809952], [17.93263, 49.81006], [17.932189, 49.810172], [17.931533, 49.810283], [17.93085, 49.81032], [17.929964, 49.81031], [17.926281, 49.811305], [17.925856, 49.811499], [17.924305, 49.812056], [17.920497, 49.814257], [17.91997, 49.814672], [17.916105, 49.818087], [17.910109, 49.821355], [17.909954, 49.821295], [17.90951, 49.820918], [17.90884, 49.820076], [17.908325, 49.818617], [17.908295, 49.818294], [17.908799, 49.816261], [17.90967, 49.814812], [17.913556, 49.813844], [17.916511, 49.807276], [17.913834, 49.799533], [17.913865, 49.797297], [17.913846, 49.796016], [17.913695, 49.794341], [17.905554, 49.791007], [17.903414, 49.79299], [17.901214, 49.792876], [17.899691, 49.79283], [17.899605, 49.790798], [17.899439, 49.789239], [17.903478, 49.788065], [17.908021, 49.783791], [17.908846, 49.780287], [17.913156, 49.775427], [17.913792, 49.771884], [17.915805, 49.772245], [17.916633, 49.772267], [17.917241, 49.772279], [17.918476, 49.772432], [17.918944, 49.772726], [17.920395, 49.773344], [17.920976, 49.773493], [17.928564, 49.768775], [17.928842, 49.768118], [17.929163, 49.767603], [17.929635, 49.767134], [17.926604, 49.758822], [17.925981, 49.758789], [17.924781, 49.758598], [17.924088, 49.758427], [17.916536, 49.760524], [17.913922, 49.758048], [17.913665, 49.749266], [17.913475, 49.748945], [17.91325, 49.748349], [17.913119, 49.747534], [17.91296, 49.745909], [17.912897, 49.744933], [17.912944, 49.7443], [17.913119, 49.743657], [17.913306, 49.743208], [17.914941, 49.738767], [17.910715, 49.734197], [17.910196, 49.734016], [17.904227, 49.734887], [17.902533, 49.736402], [17.901442, 49.737981], [17.900766, 49.739974], [17.900311, 49.740724], [17.899093, 49.742176], [17.897492, 49.743913], [17.897001, 49.744257], [17.89645, 49.744548], [17.891824, 49.748469], [17.891503, 49.748869], [17.891157, 49.749208], [17.890634, 49.749591], [17.890041, 49.749872], [17.889572, 49.75001], [17.885367, 49.751278], [17.884724, 49.751506], [17.88439, 49.751596], [17.883845, 49.75172], [17.883099, 49.751839], [17.880323, 49.752213], [17.877788, 49.752437], [17.877246, 49.752519], [17.876846, 49.752532], [17.871131, 49.754554], [17.869059, 49.757376], [17.866996, 49.760184], [17.866155, 49.763939], [17.866143, 49.764723], [17.870947, 49.771667], [17.871924, 49.771914], [17.874417, 49.77398], [17.874909, 49.77468], [17.875286, 49.775618], [17.874647, 49.777882], [17.874164, 49.778569], [17.874105, 49.778577], [17.87275, 49.778173], [17.87264, 49.778065], [17.87062, 49.776745], [17.863586, 49.780698], [17.863341, 49.78152], [17.862566, 49.784225], [17.860247, 49.785251], [17.85995, 49.785085], [17.858985, 49.783856], [17.852267, 49.778504], [17.849628, 49.778587], [17.849515, 49.774989], [17.852455, 49.771526], [17.852871, 49.770903], [17.853661, 49.763392], [17.85283, 49.761771], [17.852728, 49.761552], [17.853159, 49.759667], [17.855006, 49.758245], [17.858382, 49.751993], [17.86225, 49.750645], [17.863365, 49.750331], [17.863965, 49.750152], [17.865922, 49.749798], [17.866841, 49.749575], [17.873198, 49.747809], [17.873706, 49.747789], [17.874803, 49.747872], [17.877895, 49.747784], [17.882611, 49.748272], [17.884135, 49.747895], [17.885581, 49.74723], [17.886445, 49.746975], [17.88967, 49.745001], [17.890292, 49.744248], [17.891136, 49.743502], [17.891876, 49.74277], [17.89229, 49.742422], [17.892975, 49.742002], [17.893452, 49.741783], [17.896406, 49.739779], [17.898014, 49.736881], [17.898219, 49.736322], [17.898482, 49.735701], [17.898767, 49.735199], [17.899369, 49.734453], [17.900064, 49.733782], [17.901826, 49.732204], [17.903554, 49.730658], [17.898888, 49.723219], [17.895844, 49.724003], [17.893058, 49.727458], [17.892636, 49.728188], [17.891905, 49.728999], [17.891326, 49.729469], [17.890679, 49.729836], [17.889096, 49.730467], [17.887326, 49.731074], [17.886309, 49.731728], [17.885751, 49.732022], [17.88523, 49.732267], [17.883148, 49.733124], [17.881509, 49.733728], [17.881104, 49.733663], [17.88005, 49.733502], [17.879325, 49.733052], [17.87564, 49.731036], [17.876289, 49.727495], [17.877311, 49.727683], [17.878568, 49.728144], [17.879299, 49.728538], [17.885044, 49.728237], [17.886011, 49.72082], [17.882668, 49.718397], [17.882236, 49.71754], [17.881906, 49.716682], [17.877855, 49.710932], [17.875331, 49.710288], [17.872306, 49.71059], [17.868651, 49.711688], [17.868282, 49.711898], [17.863714, 49.715305], [17.862773, 49.716575], [17.861163, 49.71807], [17.861115, 49.718117], [17.860977, 49.718194], [17.8556, 49.724076], [17.855032, 49.724437], [17.854736, 49.724599], [17.854475, 49.724711], [17.849237, 49.727692], [17.845637, 49.72766], [17.845651, 49.726089], [17.845634, 49.724015], [17.845801, 49.721701], [17.846117, 49.720933], [17.846543, 49.72048], [17.846811, 49.720279], [17.853746, 49.71703], [17.854333, 49.716564], [17.854831, 49.716286], [17.855236, 49.716145], [17.857418, 49.708236], [17.855554, 49.707047], [17.855019, 49.706433], [17.85444, 49.705486], [17.853589, 49.703538], [17.851552, 49.701093], [17.845152, 49.699652], [17.844771, 49.699676], [17.844164, 49.699595], [17.843749, 49.699449], [17.842553, 49.69889], [17.842893, 49.690328], [17.839215, 49.684126], [17.831671, 49.686552], [17.828535, 49.684784], [17.828994, 49.682012], [17.82102, 49.67834], [17.819021, 49.679555], [17.81701, 49.680777], [17.81397, 49.683858], [17.806915, 49.68683], [17.805057, 49.683747], [17.809599, 49.680292], [17.813269, 49.676168], [17.816108, 49.669758], [17.815494, 49.667324], [17.81443, 49.665313], [17.813611, 49.663208], [17.813449, 49.662687], [17.813279, 49.662143], [17.812738, 49.659138], [17.812878, 49.655937], [17.816377, 49.649307], [17.81281, 49.645906], [17.809632, 49.645199], [17.809372, 49.645164], [17.807512, 49.645016], [17.805209, 49.644266], [17.797792, 49.644007], [17.794759, 49.645911], [17.793603, 49.647201], [17.791743, 49.649972], [17.785716, 49.656419], [17.783669, 49.659381], [17.782617, 49.658654], [17.77955, 49.656533], [17.778594, 49.654982], [17.77545, 49.648911], [17.774192, 49.647576], [17.773706, 49.646675], [17.772392, 49.644778], [17.771942, 49.643481], [17.772393, 49.641673], [17.772776, 49.640811], [17.773281, 49.639478], [17.773608, 49.636531], [17.775565, 49.633741], [17.778196, 49.628429], [17.778522, 49.625963], [17.778963, 49.624639], [17.776218, 49.617848], [17.773176, 49.617206], [17.765813, 49.620218], [17.765014, 49.621419], [17.762926, 49.625107], [17.761959, 49.626221], [17.758266, 49.632255], [17.758548, 49.634776], [17.758546, 49.635983], [17.758251, 49.636744], [17.757851, 49.637392], [17.757495, 49.637883], [17.756965, 49.638404], [17.755476, 49.639563], [17.752954, 49.647537], [17.75482, 49.649469], [17.755402, 49.649954], [17.753212, 49.652812], [17.745333, 49.657134], [17.742987, 49.658827], [17.74045, 49.656273], [17.742371, 49.648348], [17.739617, 49.641761], [17.740466, 49.638262], [17.735305, 49.631349], [17.731789, 49.630577], [17.723539, 49.627759], [17.722207, 49.631103], [17.72186, 49.634891], [17.720038, 49.635845], [17.716493, 49.642922], [17.716078, 49.645775], [17.709535, 49.650121], [17.707771, 49.653259], [17.705308, 49.654841], [17.70171, 49.654976], [17.701129, 49.65163], [17.703624, 49.645173], [17.703703, 49.644651], [17.703954, 49.643784], [17.704331, 49.642762], [17.705197, 49.638974], [17.701341, 49.633081], [17.70122, 49.630432], [17.701072, 49.628444], [17.701017, 49.628001], [17.701062, 49.626723], [17.701179, 49.625662], [17.701348, 49.624743], [17.700693, 49.619595], [17.700787, 49.616778], [17.700138, 49.613564], [17.69994, 49.612748], [17.699964, 49.611753], [17.700912, 49.610431], [17.701633, 49.61019], [17.70216, 49.610149], [17.702811, 49.610177], [17.703673, 49.6103], [17.71042, 49.60559], [17.708866, 49.601591], [17.701317, 49.59916], [17.699662, 49.599851], [17.698584, 49.60042], [17.697819, 49.600821], [17.697131, 49.601156], [17.694639, 49.602327], [17.69235, 49.603453], [17.690664, 49.604528], [17.689166, 49.605934], [17.686583, 49.610722], [17.685941, 49.613058], [17.686809, 49.621048], [17.688158, 49.62239], [17.689574, 49.623312], [17.690078, 49.623986], [17.690572, 49.625124], [17.690491, 49.626596], [17.690395, 49.626887], [17.682, 49.628259], [17.678365, 49.633217], [17.675067, 49.634661], [17.667772, 49.631234], [17.662867, 49.631857], [17.66205, 49.640746], [17.661971, 49.643113], [17.661992, 49.644345], [17.659113, 49.645301], [17.654397, 49.645905], [17.651074, 49.64452], [17.645581, 49.637956], [17.644792, 49.637838], [17.644345, 49.637777], [17.644061, 49.637714], [17.642978, 49.637556], [17.642418, 49.637455], [17.641862, 49.637302], [17.641471, 49.637155], [17.639543, 49.636344], [17.640939, 49.633026], [17.647233, 49.631154], [17.648293, 49.631672], [17.650163, 49.632561], [17.657676, 49.631099], [17.658316, 49.630529], [17.660173, 49.621782], [17.659926, 49.621164], [17.656489, 49.614532], [17.652218, 49.612514], [17.64933, 49.610365], [17.649705, 49.60986], [17.650679, 49.609121], [17.651595, 49.60863], [17.652812, 49.608126], [17.655822, 49.601087], [17.652969, 49.599051], [17.653385, 49.595475], [17.659309, 49.592785], [17.662293, 49.59264], [17.662798, 49.592549], [17.667506, 49.594814], [17.668342, 49.594929], [17.668831, 49.59504], [17.669882, 49.59523], [17.672204, 49.595978], [17.673012, 49.5961], [17.673692, 49.596246], [17.676146, 49.596184], [17.678251, 49.595915], [17.68049, 49.587706], [17.679889, 49.584157], [17.679617, 49.583404], [17.677328, 49.57771], [17.671053, 49.57999], [17.667522, 49.57929], [17.665133, 49.578058], [17.660972, 49.576266], [17.659609, 49.57616], [17.658173, 49.575966], [17.656977, 49.57576], [17.655142, 49.575473], [17.654631, 49.575356], [17.653357, 49.574956], [17.651927, 49.574549], [17.649457, 49.573763], [17.64557, 49.572001], [17.643925, 49.571214], [17.642493, 49.570467], [17.638192, 49.568192], [17.63674, 49.567487], [17.635798, 49.567082], [17.633989, 49.566399], [17.632645, 49.565949], [17.630373, 49.565305], [17.629362, 49.56505], [17.626025, 49.564277], [17.625259, 49.56411], [17.622922, 49.563514], [17.621378, 49.563021], [17.620601, 49.562736], [17.619829, 49.562425], [17.618987, 49.562055], [17.618532, 49.561835], [17.617355, 49.561213], [17.616615, 49.560773], [17.614982, 49.559667], [17.611859, 49.557359], [17.608783, 49.555085], [17.607536, 49.554009], [17.604193, 49.552352], [17.603483, 49.552024], [17.602896, 49.551778], [17.601321, 49.551169], [17.594008, 49.555655], [17.593317, 49.555607], [17.592904, 49.555556], [17.592546, 49.555488], [17.592172, 49.555374], [17.583408, 49.556285], [17.576124, 49.559439], [17.574074, 49.55854], [17.566599, 49.561428], [17.565245, 49.56225], [17.564854, 49.562222], [17.564268, 49.561885], [17.55731, 49.559828], [17.554681, 49.560713], [17.554301, 49.560336], [17.550864, 49.554307], [17.544096, 49.559713], [17.542922, 49.560097], [17.541948, 49.560218], [17.541427, 49.560217], [17.535857, 49.560283], [17.535654, 49.560037], [17.535297, 49.559481], [17.527534, 49.55611], [17.524477, 49.557613], [17.523632, 49.557996], [17.521594, 49.55886], [17.518747, 49.559836], [17.515433, 49.561302], [17.514489, 49.56202], [17.512042, 49.56466], [17.51511, 49.573034], [17.516491, 49.573169], [17.517202, 49.57329], [17.517637, 49.573414], [17.518625, 49.573602], [17.519382, 49.573972], [17.51978, 49.574278], [17.519733, 49.58166], [17.524891, 49.588373], [17.528502, 49.589505], [17.529134, 49.590191], [17.529887, 49.596144], [17.527008, 49.598306], [17.526678, 49.597867], [17.521335, 49.592034], [17.518957, 49.590172], [17.518368, 49.589133], [17.51711, 49.586175], [17.511232, 49.57979], [17.51058, 49.579393], [17.50965, 49.578742], [17.50912, 49.578314], [17.508577, 49.577833], [17.508249, 49.577525], [17.507877, 49.577106], [17.501459, 49.573166], [17.494744, 49.57483], [17.492128, 49.577304], [17.489541, 49.579035], [17.486304, 49.58152], [17.48449, 49.582677], [17.478806, 49.582324], [17.474382, 49.582058], [17.47319, 49.581652], [17.472643, 49.581393], [17.464081, 49.581727], [17.462655, 49.582281], [17.46165, 49.582631], [17.459443, 49.583303], [17.458851, 49.583473], [17.457285, 49.583852], [17.455771, 49.584147], [17.455017, 49.58429], [17.454261, 49.584411], [17.453451, 49.584531], [17.452451, 49.584649], [17.450446, 49.584836], [17.44842, 49.584939], [17.445707, 49.585011], [17.443012, 49.585082], [17.440613, 49.585169], [17.437755, 49.585353], [17.429602, 49.586385], [17.426881, 49.586838], [17.424948, 49.587128], [17.423567, 49.587299], [17.418118, 49.587546], [17.412862, 49.587698], [17.412555, 49.587679], [17.412373, 49.587624], [17.41201, 49.587508], [17.407617, 49.586071], [17.408568, 49.582599]]], "type": "Polygon"}}], "metadata": {"attribution": "openrouteservice.org | OpenStreetMap contributors", "service": "isochrones", "timestamp": 1785691415562, "query": {"profile": "driving-car", "profileName": "driving-car", "locations": [[18.1351564, 49.5887553]], "range": [2700.0], "range_type": "time"}, "engine": {"version": "9.9.0", "build_date": "2026-06-12T10:08:58Z", "graph_date": "2026-07-26T12:04:00Z", "osm_date": "2026-07-20T00:00:00Z"}}}