{"type": "FeatureCollection", "bbox": [11.937973, 49.798951, 13.879405, 50.595509], "features": [{"type": "Feature", "properties": {"group_index": 0, "value": 3600.0, "center": [12.871353643144483, 50.23243396746277]}, "geometry": {"coordinates": [[[12.021167, 50.311356], [12.021229, 50.310831], [12.021795, 50.308189], [12.022227, 50.30698], [12.022614, 50.306099], [12.022918, 50.305495], [12.023603, 50.304277], [12.024545, 50.296073], [12.023686, 50.294528], [12.023128, 50.293588], [12.022425, 50.292256], [12.021916, 50.291219], [12.021455, 50.290172], [12.021067, 50.28916], [12.020795, 50.288293], [12.020407, 50.286592], [12.020234, 50.285513], [12.020175, 50.284972], [12.02013, 50.28442], [12.020096, 50.283338], [12.020157, 50.281903], [12.020269, 50.280915], [12.020455, 50.27984], [12.01509, 50.273659], [12.013245, 50.274411], [12.010728, 50.27455], [12.002276, 50.272068], [12.001129, 50.27224], [12.00036, 50.272418], [11.999326, 50.272577], [11.998779, 50.269019], [11.999294, 50.267863], [12.000528, 50.267635], [12.001866, 50.267435], [12.00307, 50.267288], [12.011399, 50.264824], [12.013204, 50.264045], [12.013446, 50.263942], [12.014709, 50.264087], [12.014865, 50.264164], [12.023029, 50.267781], [12.024318, 50.267681], [12.02495, 50.267619], [12.026054, 50.26748], [12.027641, 50.267223], [12.029043, 50.266936], [12.030307, 50.266612], [12.03168, 50.266211], [12.034941, 50.258071], [12.034399, 50.256846], [12.033833, 50.255536], [12.032434, 50.253592], [12.031438, 50.252409], [12.031631, 50.249653], [12.03255, 50.248985], [12.038072, 50.245592], [12.038584, 50.245265], [12.039701, 50.244724], [12.041062, 50.244154], [12.04716, 50.239485], [12.04887, 50.236515], [12.051662, 50.234243], [12.058499, 50.23118], [12.058874, 50.230911], [12.06509, 50.228684], [12.063095, 50.220982], [12.064271, 50.217579], [12.065478, 50.214355], [12.071022, 50.209702], [12.073447, 50.202698], [12.07193, 50.199584], [12.072731, 50.196074], [12.069619, 50.19013], [12.066635, 50.188116], [12.066812, 50.186017], [12.066703, 50.183425], [12.062097, 50.176758], [12.057324, 50.177985], [12.051108, 50.178343], [12.050902, 50.178413], [12.047003, 50.172841], [12.038231, 50.173996], [12.037166, 50.17629], [12.0339, 50.174774], [12.029842, 50.166902], [12.026289, 50.16041], [12.026631, 50.154566], [12.023704, 50.150682], [12.022579, 50.149989], [12.018743, 50.148692], [12.016993, 50.14813], [12.0166, 50.147953], [12.012628, 50.142007], [12.014488, 50.138925], [12.010644, 50.130866], [12.008241, 50.130792], [12.006107, 50.130144], [12.002225, 50.129906], [12.001494, 50.129733], [11.998598, 50.128615], [11.997465, 50.127658], [11.997367, 50.127438], [11.997142, 50.126781], [11.997135, 50.126587], [11.997932, 50.125077], [11.999229, 50.117171], [12.000311, 50.113746], [12.000504, 50.113132], [12.000594, 50.10875], [11.995859, 50.103697], [11.995229, 50.098962], [11.993183, 50.091857], [11.994992, 50.088745], [11.988508, 50.082986], [11.984556, 50.085692], [11.982573, 50.085981], [11.975911, 50.088946], [11.97479, 50.089393], [11.974073, 50.089405], [11.972291, 50.088498], [11.969745, 50.086802], [11.965986, 50.082465], [11.96006, 50.082451], [11.958019, 50.082663], [11.957213, 50.08278], [11.955988, 50.083011], [11.955128, 50.08314], [11.952723, 50.083427], [11.950318, 50.083715], [11.94989, 50.080141], [11.952295, 50.079853], [11.959563, 50.077691], [11.961547, 50.07751], [11.962226, 50.07748], [11.969901, 50.074134], [11.971471, 50.070895], [11.972158, 50.069227], [11.973033, 50.06781], [11.97389, 50.067227], [11.974043, 50.067187], [11.979081, 50.059858], [11.980194, 50.056434], [11.975196, 50.049034], [11.976333, 50.045618], [11.977808, 50.038857], [11.971151, 50.033099], [11.965601, 50.033259], [11.962265, 50.032353], [11.954783, 50.034018], [11.952867, 50.031071], [11.952885, 50.030959], [11.953779, 50.027589], [11.95512, 50.02794], [11.956727, 50.028336], [11.956889, 50.02835], [11.957262, 50.028368], [11.963871, 50.023466], [11.961687, 50.019203], [11.95641, 50.016684], [11.949834, 50.019005], [11.948743, 50.019736], [11.948392, 50.019669], [11.945229, 50.018652], [11.943985, 50.018471], [11.93842, 50.018215], [11.938143, 50.018229], [11.937973, 50.014633], [11.941577, 50.009411], [11.940601, 50.004754], [11.940443, 50.00437], [11.943403, 50.002912], [11.943773, 50.003001], [11.951116, 50.0075], [11.955847, 50.008309], [11.95804, 50.008567], [11.959387, 50.008965], [11.966012, 50.003601], [11.966313, 50.003244], [11.966798, 50.002829], [11.967516, 50.002516], [11.972517, 49.999751], [11.975376, 49.997562], [11.979664, 50.001246], [11.982846, 50.00293], [11.988085, 50.008085], [11.989144, 50.009487], [11.997099, 50.011243], [11.999371, 50.008101], [11.999696, 50.007284], [12.000267, 50.00607], [12.000728, 50.005492], [12.001658, 50.004011], [12.001957, 50.003702], [12.005599, 50.0037], [12.008882, 50.004979], [12.014538, 50.000055], [12.013897, 49.99468], [12.016768, 49.992507], [12.02292, 49.990789], [12.023835, 49.99118], [12.024488, 49.99157], [12.024895, 49.991871], [12.025287, 49.992209], [12.03327, 49.995598], [12.035105, 49.997192], [12.036635, 49.997995], [12.037196, 49.998782], [12.037553, 49.999545], [12.037571, 50.001527], [12.037986, 50.003811], [12.045973, 50.006389], [12.049256, 50.003658], [12.049982, 49.998704], [12.049942, 49.99843], [12.049425, 49.996546], [12.049103, 49.995862], [12.049006, 49.995213], [12.047525, 49.990739], [12.045562, 49.989088], [12.046827, 49.985718], [12.04711, 49.977086], [12.046169, 49.976723], [12.045873, 49.976488], [12.045585, 49.976216], [12.042961, 49.972655], [12.041731, 49.970944], [12.041479, 49.970154], [12.043574, 49.969015], [12.044659, 49.968467], [12.049425, 49.972278], [12.054829, 49.972463], [12.057778, 49.9726], [12.058429, 49.972518], [12.062658, 49.971491], [12.066263, 49.965094], [12.066492, 49.964481], [12.067312, 49.962771], [12.063394, 49.954887], [12.063021, 49.954844], [12.063437, 49.951268], [12.067602, 49.945981], [12.06247, 49.939867], [12.059292, 49.939682], [12.055187, 49.934818], [12.054815, 49.931237], [12.057764, 49.930845], [12.065776, 49.929218], [12.068219, 49.930537], [12.07433, 49.931077], [12.077201, 49.926507], [12.077483, 49.925576], [12.077694, 49.924839], [12.077984, 49.924308], [12.079959, 49.923792], [12.085346, 49.922489], [12.087384, 49.916758], [12.087312, 49.916111], [12.086854, 49.914019], [12.086784, 49.913004], [12.086976, 49.912357], [12.087655, 49.910063], [12.087927, 49.909201], [12.088865, 49.907488], [12.08961, 49.90679], [12.092201, 49.904965], [12.093368, 49.904262], [12.09421, 49.903826], [12.098281, 49.902587], [12.100419, 49.905483], [12.100041, 49.905868], [12.099733, 49.906147], [12.098324, 49.906958], [12.097962, 49.907115], [12.09325, 49.912382], [12.095832, 49.920405], [12.099151, 49.921625], [12.099398, 49.92166], [12.104068, 49.925229], [12.111917, 49.928109], [12.112411, 49.928219], [12.120269, 49.925793], [12.121004, 49.924694], [12.12597, 49.92268], [12.127935, 49.923699], [12.133935, 49.928883], [12.136808, 49.926171], [12.138401, 49.922942], [12.144079, 49.920871], [12.149351, 49.917477], [12.149747, 49.917332], [12.151632, 49.916888], [12.154236, 49.916511], [12.158035, 49.914568], [12.159174, 49.91285], [12.160052, 49.907907], [12.155654, 49.90452], [12.155335, 49.904459], [12.154772, 49.904337], [12.154335, 49.903776], [12.153918, 49.902752], [12.153381, 49.898487], [12.154402, 49.895035], [12.158766, 49.895829], [12.158799, 49.895838], [12.163095, 49.896533], [12.163788, 49.896599], [12.172458, 49.896491], [12.17535, 49.894339], [12.175414, 49.894286], [12.182457, 49.889606], [12.190801, 49.88841], [12.193014, 49.887352], [12.195201, 49.886131], [12.194404, 49.877726], [12.193628, 49.877213], [12.191762, 49.875923], [12.190543, 49.875026], [12.189645, 49.874328], [12.188141, 49.873094], [12.186788, 49.87192], [12.184625, 49.869858], [12.182667, 49.867756], [12.181797, 49.86668], [12.181219, 49.86591], [12.180556, 49.86495], [12.179801, 49.863664], [12.173629, 49.859451], [12.171719, 49.859222], [12.169137, 49.859002], [12.168241, 49.858945], [12.166054, 49.858841], [12.163858, 49.858737], [12.161605, 49.858618], [12.160852, 49.858546], [12.158327, 49.858497], [12.154255, 49.858795], [12.153741, 49.858776], [12.153475, 49.858714], [12.150721, 49.85757], [12.149672, 49.856274], [12.141436, 49.854373], [12.13896, 49.85539], [12.138491, 49.85553], [12.137462, 49.85208], [12.140672, 49.846207], [12.134926, 49.84106], [12.134991, 49.837461], [12.137733, 49.836836], [12.137819, 49.836816], [12.146173, 49.836772], [12.148067, 49.835812], [12.148823, 49.835896], [12.149135, 49.835944], [12.157991, 49.834347], [12.163117, 49.827821], [12.162824, 49.826485], [12.162733, 49.825539], [12.162731, 49.824904], [12.162779, 49.824195], [12.162922, 49.823319], [12.163079, 49.82268], [12.163345, 49.821883], [12.163753, 49.820997], [12.164267, 49.820102], [12.165213, 49.81887], [12.165736, 49.818308], [12.166489, 49.817608], [12.166886, 49.817269], [12.167364, 49.816898], [12.168225, 49.816257], [12.168714, 49.815932], [12.170024, 49.815158], [12.170737, 49.81478], [12.173382, 49.813566], [12.174458, 49.813056], [12.175374, 49.812589], [12.179495, 49.804898], [12.179561, 49.80462], [12.180196, 49.803374], [12.183508, 49.801963], [12.183523, 49.801998], [12.183585, 49.808987], [12.183153, 49.809946], [12.182764, 49.81065], [12.182167, 49.811521], [12.18151, 49.812333], [12.180879, 49.812995], [12.179954, 49.813829], [12.178872, 49.814647], [12.177976, 49.815247], [12.177152, 49.81572], [12.176095, 49.816261], [12.174928, 49.816818], [12.172239, 49.818052], [12.171722, 49.818332], [12.170549, 49.819029], [12.170236, 49.819243], [12.16952, 49.819782], [12.169095, 49.820112], [12.167432, 49.828813], [12.168212, 49.830035], [12.169411, 49.831595], [12.169698, 49.831933], [12.171445, 49.833951], [12.17464, 49.837688], [12.176407, 49.840039], [12.182007, 49.8447], [12.18152, 49.848266], [12.180836, 49.85172], [12.18428, 49.857827], [12.187074, 49.859056], [12.187592, 49.859235], [12.187954, 49.859344], [12.188502, 49.85948], [12.189353, 49.85964], [12.195917, 49.859069], [12.197788, 49.85865], [12.198463, 49.858519], [12.199531, 49.858342], [12.201038, 49.858163], [12.207561, 49.858239], [12.211776, 49.857843], [12.218318, 49.85681], [12.218437, 49.856782], [12.220633, 49.856549], [12.221194, 49.856486], [12.221864, 49.856594], [12.222008, 49.856646], [12.222673, 49.8574], [12.228654, 49.862068], [12.230603, 49.861993], [12.232576, 49.861917], [12.236067, 49.86161], [12.236288, 49.86159], [12.236807, 49.861648], [12.236977, 49.86173], [12.237582, 49.862207], [12.238035, 49.863286], [12.238044, 49.863327], [12.236765, 49.865509], [12.236195, 49.865482], [12.2344, 49.865472], [12.232668, 49.865516], [12.230742, 49.865591], [12.228792, 49.865666], [12.227873, 49.865688], [12.225913, 49.865673], [12.22467, 49.865613], [12.223909, 49.86555], [12.21919, 49.866267], [12.214614, 49.872436], [12.211092, 49.874891], [12.210216, 49.876255], [12.212812, 49.884393], [12.213159, 49.884659], [12.214426, 49.885727], [12.214998, 49.886237], [12.216416, 49.887611], [12.217166, 49.888422], [12.217921, 49.889306], [12.218358, 49.889863], [12.219461, 49.891398], [12.220374, 49.893157], [12.220909, 49.89419], [12.221232, 49.894872], [12.221594, 49.895712], [12.22214, 49.897256], [12.223234, 49.899523], [12.228394, 49.903665], [12.232075, 49.902981], [12.235064, 49.900087], [12.23566, 49.899359], [12.238535, 49.899536], [12.238845, 49.900135], [12.239544, 49.902389], [12.236463, 49.904505], [12.236214, 49.904806], [12.235751, 49.905185], [12.235186, 49.905499], [12.233599, 49.906243], [12.232571, 49.906809], [12.236956, 49.914618], [12.238644, 49.914189], [12.239024, 49.914222], [12.240494, 49.914374], [12.249235, 49.913007], [12.255149, 49.906584], [12.253774, 49.903658], [12.251876, 49.901136], [12.252173, 49.896198], [12.252101, 49.895754], [12.252455, 49.893631], [12.253334, 49.892598], [12.256076, 49.89493], [12.26187, 49.896256], [12.26432, 49.898895], [12.272413, 49.900495], [12.274241, 49.900036], [12.275124, 49.899842], [12.283625, 49.898927], [12.284302, 49.897439], [12.28405, 49.892648], [12.284228, 49.889423], [12.284905, 49.889036], [12.285283, 49.888845], [12.285978, 49.888554], [12.28999, 49.886981], [12.292053, 49.889931], [12.299424, 49.887486], [12.299952, 49.886547], [12.300486, 49.88613], [12.301124, 49.885865], [12.301815, 49.885777], [12.3024, 49.885823], [12.308014, 49.884457], [12.309344, 49.879547], [12.309644, 49.87596], [12.316112, 49.872754], [12.316509, 49.872897], [12.316614, 49.872938], [12.320847, 49.874632], [12.325308, 49.878084], [12.330528, 49.874298], [12.329455, 49.869618], [12.329435, 49.869514], [12.329594, 49.868337], [12.334073, 49.864455], [12.334764, 49.863808], [12.335431, 49.863353], [12.338541, 49.861429], [12.339008, 49.861313], [12.339163, 49.861292], [12.340486, 49.862068], [12.34052, 49.862115], [12.341104, 49.863098], [12.341593, 49.864014], [12.342149, 49.865299], [12.339466, 49.870275], [12.337291, 49.876511], [12.339771, 49.879619], [12.340566, 49.880225], [12.343979, 49.883863], [12.344896, 49.884966], [12.343354, 49.887408], [12.345427, 49.895024], [12.345943, 49.897574], [12.347306, 49.90385], [12.348685, 49.905767], [12.35651, 49.907906], [12.358778, 49.910702], [12.36547, 49.916014], [12.369875, 49.91144], [12.371156, 49.9095], [12.372122, 49.903918], [12.366627, 49.900226], [12.363683, 49.898153], [12.36308, 49.894052], [12.364295, 49.88768], [12.364268, 49.885685], [12.365243, 49.884207], [12.366773, 49.884625], [12.369972, 49.885523], [12.376204, 49.886681], [12.380311, 49.889157], [12.381981, 49.892929], [12.388727, 49.896611], [12.394533, 49.895607], [12.394886, 49.896373], [12.401817, 49.901641], [12.406307, 49.906413], [12.413669, 49.901812], [12.413742, 49.898213], [12.420576, 49.894662], [12.424876, 49.891872], [12.428065, 49.893542], [12.42769, 49.894257], [12.427117, 49.89502], [12.426363, 49.895837], [12.429663, 49.903909], [12.430429, 49.904], [12.430807, 49.904013], [12.432241, 49.904909], [12.43231, 49.904955], [12.433437, 49.90671], [12.432262, 49.908163], [12.430871, 49.909235], [12.428844, 49.909837], [12.428614, 49.909901], [12.428487, 49.909932], [12.428084, 49.910015], [12.427429, 49.910153], [12.423632, 49.910987], [12.420057, 49.910565], [12.414998, 49.913774], [12.41412, 49.915792], [12.420037, 49.922371], [12.42144, 49.922152], [12.42205, 49.922035], [12.422609, 49.921993], [12.425317, 49.921991], [12.426457, 49.922149], [12.427124, 49.92241], [12.429075, 49.92321], [12.430269, 49.923536], [12.432721, 49.923883], [12.433775, 49.923904], [12.43548, 49.92406], [12.436582, 49.924403], [12.438057, 49.925032], [12.439659, 49.925644], [12.440764, 49.926012], [12.443746, 49.926898], [12.450188, 49.924058], [12.451237, 49.918975], [12.453396, 49.916094], [12.45373, 49.916345], [12.456785, 49.918469], [12.463022, 49.92468], [12.465224, 49.926144], [12.468881, 49.92987], [12.474812, 49.930639], [12.476094, 49.930332], [12.47693, 49.930223], [12.478446, 49.930152], [12.479227, 49.930069], [12.482042, 49.929544], [12.487366, 49.926424], [12.490682, 49.924962], [12.490715, 49.916599], [12.48904, 49.915834], [12.490536, 49.912559], [12.494056, 49.911589], [12.496379, 49.912544], [12.504743, 49.909526], [12.505277, 49.908724], [12.506956, 49.906131], [12.507349, 49.905719], [12.508188, 49.905267], [12.509438, 49.904968], [12.516906, 49.902101], [12.52455, 49.90104], [12.529579, 49.903595], [12.532434, 49.905311], [12.532579, 49.905386], [12.533721, 49.909254], [12.533744, 49.911466], [12.533787, 49.913722], [12.533366, 49.915046], [12.536215, 49.923061], [12.541361, 49.925577], [12.54628, 49.931274], [12.551673, 49.933962], [12.556411, 49.930235], [12.557904, 49.927912], [12.55907, 49.922914], [12.559028, 49.919218], [12.555929, 49.91254], [12.556768, 49.90904], [12.557369, 49.909184], [12.560886, 49.909725], [12.561429, 49.909817], [12.561929, 49.910043], [12.564461, 49.911408], [12.563551, 49.914891], [12.562628, 49.919233], [12.562669, 49.922873], [12.562711, 49.926542], [12.560933, 49.929858], [12.565593, 49.935364], [12.568091, 49.935674], [12.569393, 49.938914], [12.57644, 49.939191], [12.579105, 49.938182], [12.580241, 49.937752], [12.58088, 49.937575], [12.581727, 49.937401], [12.582551, 49.937383], [12.587448, 49.93627], [12.588439, 49.935746], [12.590613, 49.927688], [12.591317, 49.924158], [12.593457, 49.924245], [12.594311, 49.924449], [12.594583, 49.924514], [12.595563, 49.924668], [12.596548, 49.924763], [12.600445, 49.916683], [12.60014, 49.91632], [12.597614, 49.913898], [12.59731, 49.913342], [12.597189, 49.912956], [12.595307, 49.909411], [12.595024, 49.908432], [12.595021, 49.906059], [12.59528, 49.903209], [12.595721, 49.902521], [12.596048, 49.902208], [12.598108, 49.900596], [12.599091, 49.897357], [12.592448, 49.893319], [12.591976, 49.893505], [12.589681, 49.894521], [12.588839, 49.895357], [12.588371, 49.895697], [12.587801, 49.896], [12.587358, 49.896136], [12.585149, 49.896573], [12.584506, 49.896666], [12.583219, 49.896899], [12.581167, 49.897343], [12.579092, 49.897792], [12.576875, 49.898241], [12.576503, 49.898324], [12.574164, 49.899072], [12.573732, 49.899184], [12.573143, 49.899282], [12.572515, 49.899316], [12.571966, 49.899271], [12.571226, 49.899115], [12.570844, 49.898988], [12.568393, 49.898055], [12.56601, 49.897146], [12.559554, 49.898171], [12.559119, 49.898404], [12.557458, 49.899063], [12.554461, 49.90024], [12.553772, 49.90051], [12.553415, 49.900607], [12.553106, 49.900662], [12.552786, 49.900696], [12.552026, 49.900729], [12.548017, 49.901454], [12.544779, 49.903131], [12.54358, 49.903747], [12.542332, 49.902305], [12.542245, 49.902124], [12.541935, 49.900545], [12.543134, 49.899929], [12.546345, 49.898266], [12.550623, 49.894401], [12.555152, 49.892384], [12.562129, 49.893036], [12.563125, 49.892993], [12.564658, 49.893098], [12.565216, 49.893174], [12.565677, 49.893263], [12.56601, 49.893352], [12.567152, 49.893732], [12.57604, 49.894739], [12.578377, 49.894264], [12.580405, 49.893825], [12.582457, 49.89338], [12.587097, 49.892015], [12.59045, 49.890245], [12.591301, 49.889882], [12.596627, 49.888057], [12.599102, 49.882781], [12.600076, 49.879315], [12.600308, 49.879327], [12.60728, 49.875214], [12.603532, 49.870317], [12.601878, 49.870183], [12.601068, 49.870066], [12.600544, 49.869967], [12.597912, 49.869865], [12.5956, 49.867106], [12.590577, 49.859994], [12.59001, 49.859809], [12.589633, 49.85963], [12.588368, 49.858876], [12.586886, 49.857911], [12.588852, 49.854894], [12.593865, 49.857002], [12.59473, 49.857273], [12.596622, 49.857921], [12.598138, 49.858336], [12.599191, 49.858625], [12.599655, 49.858817], [12.606505, 49.860454], [12.607719, 49.860439], [12.608745, 49.860494], [12.610102, 49.860498], [12.611259, 49.860496], [12.611859, 49.860547], [12.612306, 49.860622], [12.613174, 49.860822], [12.613714, 49.860994], [12.614323, 49.861246], [12.614878, 49.861537], [12.615323, 49.861817], [12.616886, 49.86267], [12.618482, 49.863146], [12.621559, 49.863298], [12.624222, 49.862898], [12.625732, 49.862765], [12.627014, 49.862766], [12.627713, 49.862799], [12.628907, 49.862899], [12.629553, 49.862997], [12.630705, 49.863259], [12.632259, 49.863679], [12.633672, 49.864025], [12.634751, 49.864245], [12.635524, 49.864373], [12.639142, 49.864029], [12.639564, 49.863894], [12.640111, 49.863753], [12.644643, 49.856772], [12.638101, 49.852189], [12.637379, 49.85214], [12.636836, 49.852033], [12.635862, 49.851796], [12.633359, 49.851899], [12.63272, 49.851861], [12.632066, 49.851733], [12.631187, 49.851463], [12.630782, 49.851287], [12.623588, 49.8513], [12.623077, 49.851591], [12.622588, 49.85179], [12.622079, 49.851948], [12.621016, 49.848508], [12.621887, 49.847689], [12.622338, 49.847244], [12.623204, 49.846729], [12.623846, 49.846343], [12.626814, 49.845361], [12.627429, 49.845316], [12.628938, 49.84553], [12.635152, 49.841127], [12.633903, 49.837991], [12.631046, 49.836534], [12.627115, 49.834953], [12.628458, 49.831613], [12.633728, 49.825286], [12.637159, 49.826376], [12.63744, 49.831612], [12.637518, 49.832211], [12.637416, 49.832909], [12.637398, 49.836016], [12.64323, 49.840412], [12.644553, 49.840384], [12.644991, 49.840351], [12.645574, 49.840349], [12.648332, 49.840031], [12.649158, 49.839932], [12.650526, 49.839713], [12.651369, 49.839531], [12.652515, 49.839217], [12.65348, 49.838974], [12.654461, 49.838688], [12.655467, 49.842145], [12.654486, 49.84243], [12.653399, 49.842707], [12.652885, 49.842868], [12.652195, 49.843035], [12.649418, 49.851303], [12.649696, 49.851669], [12.649901, 49.852028], [12.65008, 49.852551], [12.650134, 49.853088], [12.656162, 49.859556], [12.662465, 49.857015], [12.663014, 49.856525], [12.663707, 49.85576], [12.664633, 49.854739], [12.665199, 49.85424], [12.667863, 49.850609], [12.668444, 49.847691], [12.668767, 49.847065], [12.671847, 49.846518], [12.676169, 49.83951], [12.673907, 49.834371], [12.673397, 49.833786], [12.673122, 49.833374], [12.672831, 49.832817], [12.672662, 49.832342], [12.672555, 49.831898], [12.676056, 49.831059], [12.683815, 49.83506], [12.689683, 49.837562], [12.691239, 49.838065], [12.691636, 49.841866], [12.695036, 49.848083], [12.695384, 49.848492], [12.698196, 49.85093], [12.699088, 49.851607], [12.701509, 49.854003], [12.701711, 49.854161], [12.706836, 49.856926], [12.709922, 49.857559], [12.718246, 49.854958], [12.719476, 49.853852], [12.721654, 49.853281], [12.723832, 49.852709], [12.729095, 49.854124], [12.733751, 49.849642], [12.736017, 49.847157], [12.736319, 49.846643], [12.736708, 49.846107], [12.73151, 49.838876], [12.730327, 49.83917], [12.727882, 49.839703], [12.727115, 49.836185], [12.721095, 49.830571], [12.720328, 49.830274], [12.719838, 49.829982], [12.719187, 49.829473], [12.718139, 49.828612], [12.712157, 49.825607], [12.706906, 49.825564], [12.703403, 49.824734], [12.701528, 49.823849], [12.698411, 49.822668], [12.699686, 49.819302], [12.707966, 49.82145], [12.710047, 49.821704], [12.71262, 49.822037], [12.715949, 49.822321], [12.717294, 49.823235], [12.717675, 49.823459], [12.718971, 49.824279], [12.720465, 49.825864], [12.724259, 49.827806], [12.726263, 49.828449], [12.729231, 49.829084], [12.735489, 49.822629], [12.735392, 49.821174], [12.735527, 49.82027], [12.735743, 49.81911], [12.735787, 49.816711], [12.734401, 49.811342], [12.733891, 49.808022], [12.73593, 49.806088], [12.740795, 49.802939], [12.743121, 49.800637], [12.743751, 49.800111], [12.744416, 49.79959], [12.745315, 49.798951], [12.747402, 49.801884], [12.745758, 49.809348], [12.745522, 49.81294], [12.739343, 49.819112], [12.739378, 49.820241], [12.747015, 49.824696], [12.749719, 49.826642], [12.750068, 49.827323], [12.750221, 49.827928], [12.750232, 49.828493], [12.750345, 49.830151], [12.750274, 49.830832], [12.749899, 49.831636], [12.749319, 49.83224], [12.746978, 49.835789], [12.746893, 49.836055], [12.742989, 49.8424], [12.74294, 49.842938], [12.742836, 49.843477], [12.742521, 49.844377], [12.74225, 49.844917], [12.741846, 49.845533], [12.739768, 49.85153], [12.747708, 49.853151], [12.74813, 49.852752], [12.749142, 49.851955], [12.750453, 49.850927], [12.750959, 49.850578], [12.751457, 49.850304], [12.752071, 49.850053], [12.75687, 49.842943], [12.761375, 49.837985], [12.768488, 49.833226], [12.768968, 49.832729], [12.769498, 49.83224], [12.772345, 49.831864], [12.772481, 49.832017], [12.772762, 49.832397], [12.773079, 49.833253], [12.777863, 49.839255], [12.780829, 49.838039], [12.782148, 49.82968], [12.782089, 49.829228], [12.783904, 49.827603], [12.784309, 49.827689], [12.785842, 49.828659], [12.786282, 49.829131], [12.787115, 49.830399], [12.794889, 49.832232], [12.799875, 49.827736], [12.803231, 49.827029], [12.805123, 49.827528], [12.812735, 49.828453], [12.815131, 49.828225], [12.817559, 49.827994], [12.818084, 49.827955], [12.81911, 49.827952], [12.819352, 49.827964], [12.820633, 49.829489], [12.820383, 49.830279], [12.819172, 49.83156], [12.817837, 49.831583], [12.815473, 49.831809], [12.813077, 49.832037], [12.811087, 49.832293], [12.805088, 49.838853], [12.805001, 49.8396], [12.804743, 49.84071], [12.801236, 49.839895], [12.796004, 49.841831], [12.790862, 49.845571], [12.790047, 49.84571], [12.787642, 49.846593], [12.78697, 49.847033], [12.783958, 49.848704], [12.783348, 49.848975], [12.782775, 49.84919], [12.78204, 49.849365], [12.7818, 49.849439], [12.781229, 49.849637], [12.777565, 49.851922], [12.775937, 49.853541], [12.77399, 49.86228], [12.77471, 49.865807], [12.781238, 49.869407], [12.785533, 49.867079], [12.785938, 49.866535], [12.786525, 49.865875], [12.787776, 49.864203], [12.788534, 49.862535], [12.788867, 49.862079], [12.789562, 49.861139], [12.79096, 49.85829], [12.791308, 49.857545], [12.791411, 49.857414], [12.792318, 49.856885], [12.794023, 49.855105], [12.794348, 49.85508], [12.80131, 49.855181], [12.802554, 49.858559], [12.808094, 49.865494], [12.811984, 49.864237], [12.81884, 49.866089], [12.819571, 49.866453], [12.822799, 49.868353], [12.821518, 49.871717], [12.820819, 49.874244], [12.820216, 49.877794], [12.818847, 49.877561], [12.818355, 49.877436], [12.816374, 49.876488], [12.815017, 49.876053], [12.814165, 49.875555], [12.807307, 49.875291], [12.805202, 49.875724], [12.801425, 49.875559], [12.800377, 49.883913], [12.804494, 49.887857], [12.803689, 49.891366], [12.80938, 49.896179], [12.8108, 49.896367], [12.811676, 49.896439], [12.8159, 49.896613], [12.818052, 49.896403], [12.821273, 49.898011], [12.824513, 49.901788], [12.82449, 49.902149], [12.823411, 49.903344], [12.82322, 49.9034], [12.820308, 49.902364], [12.814882, 49.900448], [12.812573, 49.900334], [12.807836, 49.902324], [12.806657, 49.903123], [12.801944, 49.910071], [12.807792, 49.912332], [12.808504, 49.912315], [12.809243, 49.912486], [12.810956, 49.913221], [12.81267, 49.913956], [12.81125, 49.917265], [12.810811, 49.919846], [12.811779, 49.924285], [12.815824, 49.927996], [12.818854, 49.934896], [12.819865, 49.936615], [12.821631, 49.938794], [12.823288, 49.940208], [12.823681, 49.940601], [12.824204, 49.94169], [12.825666, 49.945072], [12.825948, 49.945816], [12.827306, 49.948057], [12.829274, 49.95127], [12.837453, 49.95249], [12.840033, 49.950355], [12.842843, 49.94348], [12.84284, 49.9434], [12.842904, 49.942685], [12.843325, 49.941757], [12.842696, 49.932974], [12.842, 49.931844], [12.837134, 49.928113], [12.836391, 49.927534], [12.837895, 49.925475], [12.838617, 49.924578], [12.839164, 49.92429], [12.83998, 49.924017], [12.843158, 49.926687], [12.844348, 49.927725], [12.845253, 49.929307], [12.848042, 49.932067], [12.853709, 49.926084], [12.854214, 49.922499], [12.855639, 49.92242], [12.856495, 49.922304], [12.857452, 49.922293], [12.858265, 49.922369], [12.859475, 49.922547], [12.861391, 49.922673], [12.863056, 49.922832], [12.865774, 49.914668], [12.863774, 49.911674], [12.860334, 49.909294], [12.859302, 49.908652], [12.856206, 49.907056], [12.855829, 49.906923], [12.857025, 49.903528], [12.857402, 49.903661], [12.860123, 49.904787], [12.860887, 49.90524], [12.868165, 49.900443], [12.868521, 49.899603], [12.868769, 49.899213], [12.871052, 49.899627], [12.87174, 49.899851], [12.872672, 49.900575], [12.873419, 49.903868], [12.882007, 49.906369], [12.885814, 49.905276], [12.886493, 49.90499], [12.887711, 49.90458], [12.888165, 49.904494], [12.888625, 49.904459], [12.88993, 49.904468], [12.889903, 49.908068], [12.883769, 49.912407], [12.882854, 49.913984], [12.885054, 49.921675], [12.888852, 49.923546], [12.892429, 49.925886], [12.893632, 49.926429], [12.894815, 49.926938], [12.903251, 49.925079], [12.906816, 49.921839], [12.908768, 49.917242], [12.90951, 49.915167], [12.910019, 49.912871], [12.910115, 49.912063], [12.910407, 49.908475], [12.918884, 49.907369], [12.920239, 49.910705], [12.91618, 49.917855], [12.916309, 49.918858], [12.916147, 49.919568], [12.915591, 49.920383], [12.914511, 49.921019], [12.914131, 49.921091], [12.90973, 49.923952], [12.913798, 49.93077], [12.915744, 49.93128], [12.91675, 49.9315], [12.917842, 49.931643], [12.918932, 49.931673], [12.919664, 49.931792], [12.922002, 49.934608], [12.918941, 49.935319], [12.917809, 49.935243], [12.916317, 49.935074], [12.914999, 49.934803], [12.912888, 49.934253], [12.91022, 49.933787], [12.909987, 49.933781], [12.909548, 49.933775], [12.907346, 49.93389], [12.905475, 49.933956], [12.904994, 49.93399], [12.903495, 49.934203], [12.898978, 49.936486], [12.898635, 49.936706], [12.895267, 49.942186], [12.895139, 49.942894], [12.900352, 49.949983], [12.904647, 49.950979], [12.90527, 49.951086], [12.912013, 49.956698], [12.91308, 49.956467], [12.916626, 49.954696], [12.917219, 49.954445], [12.921884, 49.951016], [12.922621, 49.950563], [12.924051, 49.950899], [12.928806, 49.953362], [12.931096, 49.953432], [12.93177, 49.953436], [12.932203, 49.953429], [12.932869, 49.953368], [12.93828, 49.946737], [12.938104, 49.94566], [12.938353, 49.943803], [12.939316, 49.941284], [12.93983, 49.94057], [12.940126, 49.94031], [12.940568, 49.939979], [12.942293, 49.938579], [12.94297, 49.938382], [12.943495, 49.938331], [12.944161, 49.938348], [12.944985, 49.938394], [12.946013, 49.938399], [12.94802, 49.938531], [12.948134, 49.938546], [12.94876, 49.942091], [12.948135, 49.942129], [12.942087, 49.946672], [12.942624, 49.949487], [12.946769, 49.952928], [12.947498, 49.953087], [12.951589, 49.952823], [12.952196, 49.952545], [12.952549, 49.952416], [12.95296, 49.952296], [12.956918, 49.948863], [12.957119, 49.94836], [12.957723, 49.946513], [12.959085, 49.945329], [12.961692, 49.943847], [12.962679, 49.943047], [12.964285, 49.942246], [12.96646, 49.941527], [12.967835, 49.941231], [12.969729, 49.944293], [12.97685, 49.948289], [12.979287, 49.946631], [12.979701, 49.946268], [12.980477, 49.945809], [12.980861, 49.945634], [12.981265, 49.945504], [12.983368, 49.945001], [12.985799, 49.944544], [12.98656, 49.944313], [12.987612, 49.943947], [12.988281, 49.943636], [12.988813, 49.943368], [12.989184, 49.943149], [12.989684, 49.94283], [12.990751, 49.934164], [12.989753, 49.932995], [12.989349, 49.932516], [12.989121, 49.93209], [12.988938, 49.931448], [12.988869, 49.930575], [12.988504, 49.928465], [12.981397, 49.924215], [12.979979, 49.924663], [12.979277, 49.924909], [12.974088, 49.930774], [12.973671, 49.931356], [12.973119, 49.931769], [12.972739, 49.931952], [12.972143, 49.932242], [12.969111, 49.930301], [12.966122, 49.929302], [12.962064, 49.92902], [12.960173, 49.926266], [12.960029, 49.92607], [12.962934, 49.923944], [12.962977, 49.923917], [12.963395, 49.924023], [12.96394, 49.924289], [12.964378, 49.924561], [12.970761, 49.923541], [12.972067, 49.919828], [12.972533, 49.916259], [12.971349, 49.909312], [12.969664, 49.907535], [12.970908, 49.905525], [12.97184, 49.904893], [12.97274, 49.904473], [12.973218, 49.904347], [12.973441, 49.904355], [12.974571, 49.905588], [12.975204, 49.906704], [12.978552, 49.910068], [12.983057, 49.913038], [12.983773, 49.913298], [12.991887, 49.915476], [12.999269, 49.911055], [12.999878, 49.907506], [13.001474, 49.90778], [13.002095, 49.907994], [13.004134, 49.908458], [13.005721, 49.908453], [13.006499, 49.908379], [13.007356, 49.908238], [13.007696, 49.908164], [13.00815, 49.908108], [13.00901, 49.908223], [13.010025, 49.908972], [13.01457, 49.912714], [13.018958, 49.914816], [13.021071, 49.915935], [13.022724, 49.916828], [13.027326, 49.919546], [13.032759, 49.918545], [13.033637, 49.912194], [13.032354, 49.910513], [13.032099, 49.909787], [13.030565, 49.907515], [13.02924, 49.906399], [13.028879, 49.905956], [13.028605, 49.905537], [13.027154, 49.903242], [13.026786, 49.90279], [13.026522, 49.902373], [13.02621, 49.901696], [13.021228, 49.897061], [13.020475, 49.896829], [13.015799, 49.896673], [13.015242, 49.896783], [13.014977, 49.89681], [13.009288, 49.895367], [13.00741, 49.894358], [13.007125, 49.89417], [13.006561, 49.893844], [13.006092, 49.893455], [13.002786, 49.891487], [13.002356, 49.89128], [13.00178, 49.890924], [13.00138, 49.890588], [12.992921, 49.888735], [12.992261, 49.888919], [12.986938, 49.891663], [12.986342, 49.89181], [12.982801, 49.891164], [12.983003, 49.890058], [12.983449, 49.887505], [12.985103, 49.884308], [12.985487, 49.884506], [12.986749, 49.885198], [12.989889, 49.885716], [12.994618, 49.880701], [12.993578, 49.877254], [12.997171, 49.874911], [13.00099, 49.876887], [13.001927, 49.878388], [13.003851, 49.882028], [13.01054, 49.887564], [13.011363, 49.887521], [13.017284, 49.883334], [13.018287, 49.882059], [13.019926, 49.881285], [13.021134, 49.881019], [13.024068, 49.880666], [13.024498, 49.88424], [13.029638, 49.891296], [13.031043, 49.893954], [13.030801, 49.894795], [13.031162, 49.90188], [13.031427, 49.902389], [13.032836, 49.904722], [13.034312, 49.906387], [13.035168, 49.907253], [13.035591, 49.907929], [13.039756, 49.910814], [13.040611, 49.91099], [13.042045, 49.911456], [13.043998, 49.912188], [13.0482, 49.916043], [13.050964, 49.916568], [13.052192, 49.917386], [13.054187, 49.919137], [13.05488, 49.919938], [13.062937, 49.922051], [13.063877, 49.921803], [13.064358, 49.921725], [13.065614, 49.921599], [13.065881, 49.921558], [13.068141, 49.920979], [13.069508, 49.92102], [13.069782, 49.92202], [13.06964, 49.922436], [13.069087, 49.924453], [13.076455, 49.928563], [13.079682, 49.925524], [13.082871, 49.922522], [13.083943, 49.921452], [13.084333, 49.921042], [13.085083, 49.920109], [13.082657, 49.911548], [13.082089, 49.911204], [13.080182, 49.909691], [13.076674, 49.908179], [13.073476, 49.907423], [13.073282, 49.907349], [13.07148, 49.906915], [13.069661, 49.906476], [13.069205, 49.906358], [13.068648, 49.90618], [13.065516, 49.904993], [13.062278, 49.903769], [13.061617, 49.903594], [13.059406, 49.903258], [13.05712, 49.902908], [13.055076, 49.902507], [13.053127, 49.902122], [13.052861, 49.902078], [13.050216, 49.901924], [13.049494, 49.901824], [13.048862, 49.90162], [13.048371, 49.901356], [13.047749, 49.900915], [13.042225, 49.899885], [13.041685, 49.900049], [13.040837, 49.894144], [13.040966, 49.890546], [13.0449, 49.887575], [13.05188, 49.885225], [13.05548, 49.885225], [13.058161, 49.886218], [13.065278, 49.882902], [13.065568, 49.882428], [13.065843, 49.882102], [13.067238, 49.880779], [13.071955, 49.875239], [13.073526, 49.874589], [13.074102, 49.874575], [13.074638, 49.8746], [13.07552, 49.874738], [13.075596, 49.875275], [13.075541, 49.876115], [13.075303, 49.87693], [13.075241, 49.877126], [13.074309, 49.878681], [13.07416, 49.878997], [13.073852, 49.879742], [13.07354, 49.880266], [13.071781, 49.882181], [13.076428, 49.889581], [13.078762, 49.889392], [13.079774, 49.889381], [13.080685, 49.889479], [13.082515, 49.889754], [13.083462, 49.890088], [13.090798, 49.885835], [13.090987, 49.885118], [13.09202, 49.882875], [13.09529, 49.884381], [13.09485, 49.888121], [13.094849, 49.889261], [13.101557, 49.894633], [13.103355, 49.894024], [13.107005, 49.886384], [13.107798, 49.882873], [13.10942, 49.87498], [13.105888, 49.873847], [13.103275, 49.87436], [13.102581, 49.870827], [13.110034, 49.866199], [13.112025, 49.865393], [13.113552, 49.864496], [13.114072, 49.863996], [13.114425, 49.857694], [13.110167, 49.855749], [13.110314, 49.852152], [13.114155, 49.852004], [13.11516, 49.851961], [13.119117, 49.855099], [13.125999, 49.857145], [13.126651, 49.857781], [13.127855, 49.86023], [13.126698, 49.860925], [13.125005, 49.861898], [13.122994, 49.867641], [13.126517, 49.871541], [13.130892, 49.873889], [13.131391, 49.874176], [13.134162, 49.875904], [13.136258, 49.876711], [13.137379, 49.876913], [13.138004, 49.877049], [13.139765, 49.877616], [13.140894, 49.877862], [13.142445, 49.878242], [13.143223, 49.878346], [13.145355, 49.878686], [13.149521, 49.878484], [13.153386, 49.875487], [13.154762, 49.872445], [13.149923, 49.865874], [13.149233, 49.865797], [13.148565, 49.865572], [13.143963, 49.863436], [13.143981, 49.862441], [13.144731, 49.859933], [13.14818, 49.860964], [13.152716, 49.862309], [13.153498, 49.862304], [13.154464, 49.86244], [13.156745, 49.862662], [13.157613, 49.862871], [13.16343, 49.856613], [13.159273, 49.85036], [13.155454, 49.849153], [13.155317, 49.848427], [13.15524, 49.847508], [13.155055, 49.845575], [13.156314, 49.844072], [13.156895, 49.844254], [13.157286, 49.844396], [13.157893, 49.844752], [13.16242, 49.847422], [13.164518, 49.848077], [13.166968, 49.848989], [13.173764, 49.845952], [13.175197, 49.844412], [13.18223, 49.842348], [13.185811, 49.841975], [13.193092, 49.841172], [13.199376, 49.842077], [13.20238, 49.840735], [13.203848, 49.844023], [13.199068, 49.848338], [13.198784, 49.848525], [13.198168, 49.848871], [13.193542, 49.847072], [13.186931, 49.852822], [13.187853, 49.857219], [13.18779, 49.857418], [13.185093, 49.857955], [13.179973, 49.86441], [13.181243, 49.867778], [13.178363, 49.869796], [13.173069, 49.873708], [13.172337, 49.87412], [13.170306, 49.87524], [13.168442, 49.87733], [13.17326, 49.884244], [13.175293, 49.883503], [13.177172, 49.882794], [13.178447, 49.882258], [13.185887, 49.880089], [13.189216, 49.881458], [13.19561, 49.88153], [13.197478, 49.881075], [13.199607, 49.880577], [13.200666, 49.880485], [13.201646, 49.88051], [13.204769, 49.880192], [13.206134, 49.87996], [13.206841, 49.879937], [13.208008, 49.880019], [13.207941, 49.883618], [13.205224, 49.88432], [13.203895, 49.88453], [13.203289, 49.884585], [13.202872, 49.884565], [13.198329, 49.884573], [13.196462, 49.885028], [13.194691, 49.885443], [13.191824, 49.886414], [13.191008, 49.886747], [13.190653, 49.886872], [13.18984, 49.886984], [13.189233, 49.886934], [13.186555, 49.886969], [13.184576, 49.885964], [13.179994, 49.885508], [13.176258, 49.891071], [13.175747, 49.892829], [13.180329, 49.900383], [13.181989, 49.900424], [13.184219, 49.901015], [13.188342, 49.908126], [13.190403, 49.908461], [13.195148, 49.907738], [13.198419, 49.908552], [13.198607, 49.912147], [13.206829, 49.914572], [13.209304, 49.91312], [13.211779, 49.911668], [13.213478, 49.910671], [13.215176, 49.909674], [13.216998, 49.912779], [13.2153, 49.913776], [13.213601, 49.914773], [13.211126, 49.916225], [13.207363, 49.922541], [13.215468, 49.925567], [13.215836, 49.925282], [13.217078, 49.924125], [13.217717, 49.924017], [13.219339, 49.924454], [13.219468, 49.925002], [13.223504, 49.932474], [13.22708, 49.932058], [13.234869, 49.93214], [13.23708, 49.929299], [13.24505, 49.925948], [13.246476, 49.925056], [13.246012, 49.916785], [13.245686, 49.9132], [13.249993, 49.909338], [13.253247, 49.907453], [13.256127, 49.906118], [13.258474, 49.905211], [13.259752, 49.904661], [13.265091, 49.898024], [13.265395, 49.897419], [13.266012, 49.896612], [13.267463, 49.895104], [13.27216, 49.893264], [13.272323, 49.893161], [13.273503, 49.892377], [13.277334, 49.884732], [13.282358, 49.877686], [13.283306, 49.876377], [13.284961, 49.875199], [13.286084, 49.876213], [13.2866, 49.876775], [13.287042, 49.878372], [13.287107, 49.879098], [13.288195, 49.884426], [13.288531, 49.885027], [13.296506, 49.888789], [13.300303, 49.88497], [13.301394, 49.882994], [13.302552, 49.881957], [13.304271, 49.883675], [13.304954, 49.884638], [13.303494, 49.886883], [13.306885, 49.893886], [13.314381, 49.893692], [13.314962, 49.893688], [13.317145, 49.893397], [13.317473, 49.893381], [13.318029, 49.89338], [13.318396, 49.893952], [13.318275, 49.896492], [13.318674, 49.904383], [13.318166, 49.907611], [13.319349, 49.913396], [13.320717, 49.916893], [13.323085, 49.923226], [13.327072, 49.924728], [13.327691, 49.924748], [13.328449, 49.9249], [13.336194, 49.924006], [13.342321, 49.927786], [13.345718, 49.928588], [13.346688, 49.928847], [13.348443, 49.929413], [13.350198, 49.929979], [13.349093, 49.933406], [13.345495, 49.940269], [13.345141, 49.940582], [13.343329, 49.942194], [13.340015, 49.946484], [13.338458, 49.952003], [13.33648, 49.954288], [13.332312, 49.961318], [13.33593, 49.965055], [13.341597, 49.964387], [13.34373, 49.962522], [13.345039, 49.961022], [13.348739, 49.958813], [13.349464, 49.957745], [13.349979, 49.957274], [13.350576, 49.956855], [13.352643, 49.959802], [13.352941, 49.963249], [13.360236, 49.966702], [13.362048, 49.96555], [13.363739, 49.964481], [13.364965, 49.963328], [13.365329, 49.962959], [13.365762, 49.962759], [13.366356, 49.962796], [13.367891, 49.965488], [13.367527, 49.965857], [13.366587, 49.966815], [13.365047, 49.97413], [13.36564, 49.976449], [13.365884, 49.976938], [13.366547, 49.978457], [13.375099, 49.979167], [13.375589, 49.978855], [13.376055, 49.978693], [13.376959, 49.978363], [13.37781, 49.97801], [13.379027, 49.977298], [13.379878, 49.976797], [13.380178, 49.976657], [13.381076, 49.976307], [13.382516, 49.975684], [13.384839, 49.974316], [13.387343, 49.972949], [13.38853, 49.97238], [13.390085, 49.975627], [13.396934, 49.979542], [13.398945, 49.979533], [13.399444, 49.97953], [13.399726, 49.97956], [13.402507, 49.980008], [13.402964, 49.980103], [13.404273, 49.981146], [13.405225, 49.982467], [13.406016, 49.983769], [13.405915, 49.983912], [13.405505, 49.984329], [13.403563, 49.985494], [13.403444, 49.985456], [13.403019, 49.985262], [13.397851, 49.983243], [13.397181, 49.983207], [13.389993, 49.987798], [13.389733, 49.988134], [13.389418, 49.988448], [13.38753, 49.990413], [13.383953, 49.990008], [13.375669, 49.993492], [13.37444, 49.996876], [13.373264, 49.996449], [13.37221, 49.995841], [13.370174, 49.995063], [13.36443, 49.995727], [13.363227, 49.995785], [13.362847, 49.995668], [13.362507, 49.995518], [13.36076, 49.992835], [13.353808, 49.990139], [13.352257, 49.990459], [13.351787, 49.990538], [13.351175, 49.990617], [13.348015, 49.990986], [13.347123, 49.991329], [13.34663, 49.991457], [13.34597, 49.991575], [13.345565, 49.991584], [13.34378, 49.991617], [13.343119, 49.991572], [13.337385, 49.994178], [13.337614, 50.002604], [13.338138, 50.003409], [13.338121, 50.003469], [13.337945, 50.007887], [13.336576, 50.009349], [13.33507, 50.011455], [13.334785, 50.012046], [13.334466, 50.012544], [13.334213, 50.01289], [13.333839, 50.013327], [13.333408, 50.014004], [13.332854, 50.015226], [13.331174, 50.0183], [13.3383, 50.022503], [13.34037, 50.020492], [13.340918, 50.019754], [13.342108, 50.018092], [13.342619, 50.017621], [13.343244, 50.01724], [13.344898, 50.016608], [13.345304, 50.016373], [13.350082, 50.009516], [13.350097, 50.008898], [13.350234, 50.00813], [13.352802, 50.005667], [13.352999, 50.005604], [13.353556, 50.005479], [13.354051, 50.005449], [13.354956, 50.005507], [13.355768, 50.005645], [13.356235, 50.005811], [13.358686, 50.00629], [13.359493, 50.006255], [13.361722, 50.006198], [13.361815, 50.009796], [13.367922, 50.015637], [13.368708, 50.01592], [13.375435, 50.015708], [13.377701, 50.015081], [13.384602, 50.015524], [13.38565, 50.01533], [13.390986, 50.008823], [13.392433, 50.005526], [13.398354, 50.004767], [13.401946, 50.005007], [13.409817, 50.00841], [13.41589, 50.007106], [13.416357, 50.006958], [13.41996, 50.005678], [13.421688, 50.008836], [13.424484, 50.015419], [13.424331, 50.019015], [13.431455, 50.023291], [13.43406, 50.022402], [13.438123, 50.024878], [13.439251, 50.025586], [13.439638, 50.026342], [13.445256, 50.030734], [13.448784, 50.02377], [13.449104, 50.02029], [13.450002, 50.019799], [13.45459, 50.018997], [13.456264, 50.019593], [13.456423, 50.019678], [13.456937, 50.021179], [13.456929, 50.021364], [13.456791, 50.024711], [13.461519, 50.029947], [13.463482, 50.030446], [13.465267, 50.030909], [13.465911, 50.031005], [13.468138, 50.033048], [13.469236, 50.036476], [13.467947, 50.036889], [13.466014, 50.037669], [13.464113, 50.038121], [13.460801, 50.044575], [13.461457, 50.046288], [13.465489, 50.05354], [13.469984, 50.051411], [13.470728, 50.046401], [13.470599, 50.045621], [13.473177, 50.044664], [13.473349, 50.044555], [13.474042, 50.044349], [13.47447, 50.044285], [13.475811, 50.04465], [13.480949, 50.046606], [13.485773, 50.046304], [13.486337, 50.046142], [13.492806, 50.042826], [13.495054, 50.045638], [13.493367, 50.048152], [13.492645, 50.048868], [13.492012, 50.049231], [13.491535, 50.049388], [13.489926, 50.049649], [13.489402, 50.049689], [13.486855, 50.049985], [13.486145, 50.050217], [13.483838, 50.050288], [13.482276, 50.058548], [13.482838, 50.062104], [13.4826, 50.062141], [13.482243, 50.062167], [13.477027, 50.065651], [13.474312, 50.067301], [13.477407, 50.075539], [13.479227, 50.07538], [13.481139, 50.07504], [13.48256, 50.074435], [13.484277, 50.073287], [13.486398, 50.072566], [13.488344, 50.071916], [13.489628, 50.071369], [13.492057, 50.069409], [13.492326, 50.069027], [13.492751, 50.068599], [13.494131, 50.066909], [13.494468, 50.066423], [13.494895, 50.065987], [13.495593, 50.065453], [13.496156, 50.065135], [13.496653, 50.064942], [13.498363, 50.064484], [13.499075, 50.064395], [13.499857, 50.064364], [13.500684, 50.064372], [13.5017, 50.064348], [13.504405, 50.064449], [13.511609, 50.065954], [13.513792, 50.065297], [13.517835, 50.062609], [13.521199, 50.063891], [13.526101, 50.06827], [13.529931, 50.067145], [13.530152, 50.066986], [13.532015, 50.068511], [13.532256, 50.069907], [13.537341, 50.075906], [13.5409, 50.076448], [13.542974, 50.077944], [13.544766, 50.080097], [13.548472, 50.087533], [13.547953, 50.091096], [13.545691, 50.096612], [13.552963, 50.101674], [13.555, 50.100639], [13.559156, 50.096094], [13.559602, 50.095208], [13.560072, 50.092006], [13.560325, 50.090001], [13.56054, 50.089157], [13.564029, 50.090046], [13.563821, 50.09294], [13.563852, 50.093826], [13.563783, 50.094516], [13.563595, 50.095313], [13.563308, 50.096029], [13.562658, 50.097111], [13.562386, 50.097683], [13.561752, 50.099343], [13.565909, 50.106544], [13.57096, 50.107664], [13.571451, 50.107613], [13.572746, 50.107564], [13.573804, 50.107467], [13.576095, 50.106987], [13.579195, 50.106322], [13.579717, 50.106238], [13.580517, 50.10615], [13.581176, 50.106115], [13.586841, 50.104903], [13.586992, 50.104952], [13.592584, 50.106369], [13.598055, 50.11189], [13.600445, 50.114764], [13.602409, 50.116999], [13.604664, 50.119239], [13.605017, 50.119703], [13.606869, 50.122115], [13.607323, 50.122759], [13.607829, 50.125447], [13.614302, 50.129411], [13.617889, 50.129109], [13.625667, 50.125], [13.623469, 50.120514], [13.621694, 50.119426], [13.623005, 50.116073], [13.621064, 50.110418], [13.620496, 50.109319], [13.619237, 50.107316], [13.619746, 50.103335], [13.62675, 50.098527], [13.627049, 50.098063], [13.629638, 50.096798], [13.629749, 50.096887], [13.630028, 50.097161], [13.630475, 50.097997], [13.630511, 50.099037], [13.630294, 50.099622], [13.629637, 50.101837], [13.629458, 50.10244], [13.629218, 50.107847], [13.629379, 50.115345], [13.636715, 50.115604], [13.645178, 50.117529], [13.648505, 50.116951], [13.653812, 50.115672], [13.655368, 50.115699], [13.65573, 50.116147], [13.65608, 50.117732], [13.653953, 50.119477], [13.652533, 50.120247], [13.651092, 50.12768], [13.654153, 50.129496], [13.661049, 50.126254], [13.663097, 50.124288], [13.663153, 50.124267], [13.663949, 50.12406], [13.665811, 50.123705], [13.671984, 50.118252], [13.672551, 50.118149], [13.675502, 50.117487], [13.679582, 50.118651], [13.68489, 50.113764], [13.689287, 50.111861], [13.69105, 50.110972], [13.691681, 50.110717], [13.694169, 50.110066], [13.69508, 50.113549], [13.692517, 50.11426], [13.688793, 50.120396], [13.695499, 50.126278], [13.698587, 50.125657], [13.701265, 50.125153], [13.704845, 50.129183], [13.705061, 50.130788], [13.705058, 50.130797], [13.704259, 50.132735], [13.703, 50.132528], [13.702685, 50.132463], [13.69647, 50.133833], [13.696559, 50.141135], [13.701275, 50.142227], [13.701954, 50.145762], [13.699117, 50.146308], [13.697741, 50.154267], [13.701191, 50.16202], [13.708451, 50.162335], [13.709399, 50.161795], [13.709964, 50.161534], [13.710556, 50.161236], [13.711614, 50.160688], [13.712082, 50.160396], [13.713266, 50.159742], [13.714196, 50.159271], [13.715451, 50.158552], [13.716454, 50.157932], [13.718346, 50.160995], [13.725508, 50.159879], [13.726117, 50.160108], [13.726714, 50.160385], [13.726937, 50.160474], [13.728329, 50.161194], [13.728789, 50.161499], [13.729317, 50.162054], [13.735259, 50.166539], [13.741707, 50.16107], [13.741815, 50.160458], [13.742068, 50.159732], [13.741924, 50.15573], [13.734073, 50.151792], [13.730753, 50.150398], [13.727822, 50.146416], [13.724065, 50.141949], [13.725762, 50.138774], [13.726335, 50.130177], [13.726363, 50.129346], [13.726732, 50.127848], [13.727316, 50.125516], [13.730808, 50.12639], [13.732466, 50.133523], [13.734911, 50.136899], [13.736538, 50.139195], [13.737346, 50.140348], [13.745959, 50.142807], [13.748999, 50.142287], [13.752632, 50.140912], [13.752973, 50.140755], [13.754547, 50.140121], [13.755891, 50.143461], [13.75431, 50.150747], [13.756175, 50.153826], [13.75963, 50.161878], [13.761921, 50.17046], [13.765374, 50.16944], [13.76814, 50.170547], [13.774134, 50.170574], [13.774727, 50.170628], [13.780002, 50.173194], [13.78784, 50.175708], [13.791475, 50.175664], [13.795109, 50.175619], [13.798735, 50.175575], [13.801545, 50.175529], [13.809065, 50.174586], [13.816315, 50.174581], [13.818938, 50.174137], [13.823294, 50.173324], [13.827625, 50.172515], [13.834743, 50.169632], [13.836359, 50.168658], [13.838039, 50.167564], [13.839869, 50.166339], [13.840501, 50.165936], [13.841312, 50.165479], [13.842022, 50.165129], [13.842672, 50.164851], [13.843402, 50.164589], [13.844236, 50.164328], [13.845237, 50.164075], [13.847261, 50.163641], [13.849258, 50.163214], [13.852208, 50.162534], [13.85311, 50.162378], [13.854111, 50.162239], [13.855078, 50.162144], [13.85598, 50.162095], [13.856885, 50.162081], [13.857743, 50.162099], [13.858637, 50.162152], [13.859532, 50.162219], [13.862366, 50.162475], [13.865949, 50.162795], [13.868437, 50.163014], [13.870889, 50.16323], [13.878918, 50.162995], [13.879405, 50.166562], [13.877788, 50.166783], [13.876794, 50.166873], [13.875309, 50.166959], [13.874458, 50.166978], [13.873531, 50.166973], [13.872442, 50.166941], [13.870647, 50.166822], [13.868122, 50.1666], [13.865634, 50.166381], [13.862042, 50.16606], [13.859208, 50.165804], [13.852828, 50.166081], [13.850069, 50.166721], [13.842874, 50.169475], [13.841699, 50.1702], [13.837239, 50.17293], [13.836304, 50.173498], [13.835663, 50.173858], [13.834833, 50.174282], [13.833343, 50.174981], [13.832567, 50.175307], [13.831896, 50.175558], [13.831229, 50.175774], [13.829771, 50.176126], [13.82731, 50.17658], [13.825785, 50.176855], [13.824374, 50.177133], [13.823838, 50.177258], [13.823285, 50.177415], [13.821964, 50.177909], [13.821262, 50.178259], [13.817745, 50.182688], [13.820099, 50.187347], [13.821654, 50.188026], [13.822155, 50.188206], [13.823855, 50.188767], [13.825142, 50.189119], [13.827535, 50.189819], [13.829426, 50.19017], [13.832151, 50.193938], [13.830124, 50.196913], [13.827145, 50.194884], [13.824165, 50.192855], [13.81677, 50.192014], [13.814294, 50.192419], [13.813314, 50.192476], [13.812122, 50.192213], [13.810783, 50.191868], [13.805847, 50.185709], [13.804275, 50.183836], [13.798811, 50.179272], [13.79585, 50.179311], [13.79289, 50.17935], [13.78993, 50.179388], [13.785463, 50.180114], [13.780004, 50.179367], [13.77636, 50.179093], [13.774329, 50.178854], [13.772833, 50.178633], [13.771035, 50.178325], [13.768886, 50.177874], [13.767547, 50.177467], [13.766219, 50.177153], [13.764178, 50.17664], [13.760499, 50.175722], [13.75744, 50.176029], [13.752544, 50.175416], [13.749023, 50.174975], [13.747416, 50.183177], [13.748062, 50.183836], [13.752694, 50.185376], [13.753656, 50.185116], [13.754932, 50.184804], [13.755599, 50.184969], [13.755865, 50.185053], [13.756725, 50.185488], [13.756491, 50.186471], [13.755198, 50.188748], [13.753658, 50.188844], [13.751883, 50.197542], [13.752196, 50.197875], [13.749573, 50.200341], [13.749044, 50.200392], [13.746967, 50.200082], [13.744233, 50.199684], [13.743668, 50.19959], [13.740766, 50.199052], [13.73966, 50.198771], [13.732427, 50.194972], [13.729382, 50.195565], [13.726642, 50.196067], [13.724847, 50.19648], [13.724382, 50.196553], [13.723411, 50.196666], [13.722996, 50.19309], [13.716465, 50.189665], [13.713828, 50.190812], [13.707322, 50.192901], [13.706424, 50.1933], [13.70637, 50.193306], [13.703425, 50.193077], [13.70157, 50.191707], [13.697987, 50.189244], [13.690589, 50.18534], [13.683368, 50.184687], [13.68088, 50.185667], [13.678329, 50.187137], [13.676059, 50.188482], [13.674534, 50.189642], [13.673191, 50.190963], [13.672277, 50.198933], [13.673015, 50.202785], [13.672081, 50.203733], [13.666715, 50.208824], [13.663576, 50.210586], [13.662601, 50.20925], [13.662217, 50.208486], [13.662158, 50.207515], [13.662653, 50.206493], [13.664745, 50.204362], [13.66506, 50.203865], [13.665881, 50.202568], [13.665795, 50.196704], [13.665096, 50.193172], [13.666503, 50.192611], [13.670588, 50.188476], [13.672008, 50.187077], [13.672485, 50.186634], [13.673959, 50.185558], [13.671138, 50.177707], [13.667913, 50.177818], [13.665136, 50.177815], [13.66235, 50.178347], [13.661407, 50.178808], [13.659503, 50.179122], [13.657611, 50.179433], [13.653837, 50.181002], [13.652135, 50.189729], [13.652821, 50.190777], [13.653267, 50.191603], [13.653977, 50.193086], [13.654465, 50.193909], [13.654867, 50.194727], [13.655733, 50.196068], [13.65592, 50.19685], [13.655162, 50.199674], [13.654564, 50.199918], [13.653536, 50.20021], [13.652295, 50.20052], [13.649473, 50.202005], [13.646494, 50.199984], [13.643078, 50.196289], [13.640962, 50.195786], [13.640564, 50.195739], [13.639458, 50.195655], [13.633894, 50.198838], [13.635487, 50.206426], [13.640271, 50.208206], [13.641419, 50.211618], [13.640578, 50.214308], [13.640007, 50.21427], [13.639235, 50.214144], [13.637113, 50.213736], [13.629583, 50.210378], [13.622174, 50.214011], [13.619516, 50.216439], [13.61672, 50.220729], [13.60787, 50.221255], [13.604581, 50.22037], [13.604425, 50.22021], [13.596183, 50.217917], [13.595613, 50.218118], [13.594734, 50.218313], [13.59446, 50.217385], [13.593955, 50.214798], [13.595038, 50.214054], [13.599223, 50.211516], [13.600762, 50.212075], [13.606147, 50.213178], [13.607876, 50.212747], [13.6085, 50.212563], [13.608831, 50.212442], [13.609369, 50.212219], [13.610176, 50.211864], [13.611491, 50.211203], [13.612626, 50.202493], [13.611316, 50.201695], [13.610937, 50.20141], [13.610359, 50.200819], [13.601502, 50.200103], [13.601033, 50.200328], [13.600818, 50.200401], [13.600364, 50.200541], [13.598352, 50.200991], [13.597407, 50.201088], [13.595912, 50.201491], [13.595473, 50.201568], [13.594367, 50.201672], [13.592244, 50.202376], [13.59139, 50.202639], [13.589283, 50.203904], [13.588857, 50.203982], [13.588347, 50.204104], [13.586768, 50.204558], [13.584522, 50.203969], [13.583523, 50.203081], [13.584537, 50.200369], [13.584532, 50.194239], [13.577249, 50.191941], [13.57644, 50.191868], [13.56947, 50.192616], [13.56825, 50.193229], [13.560779, 50.189628], [13.559024, 50.190202], [13.555731, 50.192421], [13.554941, 50.193287], [13.553901, 50.194753], [13.553604, 50.195146], [13.551565, 50.200561], [13.549194, 50.202165], [13.548522, 50.202311], [13.542051, 50.205555], [13.542594, 50.209114], [13.541248, 50.209319], [13.540743, 50.209358], [13.540174, 50.209326], [13.533667, 50.210114], [13.531193, 50.211281], [13.530769, 50.211458], [13.530112, 50.211595], [13.522229, 50.215427], [13.52183, 50.215763], [13.521494, 50.216001], [13.520848, 50.216278], [13.513057, 50.219428], [13.512754, 50.219672], [13.510574, 50.220635], [13.5094, 50.21827], [13.504546, 50.2148], [13.504533, 50.2112], [13.505357, 50.211141], [13.505791, 50.211112], [13.506255, 50.211169], [13.511703, 50.209168], [13.514111, 50.203963], [13.50729, 50.19863], [13.506196, 50.198745], [13.505426, 50.198805], [13.504454, 50.198869], [13.503685, 50.198999], [13.503203, 50.199051], [13.503019, 50.195455], [13.503378, 50.195352], [13.503839, 50.195261], [13.505125, 50.195217], [13.50541, 50.195178], [13.506078, 50.195147], [13.51043, 50.187682], [13.510169, 50.18709], [13.508642, 50.185023], [13.504575, 50.182509], [13.503758, 50.182257], [13.502681, 50.18182], [13.502012, 50.181568], [13.50121, 50.181176], [13.498224, 50.179993], [13.497472, 50.179688], [13.495456, 50.178521], [13.494748, 50.178138], [13.493568, 50.177675], [13.492892, 50.177427], [13.492351, 50.177248], [13.490825, 50.176817], [13.490219, 50.176606], [13.489488, 50.176306], [13.485414, 50.175387], [13.479193, 50.179669], [13.477727, 50.182198], [13.483059, 50.189326], [13.483537, 50.189255], [13.484378, 50.189168], [13.484929, 50.189132], [13.485574, 50.189047], [13.486077, 50.18901], [13.487016, 50.188884], [13.487283, 50.192474], [13.486573, 50.192576], [13.485413, 50.192699], [13.484609, 50.192775], [13.482695, 50.193154], [13.482343, 50.193222], [13.481067, 50.193411], [13.478776, 50.193859], [13.478024, 50.193946], [13.476017, 50.194072], [13.475587, 50.194123], [13.468375, 50.198618], [13.468301, 50.199474], [13.469088, 50.203839], [13.469307, 50.204286], [13.469416, 50.204594], [13.469602, 50.205324], [13.469658, 50.205822], [13.469672, 50.20616], [13.469745, 50.208967], [13.471101, 50.212414], [13.476994, 50.215732], [13.479995, 50.21556], [13.480426, 50.215547], [13.480857, 50.215587], [13.481618, 50.215724], [13.481989, 50.215821], [13.482733, 50.216048], [13.483417, 50.216294], [13.483995, 50.216574], [13.492251, 50.217345], [13.49279, 50.217249], [13.493515, 50.218779], [13.49309, 50.220837], [13.492959, 50.220875], [13.492808, 50.220924], [13.491916, 50.22122], [13.491538, 50.221325], [13.491047, 50.221421], [13.488324, 50.221464], [13.484034, 50.225487], [13.483156, 50.225206], [13.482152, 50.224483], [13.481344, 50.22405], [13.473848, 50.228959], [13.479358, 50.234998], [13.481366, 50.235474], [13.481632, 50.235495], [13.482498, 50.235482], [13.483252, 50.235542], [13.485942, 50.236071], [13.486567, 50.236234], [13.493574, 50.234069], [13.494711, 50.230653], [13.49557, 50.230939], [13.501524, 50.229673], [13.5026, 50.230277], [13.504219, 50.230778], [13.505147, 50.231015], [13.505576, 50.231189], [13.505849, 50.231328], [13.506412, 50.231737], [13.506786, 50.23213], [13.509414, 50.233952], [13.50961, 50.237547], [13.506451, 50.242291], [13.506201, 50.245861], [13.511937, 50.252066], [13.513103, 50.252261], [13.512509, 50.255812], [13.511342, 50.255616], [13.510257, 50.255406], [13.50996, 50.25534], [13.509532, 50.255207], [13.509048, 50.254985], [13.50733, 50.254426], [13.50639, 50.254259], [13.505828, 50.254127], [13.504226, 50.253733], [13.503731, 50.253587], [13.503145, 50.253292], [13.502148, 50.252531], [13.501852, 50.252274], [13.498705, 50.250556], [13.497379, 50.249999], [13.496892, 50.249715], [13.496216, 50.247529], [13.487467, 50.24957], [13.485418, 50.25253], [13.488847, 50.259858], [13.488696, 50.263455], [13.486208, 50.263351], [13.485685, 50.263329], [13.481897, 50.271322], [13.48387, 50.272924], [13.484449, 50.273333], [13.48505, 50.273701], [13.486078, 50.274225], [13.489491, 50.275882], [13.4959, 50.275289], [13.499649, 50.271123], [13.500508, 50.271027], [13.508079, 50.267851], [13.511101, 50.269808], [13.513553, 50.27637], [13.511129, 50.279032], [13.510549, 50.286147], [13.516509, 50.286873], [13.51862, 50.286816], [13.518718, 50.290414], [13.517649, 50.291997], [13.515264, 50.294693], [13.512777, 50.293964], [13.50897, 50.289382], [13.505241, 50.287562], [13.501511, 50.285741], [13.497782, 50.283921], [13.493658, 50.281912], [13.491329, 50.280777], [13.487918, 50.279121], [13.484505, 50.277463], [13.483416, 50.276909], [13.475069, 50.276402], [13.473847, 50.276872], [13.471418, 50.277755], [13.469255, 50.278591], [13.467958, 50.275233], [13.470122, 50.274397], [13.469519, 50.265919], [13.466189, 50.263215], [13.464283, 50.261727], [13.462684, 50.260368], [13.460864, 50.258903], [13.453106, 50.25776], [13.44917, 50.258034], [13.447167, 50.258192], [13.446145, 50.258264], [13.444501, 50.25852], [13.443576, 50.258636], [13.44319, 50.258652], [13.439189, 50.266508], [13.441873, 50.268121], [13.444749, 50.269867], [13.445235, 50.270375], [13.447175, 50.27226], [13.442608, 50.279964], [13.442422, 50.280518], [13.442114, 50.281444], [13.437124, 50.284551], [13.436779, 50.284799], [13.4333, 50.287475], [13.429915, 50.290355], [13.429623, 50.290521], [13.429052, 50.290764], [13.428688, 50.290872], [13.427879, 50.290975], [13.424523, 50.290696], [13.42382, 50.290595], [13.422776, 50.290383], [13.421618, 50.290039], [13.419641, 50.289256], [13.417809, 50.288525], [13.415164, 50.287762], [13.412356, 50.286942], [13.411876, 50.286752], [13.411241, 50.286322], [13.410704, 50.285586], [13.410519, 50.285027], [13.404892, 50.278196], [13.402425, 50.277232], [13.399958, 50.276268], [13.397146, 50.275507], [13.394342, 50.275449], [13.387372, 50.27991], [13.38662, 50.281839], [13.386599, 50.281898], [13.383131, 50.283709], [13.380303, 50.28596], [13.378706, 50.284973], [13.377839, 50.283317], [13.377997, 50.282558], [13.378304, 50.281877], [13.378923, 50.281116], [13.37923, 50.280819], [13.379858, 50.280444], [13.380376, 50.280298], [13.38149, 50.279767], [13.380064, 50.2711], [13.378594, 50.270842], [13.375379, 50.27185], [13.374786, 50.272023], [13.373455, 50.272176], [13.372063, 50.272226], [13.36915, 50.272444], [13.367406, 50.272431], [13.365039, 50.272489], [13.358792, 50.275953], [13.358404, 50.28089], [13.358351, 50.28122], [13.355604, 50.282806], [13.355107, 50.282867], [13.353959, 50.283032], [13.35243, 50.282528], [13.351939, 50.28187], [13.351204, 50.278328], [13.351203, 50.277644], [13.351614, 50.276633], [13.354164, 50.275086], [13.355834, 50.273118], [13.357962, 50.271181], [13.359819, 50.269545], [13.360572, 50.269105], [13.362664, 50.268948], [13.368286, 50.263224], [13.367753, 50.260135], [13.367725, 50.259567], [13.359016, 50.257697], [13.358751, 50.258735], [13.356136, 50.25959], [13.353813, 50.262357], [13.353357, 50.262993], [13.351083, 50.265118], [13.348506, 50.267472], [13.347881, 50.267843], [13.34573, 50.268907], [13.34399, 50.271556], [13.343237, 50.272514], [13.341715, 50.281], [13.342216, 50.281504], [13.342824, 50.282434], [13.342836, 50.284648], [13.342504, 50.285545], [13.342454, 50.285581], [13.339456, 50.285887], [13.332487, 50.282598], [13.33171, 50.282314], [13.330884, 50.281855], [13.329705, 50.280753], [13.329773, 50.28036], [13.330575, 50.276363], [13.330614, 50.276307], [13.333454, 50.274474], [13.339477, 50.268258], [13.341227, 50.26577], [13.341905, 50.265753], [13.346218, 50.26465], [13.346654, 50.264385], [13.348625, 50.262488], [13.347907, 50.253737], [13.347113, 50.253216], [13.345936, 50.252555], [13.344256, 50.251806], [13.343761, 50.251676], [13.342063, 50.251311], [13.334799, 50.248575], [13.330721, 50.248381], [13.328513, 50.248574], [13.327889, 50.248555], [13.326712, 50.248427], [13.321438, 50.24391], [13.320777, 50.243657], [13.319928, 50.24316], [13.319638, 50.242935], [13.319129, 50.242455], [13.318637, 50.241601], [13.318695, 50.240348], [13.323536, 50.232917], [13.32257, 50.230756], [13.321635, 50.228659], [13.320876, 50.227036], [13.318779, 50.224145], [13.317233, 50.222573], [13.308595, 50.224761], [13.30834, 50.225474], [13.308051, 50.225977], [13.306259, 50.228788], [13.305571, 50.22942], [13.301935, 50.230569], [13.300442, 50.231104], [13.298918, 50.231498], [13.295826, 50.231989], [13.292898, 50.232448], [13.289969, 50.232906], [13.287041, 50.233364], [13.286048, 50.233659], [13.284039, 50.234381], [13.281915, 50.235139], [13.276568, 50.238403], [13.276005, 50.238928], [13.273972, 50.245982], [13.275482, 50.248971], [13.280388, 50.253992], [13.281672, 50.254544], [13.282689, 50.255109], [13.283407, 50.255749], [13.290746, 50.258519], [13.292638, 50.258379], [13.29508, 50.25789], [13.297421, 50.257569], [13.297801, 50.257501], [13.298568, 50.257339], [13.299028, 50.257298], [13.304982, 50.256095], [13.305343, 50.255944], [13.310802, 50.251761], [13.311843, 50.251705], [13.312513, 50.254037], [13.31239, 50.256093], [13.309661, 50.257949], [13.306535, 50.265216], [13.306793, 50.268806], [13.306131, 50.268815], [13.304852, 50.26889], [13.302553, 50.269085], [13.302151, 50.269101], [13.299162, 50.269085], [13.292603, 50.274686], [13.291592, 50.276111], [13.291299, 50.276277], [13.288018, 50.277926], [13.290351, 50.285874], [13.290621, 50.289464], [13.293761, 50.297814], [13.296217, 50.297949], [13.298562, 50.298118], [13.30423, 50.297186], [13.311865, 50.294568], [13.312395, 50.294779], [13.312866, 50.294996], [13.313587, 50.295544], [13.313907, 50.295911], [13.314005, 50.296082], [13.319087, 50.301591], [13.32134, 50.302005], [13.322421, 50.302254], [13.322971, 50.302582], [13.326803, 50.305294], [13.327245, 50.305505], [13.327081, 50.309101], [13.326918, 50.309093], [13.325522, 50.308658], [13.324763, 50.30837], [13.324432, 50.308241], [13.322893, 50.307475], [13.322121, 50.30702], [13.318369, 50.305178], [13.31257, 50.311444], [13.312729, 50.312364], [13.31231, 50.314417], [13.311884, 50.318316], [13.311425, 50.322416], [13.316616, 50.326413], [13.31713, 50.329983], [13.317052, 50.330116], [13.316517, 50.331238], [13.316155, 50.332722], [13.316075, 50.333485], [13.321349, 50.339929], [13.324794, 50.338988], [13.325873, 50.338075], [13.326517, 50.337789], [13.331402, 50.330638], [13.331617, 50.329553], [13.329807, 50.323276], [13.329417, 50.322842], [13.330684, 50.321659], [13.332117, 50.321234], [13.333035, 50.320845], [13.3345, 50.32062], [13.335409, 50.320527], [13.342891, 50.317795], [13.343642, 50.316159], [13.343648, 50.316145], [13.342482, 50.307475], [13.340476, 50.304486], [13.343358, 50.302551], [13.345623, 50.301031], [13.349223, 50.300975], [13.353343, 50.30242], [13.355614, 50.302772], [13.357781, 50.303111], [13.358401, 50.303194], [13.360039, 50.303278], [13.361497, 50.303179], [13.368034, 50.300098], [13.374927, 50.299039], [13.375047, 50.299066], [13.378491, 50.299547], [13.383703, 50.300565], [13.386442, 50.300643], [13.389182, 50.30072], [13.38908, 50.304318], [13.39424, 50.311591], [13.397323, 50.311467], [13.397468, 50.315064], [13.39152, 50.318], [13.390729, 50.318066], [13.390172, 50.318151], [13.382771, 50.321948], [13.382618, 50.324658], [13.387756, 50.331436], [13.391523, 50.331142], [13.395291, 50.330849], [13.399059, 50.330556], [13.402882, 50.330259], [13.40388, 50.330217], [13.406227, 50.330276], [13.408573, 50.330334], [13.414648, 50.328095], [13.417522, 50.327699], [13.422482, 50.330671], [13.426559, 50.330769], [13.426652, 50.330771], [13.428304, 50.332284], [13.428312, 50.332498], [13.426561, 50.33437], [13.426468, 50.334368], [13.418296, 50.337341], [13.414708, 50.337045], [13.414662, 50.345887], [13.415332, 50.346026], [13.415791, 50.346146], [13.416653, 50.34687], [13.41673, 50.347496], [13.416979, 50.350261], [13.417222, 50.352968], [13.417465, 50.355676], [13.423761, 50.360885], [13.421262, 50.366425], [13.4227, 50.372828], [13.430304, 50.374077], [13.432761, 50.370154], [13.433356, 50.369548], [13.433949, 50.369292], [13.434451, 50.36921], [13.435986, 50.369156], [13.43942, 50.369141], [13.440876, 50.368946], [13.444139, 50.368143], [13.448603, 50.365905], [13.449294, 50.36563], [13.449729, 50.36556], [13.450427, 50.365511], [13.450759, 50.365525], [13.451164, 50.365587], [13.451713, 50.365679], [13.459675, 50.36715], [13.459746, 50.367157], [13.461065, 50.367847], [13.468605, 50.372686], [13.469659, 50.376128], [13.467168, 50.377385], [13.464908, 50.37757], [13.463295, 50.378028], [13.461262, 50.378512], [13.457389, 50.386561], [13.458417, 50.388667], [13.457707, 50.388995], [13.457145, 50.389184], [13.45677, 50.389282], [13.455414, 50.389571], [13.453647, 50.389273], [13.452729, 50.388872], [13.450241, 50.388108], [13.44781, 50.387955], [13.447331, 50.387998], [13.440372, 50.393683], [13.440421, 50.396012], [13.439985, 50.396486], [13.439839, 50.3966], [13.438416, 50.396671], [13.438058, 50.396454], [13.437527, 50.39589], [13.437073, 50.395304], [13.42923, 50.395051], [13.428102, 50.397959], [13.428992, 50.401447], [13.430963, 50.408728], [13.435371, 50.411162], [13.436669, 50.41452], [13.442963, 50.416554], [13.444335, 50.41602], [13.445679, 50.415528], [13.447111, 50.415053], [13.447899, 50.414813], [13.449353, 50.414398], [13.450133, 50.414195], [13.451737, 50.413821], [13.453444, 50.41349], [13.45462, 50.413289], [13.455596, 50.413142], [13.456576, 50.413018], [13.458195, 50.412845], [13.460136, 50.412699], [13.461102, 50.412647], [13.462954, 50.412578], [13.465373, 50.412526], [13.467793, 50.412474], [13.470212, 50.412422], [13.472595, 50.412372], [13.473846, 50.412319], [13.475963, 50.412178], [13.477765, 50.412], [13.478622, 50.411892], [13.480148, 50.411661], [13.481065, 50.411503], [13.481677, 50.415051], [13.480761, 50.415209], [13.479159, 50.415451], [13.478221, 50.415572], [13.476317, 50.415761], [13.474057, 50.415913], [13.472746, 50.415969], [13.470289, 50.416022], [13.46787, 50.416073], [13.46545, 50.416125], [13.463031, 50.416177], [13.461238, 50.416245], [13.460329, 50.416294], [13.458466, 50.416435], [13.45696, 50.416597], [13.456052, 50.416713], [13.455157, 50.416849], [13.454053, 50.417039], [13.452423, 50.417355], [13.450951, 50.4177], [13.450265, 50.417881], [13.448886, 50.418275], [13.445123, 50.426056], [13.445832, 50.428702], [13.444562, 50.431126], [13.443953, 50.43217], [13.443248, 50.433124], [13.440352, 50.430985], [13.440363, 50.426407], [13.433855, 50.424434], [13.432891, 50.424903], [13.431481, 50.425615], [13.430523, 50.426134], [13.428937, 50.427026], [13.427315, 50.427937], [13.425952, 50.428662], [13.42436, 50.429444], [13.421725, 50.430696], [13.41872, 50.432092], [13.417744, 50.432622], [13.415936, 50.433636], [13.417721, 50.442391], [13.418579, 50.44269], [13.419573, 50.44305], [13.421144, 50.44365], [13.41986, 50.447013], [13.418289, 50.446413], [13.416178, 50.445926], [13.415279, 50.445623], [13.415143, 50.445578], [13.414099, 50.445309], [13.410704, 50.445388], [13.404499, 50.447957], [13.402701, 50.452502], [13.408596, 50.457768], [13.41097, 50.45731], [13.411941, 50.457451], [13.412921, 50.457704], [13.413031, 50.457788], [13.414426, 50.458649], [13.415199, 50.459394], [13.415844, 50.45988], [13.41592, 50.459956], [13.41608, 50.461847], [13.414889, 50.468834], [13.412608, 50.471619], [13.412345, 50.471403], [13.410052, 50.469824], [13.402597, 50.467882], [13.401054, 50.468423], [13.400119, 50.46876], [13.399782, 50.468886], [13.397314, 50.469974], [13.394835, 50.470935], [13.390626, 50.472865], [13.390271, 50.473014], [13.389657, 50.473211], [13.38879, 50.473408], [13.384219, 50.471234], [13.382924, 50.470834], [13.37426, 50.471377], [13.373927, 50.471637], [13.373481, 50.471929], [13.372714, 50.472339], [13.372199, 50.472549], [13.3714, 50.472808], [13.370682, 50.472968], [13.370193, 50.473041], [13.369694, 50.473093], [13.369097, 50.473126], [13.368579, 50.473124], [13.368068, 50.473096], [13.360649, 50.47462], [13.358, 50.476906], [13.352827, 50.477546], [13.352076, 50.477746], [13.351192, 50.47794], [13.349067, 50.478323], [13.347498, 50.478496], [13.342096, 50.484493], [13.335855, 50.484056], [13.334105, 50.483878], [13.331727, 50.483577], [13.324763, 50.483798], [13.322667, 50.484295], [13.319759, 50.484993], [13.316846, 50.485693], [13.314118, 50.485316], [13.313566, 50.485322], [13.31318, 50.485319], [13.312234, 50.485272], [13.310575, 50.485104], [13.308776, 50.484918], [13.308291, 50.493849], [13.308863, 50.494109], [13.309796, 50.494698], [13.310421, 50.4954], [13.310709, 50.496426], [13.310707, 50.49658], [13.307505, 50.497475], [13.306338, 50.497209], [13.305576, 50.497066], [13.304232, 50.496903], [13.30385, 50.496873], [13.30179, 50.496189], [13.295414, 50.500596], [13.295107, 50.501889], [13.294063, 50.503293], [13.292974, 50.503982], [13.286383, 50.506165], [13.284769, 50.506269], [13.280868, 50.505807], [13.279427, 50.505725], [13.278584, 50.505576], [13.272236, 50.504411], [13.263318, 50.505476], [13.261273, 50.506412], [13.254422, 50.511056], [13.253907, 50.511785], [13.252151, 50.515448], [13.24875, 50.51663], [13.241364, 50.521664], [13.240972, 50.522043], [13.238513, 50.521194], [13.238447, 50.521066], [13.23847, 50.519455], [13.238862, 50.519076], [13.241507, 50.516477], [13.243165, 50.508494], [13.245372, 50.505649], [13.243751, 50.498987], [13.243766, 50.498688], [13.24525, 50.49685], [13.244495, 50.488084], [13.24394, 50.48786], [13.243649, 50.487762], [13.236378, 50.492696], [13.235921, 50.493088], [13.234116, 50.495496], [13.233237, 50.494835], [13.226344, 50.491645], [13.224544, 50.491052], [13.222818, 50.490483], [13.220993, 50.48994], [13.219601, 50.489478], [13.212258, 50.493738], [13.211044, 50.495593], [13.209796, 50.496722], [13.206929, 50.494544], [13.200289, 50.490828], [13.197607, 50.489971], [13.196038, 50.48145], [13.190197, 50.479473], [13.188943, 50.479614], [13.185625, 50.475914], [13.18673, 50.473309], [13.187201, 50.472677], [13.187956, 50.472886], [13.188399, 50.473261], [13.196446, 50.469475], [13.196929, 50.46781], [13.197008, 50.466673], [13.196963, 50.465492], [13.197011, 50.463129], [13.192115, 50.457883], [13.189419, 50.45699], [13.187287, 50.456302], [13.185141, 50.45561], [13.182995, 50.454917], [13.180849, 50.454225], [13.178627, 50.453712], [13.177894, 50.453615], [13.17219, 50.453791], [13.171494, 50.453958], [13.168327, 50.454437], [13.167628, 50.454525], [13.162616, 50.455275], [13.161982, 50.455432], [13.161233, 50.455549], [13.16024, 50.455626], [13.153268, 50.457234], [13.151366, 50.458186], [13.150923, 50.45833], [13.150426, 50.458438], [13.149568, 50.458523], [13.148941, 50.458536], [13.147892, 50.45852], [13.144673, 50.45841], [13.141486, 50.458302], [13.13336, 50.461522], [13.127618, 50.468243], [13.127423, 50.46866], [13.127148, 50.469108], [13.126571, 50.469798], [13.125716, 50.470531], [13.124782, 50.47119], [13.12294, 50.472451], [13.120963, 50.473796], [13.120309, 50.474161], [13.119558, 50.474527], [13.118629, 50.474869], [13.11758, 50.483776], [13.121562, 50.484157], [13.122324, 50.48428], [13.122972, 50.484456], [13.126221, 50.485659], [13.128586, 50.486523], [13.129358, 50.486839], [13.130311, 50.487359], [13.131016, 50.488081], [13.133884, 50.490679], [13.135394, 50.493493], [13.137379, 50.496587], [13.139044, 50.499549], [13.139307, 50.500031], [13.139757, 50.501197], [13.140222, 50.502255], [13.13907, 50.504889], [13.136479, 50.506515], [13.135609, 50.505949], [13.13491, 50.505489], [13.134445, 50.504803], [13.13409, 50.504008], [13.133788, 50.503177], [13.131274, 50.497269], [13.128489, 50.494829], [13.127977, 50.494539], [13.127526, 50.494195], [13.127166, 50.493798], [13.120769, 50.489984], [13.117002, 50.490257], [13.11102, 50.494819], [13.110323, 50.498351], [13.105392, 50.502785], [13.109384, 50.508311], [13.111122, 50.508603], [13.113475, 50.508933], [13.114253, 50.509081], [13.114878, 50.509277], [13.115401, 50.509549], [13.115826, 50.509855], [13.117289, 50.511023], [13.120438, 50.512648], [13.122078, 50.513152], [13.122916, 50.513479], [13.12343, 50.513776], [13.124752, 50.514736], [13.124938, 50.514839], [13.133241, 50.515075], [13.136251, 50.517049], [13.138887, 50.521946], [13.138967, 50.523097], [13.139114, 50.526182], [13.139404, 50.530639], [13.139248, 50.530985], [13.139052, 50.531335], [13.138764, 50.531676], [13.138226, 50.53206], [13.137434, 50.532293], [13.13686, 50.532298], [13.132148, 50.53586], [13.137035, 50.541346], [13.13841, 50.541338], [13.144723, 50.544274], [13.145164, 50.54584], [13.149134, 50.553812], [13.149893, 50.554218], [13.151885, 50.555211], [13.152288, 50.555613], [13.154224, 50.557682], [13.15439, 50.557858], [13.152958, 50.559719], [13.152243, 50.560196], [13.149272, 50.559063], [13.148904, 50.558849], [13.146124, 50.55653], [13.140361, 50.555977], [13.139959, 50.55601], [13.13907, 50.555961], [13.138393, 50.555817], [13.137592, 50.555336], [13.136769, 50.554469], [13.133848, 50.55108], [13.132502, 50.550068], [13.124419, 50.553334], [13.121919, 50.554824], [13.119496, 50.556041], [13.117837, 50.555802], [13.11713, 50.555671], [13.115566, 50.555227], [13.113412, 50.55151], [13.112871, 50.550961], [13.107164, 50.547235], [13.099668, 50.550754], [13.098962, 50.55405], [13.098857, 50.554546], [13.098597, 50.556443], [13.09825, 50.56087], [13.097974, 50.563615], [13.097933, 50.563823], [13.097669, 50.564416], [13.094703, 50.572419], [13.094214, 50.574441], [13.093328, 50.574999], [13.090293, 50.576361], [13.087318, 50.576787], [13.086712, 50.576731], [13.078244, 50.578319], [13.077844, 50.579131], [13.077677, 50.57937], [13.075797, 50.580611], [13.074393, 50.580655], [13.072628, 50.580204], [13.065419, 50.579416], [13.063106, 50.576658], [13.054425, 50.578174], [13.054157, 50.578524], [13.052769, 50.580022], [13.051087, 50.582663], [13.049406, 50.586806], [13.049374, 50.591616], [13.047425, 50.59216], [13.044243, 50.590418], [13.035758, 50.589047], [13.034366, 50.589611], [13.033909, 50.589739], [13.032723, 50.589966], [13.032504, 50.589923], [13.027324, 50.589124], [13.020514, 50.590916], [13.017214, 50.59544], [13.016988, 50.595509], [13.015507, 50.595121], [13.007582, 50.594498], [13.006338, 50.593518], [13.006252, 50.593337], [13.006167, 50.593121], [13.006127, 50.592998], [13.003781, 50.58631], [12.998798, 50.585051], [12.996988, 50.584569], [12.993507, 50.583689], [12.991869, 50.581047], [12.991885, 50.580995], [12.992605, 50.576514], [12.988582, 50.569619], [12.981933, 50.567441], [12.980976, 50.56645], [12.980126, 50.565631], [12.980384, 50.56403], [12.98049, 50.562856], [12.973861, 50.557635], [12.972726, 50.557857], [12.970498, 50.558283], [12.967664, 50.56557], [12.966445, 50.568957], [12.965252, 50.568528], [12.961634, 50.567736], [12.961051, 50.567654], [12.959866, 50.567323], [12.95204, 50.570026], [12.951828, 50.570245], [12.950932, 50.570348], [12.950758, 50.570318], [12.949237, 50.567746], [12.941965, 50.562703], [12.941189, 50.563052], [12.93971, 50.55977], [12.936857, 50.554661], [12.93259, 50.549213], [12.930653, 50.548955], [12.92488, 50.554031], [12.924477, 50.554162], [12.923673, 50.554366], [12.919342, 50.556502], [12.915739, 50.561365], [12.915632, 50.561496], [12.915107, 50.561718], [12.913954, 50.56221], [12.9074, 50.563988], [12.902491, 50.564585], [12.899136, 50.565891], [12.894303, 50.569778], [12.891605, 50.571718], [12.88495, 50.571106], [12.883132, 50.567999], [12.887026, 50.563804], [12.895333, 50.560778], [12.897443, 50.559679], [12.899553, 50.558581], [12.901909, 50.551836], [12.894629, 50.54794], [12.891287, 50.552061], [12.89022, 50.553113], [12.887019, 50.551468], [12.883131, 50.543356], [12.881271, 50.543446], [12.877714, 50.543801], [12.877064, 50.543906], [12.876832, 50.543906], [12.876335, 50.543872], [12.876256, 50.543867], [12.876144, 50.543798], [12.874649, 50.542335], [12.870335, 50.538117], [12.869982, 50.537931], [12.868951, 50.537297], [12.860657, 50.538635], [12.857358, 50.538369], [12.851098, 50.535479], [12.850719, 50.535481], [12.850032, 50.535438], [12.847387, 50.535633], [12.844244, 50.535779], [12.84053, 50.543444], [12.843155, 50.545357], [12.841885, 50.548726], [12.837096, 50.548449], [12.836876, 50.548432], [12.83269, 50.545636], [12.828153, 50.544508], [12.828105, 50.544465], [12.82294, 50.539041], [12.817642, 50.533771], [12.811846, 50.533443], [12.806551, 50.539222], [12.805959, 50.542773], [12.799654, 50.54355], [12.796116, 50.545613], [12.792762, 50.547204], [12.790314, 50.547393], [12.789574, 50.547372], [12.787465, 50.547157], [12.786016, 50.546904], [12.784296, 50.545795], [12.776538, 50.545992], [12.776257, 50.546054], [12.768655, 50.550036], [12.768235, 50.550265], [12.767163, 50.550141], [12.76687, 50.550047], [12.766586, 50.549769], [12.766511, 50.547104], [12.767922, 50.545913], [12.765013, 50.538039], [12.764091, 50.537837], [12.763306, 50.537789], [12.757701, 50.540358], [12.754111, 50.540618], [12.752611, 50.536014], [12.753251, 50.532471], [12.749789, 50.526924], [12.741098, 50.52821], [12.740314, 50.529375], [12.739281, 50.533295], [12.73915, 50.533936], [12.738855, 50.534673], [12.738241, 50.536016], [12.737693, 50.537107], [12.734476, 50.535492], [12.728341, 50.533192], [12.727228, 50.531646], [12.720268, 50.527286], [12.714234, 50.530869], [12.712363, 50.533944], [12.704824, 50.534936], [12.697945, 50.536909], [12.694016, 50.53676], [12.691735, 50.535739], [12.691723, 50.53571], [12.692503, 50.533493], [12.692645, 50.533427], [12.69549, 50.532318], [12.702794, 50.52881], [12.704134, 50.527387], [12.705452, 50.525987], [12.706677, 50.524677], [12.703732, 50.517066], [12.700485, 50.515512], [12.695122, 50.50869], [12.69155, 50.509704], [12.68795, 50.509643], [12.680436, 50.507182], [12.6778, 50.507974], [12.674423, 50.508827], [12.673949, 50.508754], [12.673702, 50.508691], [12.671785, 50.508131], [12.672793, 50.504675], [12.676765, 50.504526], [12.679401, 50.503734], [12.680088, 50.503576], [12.683035, 50.503409], [12.685674, 50.503283], [12.689944, 50.503095], [12.694207, 50.502908], [12.698539, 50.49558], [12.697981, 50.494729], [12.69268, 50.492213], [12.690659, 50.492132], [12.688911, 50.492042], [12.688707, 50.492059], [12.68599, 50.492582], [12.683498, 50.493042], [12.676016, 50.491041], [12.675126, 50.491095], [12.673665, 50.491402], [12.670608, 50.492742], [12.669599, 50.49304], [12.668844, 50.493088], [12.663245, 50.49463], [12.662737, 50.494973], [12.662311, 50.495157], [12.661546, 50.49539], [12.65711, 50.497771], [12.656148, 50.498603], [12.656023, 50.498696], [12.653022, 50.500671], [12.652769, 50.500833], [12.651088, 50.500678], [12.651019, 50.500629], [12.647192, 50.497711], [12.64248, 50.490216], [12.635005, 50.493194], [12.634478, 50.494149], [12.633714, 50.499355], [12.635197, 50.502636], [12.640364, 50.506146], [12.64338, 50.508113], [12.643386, 50.508692], [12.643396, 50.509485], [12.643097, 50.509948], [12.641891, 50.512126], [12.64168, 50.51257], [12.641378, 50.512975], [12.64106, 50.513282], [12.641299, 50.521744], [12.642058, 50.522249], [12.642352, 50.522503], [12.642711, 50.5229], [12.647262, 50.526412], [12.648133, 50.526942], [12.648508, 50.527161], [12.648361, 50.529182], [12.646696, 50.530271], [12.64313, 50.528958], [12.642773, 50.528822], [12.642405, 50.528644], [12.642131, 50.528491], [12.641602, 50.528116], [12.641142, 50.527693], [12.640696, 50.527135], [12.637446, 50.524391], [12.633369, 50.522827], [12.630584, 50.520546], [12.622803, 50.519553], [12.624229, 50.527616], [12.624135, 50.528562], [12.623795, 50.530256], [12.624427, 50.538013], [12.624406, 50.538389], [12.623954, 50.539573], [12.622732, 50.541478], [12.622245, 50.541502], [12.620373, 50.539942], [12.618903, 50.538823], [12.618753, 50.535264], [12.61876, 50.534647], [12.618842, 50.533976], [12.613599, 50.527066], [12.607921, 50.530371], [12.607619, 50.530834], [12.606664, 50.532273], [12.604174, 50.535635], [12.603554, 50.538471], [12.60205, 50.540865], [12.594794, 50.544146], [12.592081, 50.547076], [12.588663, 50.545946], [12.589206, 50.544303], [12.589365, 50.543919], [12.589684, 50.543398], [12.592805, 50.536183], [12.593978, 50.532154], [12.594569, 50.531881], [12.594952, 50.531786], [12.595264, 50.531748], [12.597792, 50.531198], [12.602576, 50.526254], [12.601601, 50.521886], [12.597946, 50.519155], [12.594927, 50.517193], [12.592003, 50.509116], [12.588089, 50.50668], [12.579623, 50.504315], [12.574689, 50.505676], [12.574179, 50.505426], [12.568197, 50.504496], [12.564491, 50.506137], [12.557987, 50.509232], [12.55732, 50.509514], [12.556787, 50.509626], [12.55548, 50.509916], [12.555111, 50.50998], [12.554724, 50.510008], [12.553513, 50.509975], [12.550824, 50.509859], [12.550261, 50.509774], [12.549897, 50.509675], [12.549622, 50.509575], [12.541032, 50.509384], [12.536078, 50.512155], [12.534789, 50.512721], [12.532975, 50.509612], [12.533376, 50.504864], [12.534218, 50.501363], [12.535156, 50.501589], [12.536403, 50.501779], [12.53765, 50.50237], [12.538152, 50.502595], [12.539836, 50.503013], [12.545584, 50.496693], [12.547346, 50.494957], [12.548808, 50.494049], [12.551329, 50.492256], [12.554802, 50.493826], [12.556548, 50.495271], [12.556992, 50.495767], [12.564048, 50.500115], [12.564885, 50.500181], [12.565653, 50.500298], [12.569555, 50.50047], [12.570332, 50.500367], [12.570844, 50.500335], [12.57138, 50.500331], [12.571993, 50.500366], [12.572728, 50.500474], [12.575515, 50.491994], [12.575266, 50.4916], [12.57498, 50.490983], [12.574658, 50.489702], [12.574752, 50.488796], [12.575037, 50.487324], [12.576685, 50.486195], [12.579856, 50.486057], [12.586543, 50.491477], [12.588567, 50.488535], [12.591998, 50.484475], [12.592265, 50.483655], [12.592482, 50.483323], [12.59653, 50.483966], [12.597634, 50.483684], [12.601332, 50.480517], [12.602422, 50.479261], [12.604079, 50.477727], [12.605209, 50.476308], [12.605492, 50.475936], [12.606725, 50.472986], [12.607117, 50.472784], [12.608066, 50.472277], [12.609007, 50.471914], [12.614278, 50.467082], [12.609427, 50.461398], [12.607197, 50.461352], [12.604167, 50.461267], [12.598115, 50.464657], [12.597483, 50.467981], [12.596701, 50.47018], [12.593739, 50.472263], [12.58735, 50.472442], [12.58391, 50.473332], [12.583892, 50.473326], [12.577202, 50.469574], [12.574855, 50.470445], [12.572861, 50.471156], [12.571623, 50.471836], [12.571225, 50.472079], [12.570591, 50.472505], [12.568237, 50.473963], [12.562233, 50.468395], [12.561527, 50.467846], [12.560796, 50.467288], [12.559476, 50.466446], [12.558446, 50.465932], [12.557558, 50.465378], [12.556973, 50.465039], [12.556544, 50.464705], [12.556015, 50.463891], [12.555886, 50.463127], [12.55595, 50.462518], [12.551171, 50.455457], [12.54786, 50.456608], [12.544546, 50.457759], [12.542423, 50.458491], [12.538737, 50.461004], [12.538067, 50.461422], [12.5376, 50.461588], [12.536774, 50.461747], [12.535533, 50.462014], [12.531223, 50.465708], [12.530623, 50.469258], [12.534882, 50.474542], [12.535336, 50.474729], [12.536067, 50.475269], [12.543986, 50.479381], [12.543994, 50.479507], [12.543982, 50.479897], [12.543495, 50.483143], [12.542719, 50.484646], [12.540716, 50.484841], [12.53899, 50.484893], [12.536273, 50.485595], [12.534698, 50.486435], [12.533565, 50.48636], [12.532842, 50.486181], [12.525152, 50.488261], [12.524443, 50.489829], [12.524138, 50.490069], [12.52167, 50.489174], [12.513946, 50.488807], [12.51167, 50.492668], [12.507954, 50.492618], [12.504832, 50.491369], [12.504075, 50.490988], [12.500974, 50.489159], [12.500778, 50.48348], [12.499712, 50.47954], [12.499533, 50.474472], [12.493071, 50.4683], [12.487633, 50.466439], [12.487587, 50.466368], [12.487341, 50.465788], [12.487507, 50.464537], [12.488154, 50.459883], [12.490051, 50.457512], [12.490267, 50.457504], [12.491116, 50.457838], [12.491258, 50.458044], [12.497594, 50.463724], [12.505328, 50.464094], [12.505865, 50.463976], [12.506361, 50.463916], [12.506898, 50.463904], [12.507202, 50.46392], [12.507777, 50.464012], [12.508281, 50.464153], [12.508921, 50.464394], [12.509294, 50.464562], [12.509675, 50.464783], [12.516281, 50.458742], [12.516038, 50.456881], [12.516926, 50.453393], [12.519176, 50.45358], [12.524104, 50.447244], [12.521579, 50.444679], [12.518403, 50.439462], [12.512972, 50.437657], [12.51005, 50.434655], [12.510023, 50.433933], [12.510292, 50.432895], [12.510961, 50.42538], [12.51203, 50.421943], [12.515914, 50.414449], [12.510883, 50.407437], [12.508488, 50.404749], [12.50737, 50.403794], [12.505999, 50.403024], [12.504904, 50.402489], [12.501043, 50.402134], [12.497175, 50.409823], [12.49758, 50.410666], [12.498116, 50.411584], [12.495008, 50.413401], [12.491798, 50.41288], [12.485419, 50.415538], [12.483625, 50.418311], [12.482775, 50.418912], [12.481947, 50.419222], [12.479299, 50.419877], [12.474241, 50.426508], [12.475467, 50.429155], [12.474953, 50.430037], [12.4717, 50.432915], [12.467803, 50.433421], [12.466981, 50.433493], [12.465154, 50.433595], [12.464135, 50.430142], [12.469378, 50.424796], [12.470555, 50.422182], [12.471568, 50.419945], [12.471829, 50.419256], [12.472279, 50.418575], [12.473024, 50.417938], [12.473836, 50.417543], [12.475706, 50.408861], [12.47505, 50.405321], [12.477368, 50.402894], [12.477949, 50.402259], [12.481987, 50.394648], [12.481819, 50.394029], [12.478178, 50.388929], [12.476592, 50.387042], [12.473896, 50.381692], [12.468726, 50.382087], [12.46847, 50.382211], [12.460517, 50.386416], [12.458537, 50.386685], [12.457032, 50.386896], [12.448661, 50.388372], [12.442922, 50.393677], [12.441597, 50.395678], [12.435839, 50.397863], [12.429629, 50.403566], [12.429059, 50.403741], [12.428651, 50.403828], [12.422188, 50.406302], [12.420008, 50.407776], [12.415562, 50.411073], [12.41514, 50.411405], [12.41462, 50.411688], [12.414255, 50.411825], [12.413823, 50.411944], [12.41337, 50.412025], [12.408764, 50.412657], [12.406659, 50.409737], [12.406839, 50.409607], [12.407364, 50.409326], [12.412001, 50.405736], [12.415015, 50.403768], [12.41683, 50.394985], [12.416556, 50.394742], [12.416204, 50.39144], [12.416912, 50.39015], [12.417313, 50.389516], [12.418347, 50.387069], [12.418678, 50.386841], [12.419501, 50.386621], [12.420344, 50.386716], [12.420901, 50.386942], [12.421354, 50.387271], [12.429722, 50.384033], [12.429895, 50.383464], [12.430736, 50.382437], [12.431161, 50.382015], [12.431665, 50.381659], [12.432249, 50.381438], [12.432969, 50.381367], [12.433502, 50.381447], [12.436389, 50.381778], [12.438481, 50.381648], [12.443379, 50.382137], [12.447037, 50.381739], [12.451347, 50.376646], [12.452424, 50.375475], [12.452717, 50.375201], [12.458, 50.372576], [12.455593, 50.36521], [12.453989, 50.364173], [12.446981, 50.362517], [12.445933, 50.362931], [12.445112, 50.363089], [12.438423, 50.357965], [12.436184, 50.357494], [12.428081, 50.356918], [12.426146, 50.357879], [12.421455, 50.361516], [12.421164, 50.361782], [12.420888, 50.361988], [12.419958, 50.362608], [12.419597, 50.362814], [12.419227, 50.362983], [12.418896, 50.363103], [12.416472, 50.364211], [12.416115, 50.364395], [12.415648, 50.364556], [12.415061, 50.364666], [12.41427, 50.36472], [12.413477, 50.364817], [12.412296, 50.365004], [12.411416, 50.365181], [12.410996, 50.365238], [12.410325, 50.365274], [12.409361, 50.365237], [12.408829, 50.365269], [12.405834, 50.365572], [12.403221, 50.37347], [12.405738, 50.376044], [12.406201, 50.378556], [12.405501, 50.382087], [12.402053, 50.381404], [12.397984, 50.387359], [12.397288, 50.390891], [12.396129, 50.391067], [12.392552, 50.391473], [12.385032, 50.391775], [12.3778, 50.390084], [12.374643, 50.391814], [12.371244, 50.392276], [12.364797, 50.39405], [12.363415, 50.394004], [12.355727, 50.394992], [12.350693, 50.394204], [12.347619, 50.392135], [12.347223, 50.389376], [12.348626, 50.387445], [12.349462, 50.386962], [12.349895, 50.386753], [12.350424, 50.386573], [12.351717, 50.38627], [12.358175, 50.388798], [12.362532, 50.382711], [12.363757, 50.382988], [12.370424, 50.377555], [12.370682, 50.375907], [12.371413, 50.373186], [12.371462, 50.373163], [12.372739, 50.372953], [12.378186, 50.367844], [12.378216, 50.364858], [12.373391, 50.357861], [12.369803, 50.358405], [12.368869, 50.35678], [12.368199, 50.355182], [12.363718, 50.348216], [12.361117, 50.339734], [12.360692, 50.339627], [12.360239, 50.339463], [12.35974, 50.339192], [12.359406, 50.338934], [12.359028, 50.338528], [12.356404, 50.336138], [12.357486, 50.332705], [12.357872, 50.332826], [12.358197, 50.33295], [12.358923, 50.333325], [12.360533, 50.33437], [12.360849, 50.334536], [12.361281, 50.334851], [12.365131, 50.336817], [12.369567, 50.337297], [12.373115, 50.336688], [12.376913, 50.335052], [12.377557, 50.326233], [12.374956, 50.323744], [12.374149, 50.321811], [12.374249, 50.320883], [12.37447, 50.31772], [12.367322, 50.31418], [12.366938, 50.314288], [12.366838, 50.314311], [12.365886, 50.314526], [12.36526, 50.314635], [12.36045, 50.317416], [12.358114, 50.317988], [12.355001, 50.31408], [12.347743, 50.318477], [12.346672, 50.321064], [12.346335, 50.321172], [12.346073, 50.32123], [12.345384, 50.321196], [12.336551, 50.319994], [12.329027, 50.315418], [12.328591, 50.315505], [12.325434, 50.314107], [12.317591, 50.316304], [12.311472, 50.316977], [12.311378, 50.316993], [12.309283, 50.315585], [12.302341, 50.312916], [12.294689, 50.312895], [12.29231, 50.31349], [12.290167, 50.310598], [12.2832, 50.307428], [12.279214, 50.310563], [12.276093, 50.31219], [12.274611, 50.312598], [12.2698, 50.312814], [12.269411, 50.312811], [12.269183, 50.312797], [12.268601, 50.31264], [12.25998, 50.314891], [12.258263, 50.318033], [12.257313, 50.320482], [12.257262, 50.320484], [12.255268, 50.32003], [12.253498, 50.319284], [12.250749, 50.31784], [12.247496, 50.31206], [12.239254, 50.314675], [12.236832, 50.317338], [12.236507, 50.317042], [12.235467, 50.315959], [12.226953, 50.313218], [12.225005, 50.310191], [12.226336, 50.308089], [12.23001, 50.305845], [12.231277, 50.304972], [12.231557, 50.304802], [12.23593, 50.304659], [12.237082, 50.3044], [12.23798, 50.30407], [12.238616, 50.303912], [12.23961, 50.303639], [12.240861, 50.303195], [12.244743, 50.295553], [12.241604, 50.291807], [12.240219, 50.290795], [12.239763, 50.290365], [12.238244, 50.288208], [12.236907, 50.286248], [12.236708, 50.285898], [12.236539, 50.281082], [12.236945, 50.277505], [12.239055, 50.277251], [12.24253, 50.275565], [12.243242, 50.275263], [12.243701, 50.275021], [12.245069, 50.274227], [12.245435, 50.274044], [12.247795, 50.270687], [12.242382, 50.265446], [12.239089, 50.264039], [12.230724, 50.266031], [12.230498, 50.26609], [12.229771, 50.266308], [12.22768, 50.264633], [12.221516, 50.261821], [12.221135, 50.261621], [12.22069, 50.26127], [12.214919, 50.258434], [12.21217, 50.258063], [12.211611, 50.25802], [12.210522, 50.2579], [12.210039, 50.257814], [12.205915, 50.257572], [12.202079, 50.257824], [12.198458, 50.257825], [12.198008, 50.257884], [12.197623, 50.25788], [12.196884, 50.257798], [12.19577, 50.256024], [12.195587, 50.255406], [12.193453, 50.251943], [12.193056, 50.251632], [12.192822, 50.251415], [12.183996, 50.249762], [12.182782, 50.251025], [12.184012, 50.259202], [12.185628, 50.260235], [12.186755, 50.260991], [12.187174, 50.261315], [12.187664, 50.261747], [12.188094, 50.262174], [12.19049, 50.264768], [12.191102, 50.265482], [12.192826, 50.267371], [12.19417, 50.268568], [12.196657, 50.27057], [12.195352, 50.273925], [12.19304, 50.274124], [12.187552, 50.279318], [12.187401, 50.282721], [12.187221, 50.286317], [12.193323, 50.292371], [12.194778, 50.294735], [12.194753, 50.294809], [12.192947, 50.295951], [12.191274, 50.304507], [12.189677, 50.304956], [12.189285, 50.305052], [12.18567, 50.306188], [12.184911, 50.306143], [12.17812, 50.308311], [12.175817, 50.311335], [12.175618, 50.311431], [12.170425, 50.318751], [12.169704, 50.322279], [12.166974, 50.324832], [12.160247, 50.325311], [12.159529, 50.321783], [12.161093, 50.321465], [12.164791, 50.317471], [12.15924, 50.311515], [12.156806, 50.311618], [12.156294, 50.311585], [12.155699, 50.311496], [12.154305, 50.311146], [12.15414, 50.311109], [12.153194, 50.310968], [12.151463, 50.310771], [12.150763, 50.310658], [12.142818, 50.308328], [12.14188, 50.308229], [12.139574, 50.304422], [12.13899, 50.30087], [12.143857, 50.296025], [12.144941, 50.296141], [12.14557, 50.296182], [12.145954, 50.296243], [12.146428, 50.296398], [12.151557, 50.298085], [12.152439, 50.298077], [12.153717, 50.298221], [12.15459, 50.298357], [12.156006, 50.298544], [12.160376, 50.29768], [12.160818, 50.297381], [12.161966, 50.288538], [12.160946, 50.287619], [12.160752, 50.287386], [12.156572, 50.284096], [12.156518, 50.283937], [12.15619, 50.282738], [12.149966, 50.276836], [12.149351, 50.276803], [12.148326, 50.276502], [12.146039, 50.275652], [12.145504, 50.27546], [12.145002, 50.275139], [12.144711, 50.274871], [12.145362, 50.27318], [12.143528, 50.26462], [12.140833, 50.262237], [12.138324, 50.257109], [12.137729, 50.256418], [12.137273, 50.255937], [12.136969, 50.255487], [12.13668, 50.254746], [12.136614, 50.254383], [12.136591, 50.254271], [12.130179, 50.249987], [12.12759, 50.251298], [12.125533, 50.25157], [12.124922, 50.251684], [12.123458, 50.25198], [12.122998, 50.25206], [12.120534, 50.252734], [12.116972, 50.260694], [12.113518, 50.261805], [12.112536, 50.260811], [12.111489, 50.259763], [12.10903, 50.257516], [12.106757, 50.25542], [12.10769, 50.253827], [12.10891, 50.250939], [12.11067, 50.249827], [12.112672, 50.248534], [12.115234, 50.246907], [12.117673, 50.245359], [12.11465, 50.237001], [12.113396, 50.23696], [12.111568, 50.236896], [12.110442, 50.236889], [12.109766, 50.23692], [12.108993, 50.236986], [12.108347, 50.237072], [12.104113, 50.239646], [12.102466, 50.242321], [12.099401, 50.240433], [12.101048, 50.237758], [12.102695, 50.235083], [12.106859, 50.230937], [12.110304, 50.229892], [12.112374, 50.228703], [12.114839, 50.22338], [12.11835, 50.222581], [12.120876, 50.22308], [12.121584, 50.223082], [12.122237, 50.223148], [12.126012, 50.215007], [12.124621, 50.214279], [12.122177, 50.21321], [12.121534, 50.21286], [12.118346, 50.212244], [12.117849, 50.212309], [12.115999, 50.212397], [12.115128, 50.212452], [12.113243, 50.212686], [12.111214, 50.212933], [12.106624, 50.217941], [12.101687, 50.217699], [12.100301, 50.217808], [12.099839, 50.217901], [12.093756, 50.217423], [12.091153, 50.221769], [12.090957, 50.222528], [12.090751, 50.222985], [12.089507, 50.227731], [12.089448, 50.230094], [12.085349, 50.23804], [12.085839, 50.241606], [12.084198, 50.246103], [12.082261, 50.245827], [12.080324, 50.24555], [12.07981, 50.245444], [12.075377, 50.245146], [12.071186, 50.245914], [12.070879, 50.245843], [12.067679, 50.245288], [12.066756, 50.24522], [12.06155, 50.246894], [12.059352, 50.251026], [12.058574, 50.252078], [12.061171, 50.260526], [12.059396, 50.268384], [12.059354, 50.268521], [12.058829, 50.26962], [12.057916, 50.270625], [12.053555, 50.277465], [12.05218, 50.277903], [12.04997, 50.277799], [12.044918, 50.273316], [12.044021, 50.26983], [12.036553, 50.269821], [12.035842, 50.270378], [12.035307, 50.270624], [12.034789, 50.270764], [12.028412, 50.273675], [12.027905, 50.274122], [12.02743, 50.274567], [12.026598, 50.275447], [12.023694, 50.28323], [12.023719, 50.284131], [12.023756, 50.284599], [12.023919, 50.285802], [12.024235, 50.287231], [12.024751, 50.288725], [12.02515, 50.289636], [12.025612, 50.290581], [12.026225, 50.291752], [12.026832, 50.292778], [12.027709, 50.294356], [12.028046, 50.294981], [12.028472, 50.295871], [12.028889, 50.296936], [12.029129, 50.297794], [12.029295, 50.298738], [12.029348, 50.299878], [12.029259, 50.300772], [12.029116, 50.301497], [12.028731, 50.302652], [12.028473, 50.303191], [12.028042, 50.303988], [12.024742, 50.311779], [12.021451, 50.311986], [12.021167, 50.311356]]], "type": "Polygon"}}], "metadata": {"attribution": "openrouteservice.org | OpenStreetMap contributors", "service": "isochrones", "timestamp": 1785652309746, "query": {"profile": "driving-car", "profileName": "driving-car", "locations": [[12.871, 50.2324]], "range": [3600.0], "range_type": "time"}, "engine": {"version": "9.9.0", "build_date": "2026-06-12T10:08:58Z", "graph_date": "2026-07-26T12:04:00Z", "osm_date": "2026-07-20T00:00:00Z"}}}