{"type": "FeatureCollection", "bbox": [17.106622, 49.238139, 19.096667, 50.037448], "features": [{"type": "Feature", "properties": {"group_index": 0, "value": 3600.0, "center": [18.135163402420595, 49.588751959846924]}, "geometry": {"coordinates": [[[17.106622, 49.658505], [17.108944, 49.657167], [17.111266, 49.655829], [17.114038, 49.654232], [17.11681, 49.652635], [17.119583, 49.651037], [17.122355, 49.64944], [17.124315, 49.648308], [17.126277, 49.647174], [17.128239, 49.646041], [17.130201, 49.644907], [17.136432, 49.64035], [17.137266, 49.639712], [17.138093, 49.639113], [17.140459, 49.637653], [17.141184, 49.637264], [17.142051, 49.636837], [17.142984, 49.636405], [17.143841, 49.636035], [17.147055, 49.63474], [17.148998, 49.633934], [17.149881, 49.633552], [17.150927, 49.633076], [17.152035, 49.632542], [17.154322, 49.63138], [17.155854, 49.623674], [17.158115, 49.620872], [17.159691, 49.622144], [17.161267, 49.623416], [17.168097, 49.624217], [17.170713, 49.622656], [17.173328, 49.621263], [17.175943, 49.61987], [17.178558, 49.618477], [17.179046, 49.618197], [17.185475, 49.612329], [17.18672, 49.610209], [17.187277, 49.609375], [17.188292, 49.608102], [17.188826, 49.607515], [17.189845, 49.606517], [17.194738, 49.599629], [17.19511, 49.599014], [17.196734, 49.593668], [17.196922, 49.592711], [17.197207, 49.591744], [17.197458, 49.591092], [17.197915, 49.590133], [17.198434, 49.589253], [17.199024, 49.588414], [17.199394, 49.587954], [17.200021, 49.587256], [17.201037, 49.586261], [17.201352, 49.577679], [17.198033, 49.576285], [17.198007, 49.576171], [17.194237, 49.570108], [17.186519, 49.574086], [17.185092, 49.577477], [17.18455, 49.578949], [17.182787, 49.580653], [17.18278, 49.580653], [17.180848, 49.579212], [17.175247, 49.57371], [17.173383, 49.572338], [17.172784, 49.570424], [17.173016, 49.569951], [17.173052, 49.569902], [17.176034, 49.5669], [17.177201, 49.566777], [17.177254, 49.566789], [17.182561, 49.566865], [17.187532, 49.562743], [17.185505, 49.556066], [17.184572, 49.555459], [17.183682, 49.554837], [17.182748, 49.554137], [17.18184, 49.553409], [17.180845, 49.55252], [17.180114, 49.55182], [17.178834, 49.550447], [17.17798, 49.549378], [17.177342, 49.548489], [17.17672, 49.547549], [17.176098, 49.546516], [17.17558, 49.545576], [17.171323, 49.541858], [17.164171, 49.543171], [17.162205, 49.544844], [17.160231, 49.546523], [17.158623, 49.547873], [17.156307, 49.545117], [17.156189, 49.538054], [17.154939, 49.535947], [17.154945, 49.535859], [17.155525, 49.527416], [17.154173, 49.526443], [17.153354, 49.525781], [17.152663, 49.525146], [17.151898, 49.524346], [17.151144, 49.523417], [17.150547, 49.522548], [17.150132, 49.521837], [17.149712, 49.521018], [17.148838, 49.519176], [17.147954, 49.517312], [17.146868, 49.514944], [17.143049, 49.508125], [17.141885, 49.506446], [17.144843, 49.504395], [17.146007, 49.506073], [17.147171, 49.507751], [17.147853, 49.508852], [17.148435, 49.509869], [17.149019, 49.511003], [17.15014, 49.513443], [17.151227, 49.515811], [17.152091, 49.517632], [17.152965, 49.519475], [17.159198, 49.525318], [17.159812, 49.525605], [17.160425, 49.525871], [17.161443, 49.526252], [17.161994, 49.526437], [17.163405, 49.526846], [17.164161, 49.527028], [17.167479, 49.527765], [17.175227, 49.527371], [17.181618, 49.526357], [17.183895, 49.524166], [17.18569, 49.522464], [17.187485, 49.520762], [17.195358, 49.517398], [17.196056, 49.513866], [17.199641, 49.512721], [17.201804, 49.512718], [17.203236, 49.512914], [17.206557, 49.517026], [17.212763, 49.515445], [17.215171, 49.516421], [17.219833, 49.521744], [17.222569, 49.522497], [17.226594, 49.523579], [17.230629, 49.524663], [17.236797, 49.525853], [17.236397, 49.517344], [17.235837, 49.516751], [17.236183, 49.515458], [17.236483, 49.514837], [17.237128, 49.513818], [17.242173, 49.507233], [17.246395, 49.504017], [17.252597, 49.49954], [17.255102, 49.497437], [17.261715, 49.493165], [17.263561, 49.490072], [17.265384, 49.49014], [17.266171, 49.490465], [17.27008, 49.494014], [17.272147, 49.495732], [17.271976, 49.496002], [17.271551, 49.496658], [17.271138, 49.496907], [17.270774, 49.497142], [17.268594, 49.49862], [17.268187, 49.498912], [17.265879, 49.500639], [17.263744, 49.503252], [17.263153, 49.509672], [17.263799, 49.512777], [17.263302, 49.513464], [17.261449, 49.518898], [17.268574, 49.521892], [17.269878, 49.522588], [17.270451, 49.522954], [17.270906, 49.523309], [17.277216, 49.525302], [17.280079, 49.523994], [17.284375, 49.523465], [17.287387, 49.525436], [17.286645, 49.52657], [17.288561, 49.534354], [17.292337, 49.534442], [17.296185, 49.534533], [17.297978, 49.534603], [17.304653, 49.530354], [17.305258, 49.529108], [17.306379, 49.523393], [17.307712, 49.522874], [17.309094, 49.522311], [17.315506, 49.518603], [17.318017, 49.513858], [17.319552, 49.513024], [17.325268, 49.510219], [17.326281, 49.501329], [17.325442, 49.500675], [17.325969, 49.494963], [17.318387, 49.492493], [17.316999, 49.492025], [17.308429, 49.489776], [17.301564, 49.488549], [17.296769, 49.485463], [17.297439, 49.481926], [17.299606, 49.482336], [17.301773, 49.482747], [17.304575, 49.482526], [17.307138, 49.481686], [17.307831, 49.481336], [17.309608, 49.48291], [17.317153, 49.481882], [17.317985, 49.473809], [17.313223, 49.468281], [17.309347, 49.467907], [17.306167, 49.468036], [17.302134, 49.467725], [17.301359, 49.464209], [17.302902, 49.46387], [17.306371, 49.462804], [17.313569, 49.464697], [17.320654, 49.46222], [17.327868, 49.457492], [17.329182, 49.45515], [17.326758, 49.448095], [17.326252, 49.444531], [17.327623, 49.444336], [17.331869, 49.442243], [17.332351, 49.433476], [17.331167, 49.432904], [17.3301, 49.432265], [17.328066, 49.431062], [17.327679, 49.430903], [17.326809, 49.430254], [17.325136, 49.429389], [17.321437, 49.428338], [17.312938, 49.430942], [17.309364, 49.431373], [17.305513, 49.432466], [17.301926, 49.432163], [17.295657, 49.427679], [17.291175, 49.429941], [17.28833, 49.432556], [17.28809, 49.432546], [17.283215, 49.432896], [17.282931, 49.432941], [17.28216, 49.432569], [17.282015, 49.432447], [17.282367, 49.429386], [17.283744, 49.428086], [17.286067, 49.4204], [17.286335, 49.41681], [17.286623, 49.416832], [17.287605, 49.417254], [17.289223, 49.418903], [17.291684, 49.420231], [17.299262, 49.421213], [17.301554, 49.416413], [17.301554, 49.41606], [17.305154, 49.41606], [17.310681, 49.419548], [17.314672, 49.422864], [17.3209, 49.421929], [17.321406, 49.421779], [17.323562, 49.424662], [17.326119, 49.425926], [17.326716, 49.426075], [17.327651, 49.426242], [17.32982, 49.426468], [17.331592, 49.426556], [17.332226, 49.426588], [17.338192, 49.420119], [17.337354, 49.418975], [17.336117, 49.417229], [17.334358, 49.415049], [17.331951, 49.413536], [17.330996, 49.413188], [17.330379, 49.412813], [17.329667, 49.412472], [17.329251, 49.412216], [17.328617, 49.411839], [17.328275, 49.41165], [17.32772, 49.411393], [17.329237, 49.408128], [17.329837, 49.406976], [17.333434, 49.40712], [17.336153, 49.411525], [17.336597, 49.411904], [17.344558, 49.409427], [17.343717, 49.406155], [17.344126, 49.402579], [17.345368, 49.400711], [17.347119, 49.399298], [17.34729, 49.399313], [17.348952, 49.401053], [17.353934, 49.407103], [17.353735, 49.408257], [17.353124, 49.411129], [17.358323, 49.417699], [17.362856, 49.416248], [17.364912, 49.413466], [17.366029, 49.405159], [17.365563, 49.401589], [17.365483, 49.400227], [17.36545, 49.399433], [17.36527, 49.397205], [17.366379, 49.395334], [17.366845, 49.395269], [17.36874, 49.396244], [17.36883, 49.39657], [17.369045, 49.397904], [17.369866, 49.40145], [17.377846, 49.403079], [17.379068, 49.402451], [17.382026, 49.399626], [17.382772, 49.39878], [17.388358, 49.395469], [17.38843, 49.39544], [17.38936, 49.395337], [17.389384, 49.395342], [17.392625, 49.395776], [17.394224, 49.395888], [17.395444, 49.395887], [17.401359, 49.390237], [17.400711, 49.386696], [17.398731, 49.378994], [17.398513, 49.378508], [17.398057, 49.377619], [17.398347, 49.375707], [17.400562, 49.375034], [17.403256, 49.374156], [17.409441, 49.367861], [17.412976, 49.36718], [17.419803, 49.372133], [17.422074, 49.372248], [17.428829, 49.368823], [17.429655, 49.367737], [17.437434, 49.369433], [17.438323, 49.369238], [17.439041, 49.369142], [17.439815, 49.369084], [17.440229, 49.369082], [17.442872, 49.368641], [17.44598, 49.360763], [17.445648, 49.360073], [17.445237, 49.359032], [17.438662, 49.354851], [17.432343, 49.35208], [17.428812, 49.352782], [17.426631, 49.352759], [17.42321, 49.353002], [17.422589, 49.353019], [17.419543, 49.352921], [17.416511, 49.352824], [17.415048, 49.352789], [17.415135, 49.34919], [17.413897, 49.340638], [17.41205, 49.335973], [17.410971, 49.332539], [17.410058, 49.327282], [17.402842, 49.325021], [17.401975, 49.321527], [17.396698, 49.314562], [17.389407, 49.314658], [17.386204, 49.314633], [17.385161, 49.314609], [17.38403, 49.314544], [17.383383, 49.314485], [17.382161, 49.314331], [17.381081, 49.314145], [17.376893, 49.313869], [17.368575, 49.315611], [17.367672, 49.316173], [17.362652, 49.317722], [17.358977, 49.318409], [17.358378, 49.317379], [17.358001, 49.316778], [17.357904, 49.316522], [17.351475, 49.310494], [17.35012, 49.310879], [17.3495, 49.311095], [17.34833, 49.311531], [17.347147, 49.312068], [17.344451, 49.313471], [17.341728, 49.314889], [17.339651, 49.315924], [17.338527, 49.31645], [17.336652, 49.317283], [17.334957, 49.317991], [17.33357, 49.314669], [17.340121, 49.311667], [17.342789, 49.310278], [17.345484, 49.308875], [17.346837, 49.308255], [17.348232, 49.307726], [17.348931, 49.307481], [17.350484, 49.307033], [17.351223, 49.30684], [17.352721, 49.306526], [17.354242, 49.30628], [17.358798, 49.305983], [17.359652, 49.305999], [17.360484, 49.306033], [17.361193, 49.306084], [17.362451, 49.306202], [17.363199, 49.306298], [17.36395, 49.306416], [17.36534, 49.306671], [17.366157, 49.306851], [17.36858, 49.307436], [17.370414, 49.307882], [17.37807, 49.306661], [17.380919, 49.303095], [17.381704, 49.302273], [17.384054, 49.304259], [17.384307, 49.30476], [17.389436, 49.311058], [17.396516, 49.310967], [17.398755, 49.307867], [17.400216, 49.304883], [17.400824, 49.302004], [17.40142, 49.301747], [17.406408, 49.303041], [17.407019, 49.303271], [17.407057, 49.303285], [17.40759, 49.303499], [17.411479, 49.306144], [17.411489, 49.306164], [17.413572, 49.309101], [17.419234, 49.310768], [17.426905, 49.313572], [17.427387, 49.31477], [17.432806, 49.320088], [17.43494, 49.320607], [17.436638, 49.320797], [17.439803, 49.321366], [17.441345, 49.321658], [17.442881, 49.321972], [17.444645, 49.322374], [17.449437, 49.321337], [17.452406, 49.317322], [17.456105, 49.313999], [17.46209, 49.313206], [17.462275, 49.313199], [17.465735, 49.312529], [17.468741, 49.306719], [17.469941, 49.306863], [17.472358, 49.30708], [17.477548, 49.304906], [17.479236, 49.301043], [17.479325, 49.300943], [17.480884, 49.299219], [17.489512, 49.29705], [17.490022, 49.295958], [17.490582, 49.294966], [17.491189, 49.294032], [17.491917, 49.293057], [17.492663, 49.292167], [17.496851, 49.284706], [17.500149, 49.276961], [17.500417, 49.275794], [17.500739, 49.274602], [17.500944, 49.273942], [17.501534, 49.27231], [17.501902, 49.271404], [17.502386, 49.270372], [17.502946, 49.269265], [17.503908, 49.267648], [17.504575, 49.266614], [17.505711, 49.264946], [17.506593, 49.263699], [17.50766, 49.262171], [17.510985, 49.256838], [17.511701, 49.255505], [17.514694, 49.248569], [17.515337, 49.246773], [17.516253, 49.244035], [17.516957, 49.24197], [17.5177, 49.239803], [17.518168, 49.238676], [17.51844, 49.238139], [17.521652, 49.239764], [17.520365, 49.243132], [17.519661, 49.245197], [17.518752, 49.247914], [17.518084, 49.249782], [17.517429, 49.251613], [17.516637, 49.25352], [17.515827, 49.255302], [17.51492, 49.257116], [17.514156, 49.258541], [17.513719, 49.259329], [17.512637, 49.261179], [17.512124, 49.262001], [17.51064, 49.264192], [17.509545, 49.26576], [17.508649, 49.267025], [17.507552, 49.268639], [17.506933, 49.2696], [17.503658, 49.277763], [17.503074, 49.280767], [17.50273, 49.282368], [17.50251, 49.283245], [17.502264, 49.284053], [17.501823, 49.285276], [17.501273, 49.286531], [17.500923, 49.287232], [17.500409, 49.28812], [17.49957, 49.289479], [17.498983, 49.290307], [17.498399, 49.291067], [17.497753, 49.291845], [17.496879, 49.292848], [17.49535, 49.294563], [17.49468, 49.295366], [17.494078, 49.29618], [17.493606, 49.296919], [17.492339, 49.305269], [17.492869, 49.307294], [17.493036, 49.308118], [17.493151, 49.308878], [17.493602, 49.310981], [17.497259, 49.316794], [17.497918, 49.317475], [17.49883, 49.318304], [17.503267, 49.322026], [17.504436, 49.32262], [17.505009, 49.322899], [17.507574, 49.323614], [17.515145, 49.319482], [17.515139, 49.318603], [17.515134, 49.318299], [17.5146, 49.313085], [17.516894, 49.31031], [17.523645, 49.313877], [17.527148, 49.314707], [17.535702, 49.31458], [17.537332, 49.314041], [17.53854, 49.313711], [17.539743, 49.313408], [17.540686, 49.313191], [17.541761, 49.31297], [17.543427, 49.3127], [17.545546, 49.312455], [17.547455, 49.31234], [17.550365, 49.312217], [17.553224, 49.312096], [17.555448, 49.311915], [17.560745, 49.310921], [17.567105, 49.308504], [17.569183, 49.307405], [17.571347, 49.306264], [17.572909, 49.305545], [17.574517, 49.304903], [17.576125, 49.304369], [17.578182, 49.303802], [17.585015, 49.301202], [17.585476, 49.301047], [17.586004, 49.300936], [17.586734, 49.300877], [17.587263, 49.300903], [17.587754, 49.30098], [17.588208, 49.301101], [17.596878, 49.301275], [17.59795, 49.301002], [17.5987, 49.300784], [17.600125, 49.300319], [17.60128, 49.2999], [17.603189, 49.299119], [17.606029, 49.297899], [17.608868, 49.296679], [17.610289, 49.299987], [17.60745, 49.301207], [17.60461, 49.302427], [17.602642, 49.303233], [17.601356, 49.303702], [17.594578, 49.309263], [17.591327, 49.310808], [17.584125, 49.306452], [17.582203, 49.306619], [17.581265, 49.306789], [17.580117, 49.307031], [17.579046, 49.307297], [17.577082, 49.30784], [17.575657, 49.308318], [17.574249, 49.308886], [17.572857, 49.309532], [17.570866, 49.310588], [17.568788, 49.311686], [17.567675, 49.312242], [17.566681, 49.3127], [17.565595, 49.313145], [17.564463, 49.313556], [17.562675, 49.314121], [17.561707, 49.31439], [17.560646, 49.314665], [17.559701, 49.314881], [17.558951, 49.315029], [17.557987, 49.315201], [17.555934, 49.315482], [17.555093, 49.315572], [17.553477, 49.315687], [17.550017, 49.32307], [17.551052, 49.325189], [17.551078, 49.325249], [17.551048, 49.325367], [17.549613, 49.326647], [17.541874, 49.328152], [17.541389, 49.327746], [17.534266, 49.325545], [17.532135, 49.327179], [17.5317, 49.32769], [17.531357, 49.327961], [17.530027, 49.328844], [17.529217, 49.329427], [17.525261, 49.334129], [17.523678, 49.337037], [17.526914, 49.34441], [17.529158, 49.345075], [17.529402, 49.345563], [17.529085, 49.347281], [17.528721, 49.347557], [17.527009, 49.348843], [17.525301, 49.350126], [17.524622, 49.350865], [17.523439, 49.352607], [17.522228, 49.35439], [17.520312, 49.357202], [17.523026, 49.365302], [17.524853, 49.36511], [17.525215, 49.365051], [17.529101, 49.364957], [17.529866, 49.364678], [17.53057, 49.364657], [17.530804, 49.364696], [17.531993, 49.366973], [17.53198, 49.36701], [17.531227, 49.367862], [17.531071, 49.367976], [17.530215, 49.368247], [17.52628, 49.368488], [17.520482, 49.374412], [17.519159, 49.379735], [17.518434, 49.383399], [17.517671, 49.384533], [17.515802, 49.385856], [17.515438, 49.385466], [17.510453, 49.382352], [17.503661, 49.385455], [17.499849, 49.388462], [17.499612, 49.388484], [17.498688, 49.388407], [17.497889, 49.38827], [17.49755, 49.388195], [17.490752, 49.390099], [17.488441, 49.397363], [17.492862, 49.404228], [17.494973, 49.408875], [17.49531, 49.409382], [17.496076, 49.410387], [17.50277, 49.414796], [17.504199, 49.415043], [17.504907, 49.417569], [17.504034, 49.420202], [17.503105, 49.420686], [17.50225, 49.420192], [17.496427, 49.417719], [17.488858, 49.420018], [17.486405, 49.417383], [17.479371, 49.421696], [17.477745, 49.424908], [17.472877, 49.430883], [17.473434, 49.432946], [17.47328, 49.433359], [17.472623, 49.436724], [17.469589, 49.43654], [17.469351, 49.436555], [17.466449, 49.43752], [17.464165, 49.439672], [17.46508, 49.447037], [17.469704, 49.448301], [17.473225, 49.447315], [17.475326, 49.44603], [17.479144, 49.446003], [17.483842, 49.44218], [17.484907, 49.436805], [17.485554, 49.433264], [17.487534, 49.433626], [17.489513, 49.433987], [17.490507, 49.434287], [17.492934, 49.435631], [17.495009, 49.436821], [17.502347, 49.433809], [17.503517, 49.430405], [17.508359, 49.430111], [17.509446, 49.429615], [17.510676, 49.42913], [17.511798, 49.428753], [17.512874, 49.428465], [17.512987, 49.428437], [17.515935, 49.432106], [17.516231, 49.433469], [17.516262, 49.433602], [17.516763, 49.435511], [17.52192, 49.442624], [17.522759, 49.442759], [17.523942, 49.442925], [17.524588, 49.443052], [17.52521, 49.443222], [17.52937, 49.443639], [17.533633, 49.439568], [17.539081, 49.436572], [17.540322, 49.433193], [17.542615, 49.434034], [17.54367, 49.436386], [17.549606, 49.443079], [17.553068, 49.442304], [17.554762, 49.441682], [17.557477, 49.441293], [17.559967, 49.44235], [17.560518, 49.442581], [17.561172, 49.44299], [17.561729, 49.443509], [17.56307, 49.444967], [17.572006, 49.444139], [17.57221, 49.443429], [17.56931, 49.437549], [17.569328, 49.433949], [17.564083, 49.429615], [17.563509, 49.429535], [17.562382, 49.429301], [17.561684, 49.429127], [17.559316, 49.428734], [17.558941, 49.428715], [17.555847, 49.427717], [17.556229, 49.424137], [17.5572, 49.424241], [17.5583, 49.424419], [17.559296, 49.424638], [17.561486, 49.425276], [17.565253, 49.426059], [17.566593, 49.42619], [17.575245, 49.425134], [17.575762, 49.425031], [17.583154, 49.427347], [17.586435, 49.426235], [17.587254, 49.426343], [17.588278, 49.428796], [17.588343, 49.429046], [17.58694, 49.431173], [17.586294, 49.437077], [17.590668, 49.442799], [17.591486, 49.443374], [17.591666, 49.444768], [17.591742, 49.446034], [17.591691, 49.446538], [17.591671, 49.446672], [17.589429, 49.448491], [17.587906, 49.449306], [17.586613, 49.449656], [17.585519, 49.449835], [17.584965, 49.449953], [17.579404, 49.454205], [17.577078, 49.456952], [17.580397, 49.464187], [17.585618, 49.462473], [17.586754, 49.462487], [17.586861, 49.462502], [17.588655, 49.462813], [17.589756, 49.463468], [17.590162, 49.463823], [17.592573, 49.465854], [17.5932, 49.466677], [17.592964, 49.468599], [17.592343, 49.469158], [17.591809, 49.469428], [17.590065, 49.468736], [17.589525, 49.468598], [17.586717, 49.468246], [17.579401, 49.468766], [17.577518, 49.469868], [17.575703, 49.471137], [17.575384, 49.471319], [17.575104, 49.471463], [17.573979, 49.471765], [17.573051, 49.471907], [17.572305, 49.472073], [17.570709, 49.472548], [17.568085, 49.479999], [17.573998, 49.482114], [17.579875, 49.483051], [17.580744, 49.482928], [17.581475, 49.482924], [17.583547, 49.483106], [17.584351, 49.483123], [17.586513, 49.483584], [17.588384, 49.484004], [17.588976, 49.484193], [17.589137, 49.484247], [17.589867, 49.484615], [17.59588, 49.485625], [17.59879, 49.483098], [17.599336, 49.482165], [17.599726, 49.481546], [17.601206, 49.481491], [17.602865, 49.482454], [17.603332, 49.482927], [17.603966, 49.483884], [17.604142, 49.484314], [17.604285, 49.484635], [17.604533, 49.485236], [17.604251, 49.486111], [17.601366, 49.487166], [17.59942, 49.488017], [17.597308, 49.488929], [17.595411, 49.4896], [17.593037, 49.497003], [17.596965, 49.500816], [17.597165, 49.500904], [17.600538, 49.502428], [17.602327, 49.505502], [17.601385, 49.505789], [17.600217, 49.506331], [17.602619, 49.514957], [17.60296, 49.514958], [17.603426, 49.514993], [17.6052, 49.514813], [17.605728, 49.514638], [17.606583, 49.514426], [17.609438, 49.51303], [17.610032, 49.512447], [17.615675, 49.510227], [17.615781, 49.504526], [17.61344, 49.502334], [17.609898, 49.499144], [17.610042, 49.498989], [17.610843, 49.498379], [17.616378, 49.496617], [17.619764, 49.492973], [17.620511, 49.491293], [17.621117, 49.490127], [17.623103, 49.48576], [17.620025, 49.478561], [17.617706, 49.477325], [17.616868, 49.476764], [17.61475, 49.475193], [17.614196, 49.474109], [17.614401, 49.472846], [17.611898, 49.465575], [17.60748, 49.464501], [17.605041, 49.463366], [17.602583, 49.458631], [17.601513, 49.457586], [17.600564, 49.456627], [17.599554, 49.455171], [17.599191, 49.454649], [17.600194, 49.452537], [17.600515, 49.452408], [17.602148, 49.452596], [17.602511, 49.453118], [17.604005, 49.454988], [17.605232, 49.456193], [17.606554, 49.457463], [17.608502, 49.4593], [17.61032, 49.460738], [17.613617, 49.462514], [17.614347, 49.462744], [17.614929, 49.462965], [17.616981, 49.463672], [17.618294, 49.463935], [17.619157, 49.464037], [17.622123, 49.468289], [17.624942, 49.476443], [17.625579, 49.476791], [17.630123, 49.477393], [17.636751, 49.476295], [17.637404, 49.476095], [17.638105, 49.475954], [17.644205, 49.472121], [17.647028, 49.469888], [17.647166, 49.469926], [17.647678, 49.470475], [17.648011, 49.470968], [17.649964, 49.473172], [17.656804, 49.474767], [17.658112, 49.474669], [17.658508, 49.474659], [17.658946, 49.474682], [17.659689, 49.474818], [17.662003, 49.474972], [17.663178, 49.466321], [17.66184, 49.4656], [17.660103, 49.464704], [17.658268, 49.463754], [17.655221, 49.462575], [17.654686, 49.462288], [17.654052, 49.4618], [17.649768, 49.459513], [17.646191, 49.458684], [17.64299, 49.458179], [17.641407, 49.457907], [17.640581, 49.457779], [17.639969, 49.457651], [17.638619, 49.457276], [17.638043, 49.457164], [17.63671, 49.456956], [17.633454, 49.456405], [17.632615, 49.456174], [17.631782, 49.455867], [17.631363, 49.455665], [17.629029, 49.453166], [17.628648, 49.4525], [17.626968, 49.450489], [17.626194, 49.449748], [17.62566, 49.449322], [17.624282, 49.448084], [17.623279, 49.447267], [17.622387, 49.446596], [17.615526, 49.443404], [17.615085, 49.443337], [17.614499, 49.443174], [17.613838, 49.442829], [17.613377, 49.442432], [17.610397, 49.440444], [17.610024, 49.438261], [17.610864, 49.436874], [17.611946, 49.435833], [17.613288, 49.434888], [17.613561, 49.434739], [17.615554, 49.434917], [17.615624, 49.435005], [17.615955, 49.435659], [17.620503, 49.439956], [17.626158, 49.436072], [17.627998, 49.43697], [17.628282, 49.437084], [17.631188, 49.438116], [17.634178, 49.439182], [17.634515, 49.439327], [17.63585, 49.439832], [17.638026, 49.440544], [17.645662, 49.435981], [17.645946, 49.435321], [17.646941, 49.428019], [17.647668, 49.426232], [17.647979, 49.425721], [17.648439, 49.425241], [17.649128, 49.42516], [17.652038, 49.425256], [17.655126, 49.426933], [17.657759, 49.427396], [17.664517, 49.425901], [17.664834, 49.425781], [17.667845, 49.417301], [17.666604, 49.415402], [17.665743, 49.414378], [17.659018, 49.411], [17.658336, 49.409908], [17.65723, 49.407875], [17.658684, 49.407043], [17.66019, 49.406006], [17.664787, 49.398704], [17.664864, 49.397496], [17.664986, 49.397448], [17.666753, 49.397026], [17.667114, 49.396993], [17.669612, 49.397063], [17.67547, 49.397938], [17.680733, 49.400911], [17.682205, 49.401549], [17.686532, 49.405104], [17.689142, 49.407584], [17.695726, 49.41244], [17.697161, 49.411761], [17.697608, 49.411596], [17.697989, 49.411496], [17.700668, 49.410934], [17.703078, 49.410432], [17.707095, 49.408014], [17.706579, 49.401932], [17.705945, 49.401292], [17.708504, 49.398759], [17.710381, 49.400093], [17.711406, 49.400727], [17.712374, 49.401928], [17.717112, 49.404563], [17.719367, 49.406246], [17.720504, 49.409662], [17.725587, 49.416605], [17.726796, 49.416948], [17.727395, 49.417178], [17.730342, 49.418079], [17.737362, 49.417126], [17.737813, 49.408771], [17.732622, 49.401838], [17.732002, 49.401698], [17.731614, 49.40154], [17.730795, 49.401159], [17.728356, 49.400524], [17.725553, 49.398559], [17.725648, 49.39833], [17.726869, 49.397246], [17.7283, 49.396958], [17.72935, 49.396904], [17.730111, 49.396989], [17.735553, 49.398272], [17.741037, 49.398877], [17.745287, 49.401201], [17.746163, 49.401602], [17.754341, 49.400375], [17.754794, 49.400528], [17.757774, 49.401459], [17.761202, 49.405107], [17.761874, 49.406426], [17.768261, 49.411173], [17.770323, 49.411234], [17.771447, 49.411344], [17.77375, 49.411417], [17.78072, 49.409324], [17.781711, 49.408802], [17.78316, 49.408057], [17.783491, 49.407915], [17.792254, 49.4064], [17.792699, 49.406085], [17.794846, 49.408906], [17.796951, 49.413503], [17.805575, 49.414418], [17.806069, 49.413979], [17.806633, 49.413576], [17.809572, 49.408557], [17.805908, 49.403537], [17.804466, 49.400239], [17.805137, 49.399884], [17.805701, 49.399581], [17.807763, 49.398861], [17.813279, 49.392928], [17.813604, 49.392345], [17.813997, 49.391898], [17.814274, 49.391667], [17.816994, 49.388546], [17.817431, 49.380044], [17.816181, 49.378013], [17.814315, 49.375795], [17.813092, 49.374106], [17.812763, 49.373667], [17.811831, 49.371191], [17.811842, 49.370248], [17.812025, 49.36958], [17.812395, 49.368656], [17.812851, 49.368052], [17.813473, 49.367093], [17.816591, 49.365635], [17.816691, 49.365762], [17.817043, 49.366501], [17.818808, 49.369745], [17.822202, 49.375437], [17.822231, 49.377492], [17.828605, 49.383198], [17.832298, 49.381038], [17.838369, 49.375241], [17.838325, 49.371681], [17.838373, 49.371614], [17.840804, 49.368598], [17.838047, 49.361586], [17.8342, 49.358711], [17.833276, 49.355232], [17.827979, 49.350462], [17.824473, 49.349309], [17.818643, 49.34969], [17.81573, 49.35431], [17.815709, 49.354475], [17.812105, 49.355216], [17.811207, 49.355648], [17.810557, 49.355708], [17.80806, 49.356092], [17.807383, 49.356174], [17.806748, 49.35618], [17.805991, 49.356041], [17.805584, 49.355889], [17.799843, 49.355294], [17.795687, 49.354462], [17.793634, 49.354122], [17.790951, 49.353754], [17.791166, 49.35016], [17.798829, 49.345504], [17.799788, 49.342034], [17.801948, 49.3362], [17.80466, 49.333832], [17.812656, 49.33635], [17.813297, 49.336475], [17.813931, 49.336709], [17.818025, 49.338211], [17.818653, 49.338394], [17.819176, 49.338702], [17.827748, 49.337645], [17.828573, 49.337207], [17.829095, 49.337023], [17.829881, 49.337045], [17.830375, 49.33706], [17.830842, 49.337164], [17.839725, 49.337338], [17.844524, 49.337395], [17.845284, 49.337721], [17.853416, 49.338451], [17.859654, 49.333316], [17.861903, 49.331407], [17.862291, 49.331705], [17.862817, 49.332321], [17.863034, 49.33275], [17.868476, 49.337525], [17.870661, 49.338035], [17.877366, 49.334728], [17.878453, 49.333215], [17.882617, 49.328076], [17.882788, 49.327808], [17.885911, 49.329674], [17.885989, 49.329799], [17.886058, 49.330031], [17.886092, 49.330941], [17.885995, 49.331455], [17.885876, 49.33185], [17.885644, 49.332342], [17.885417, 49.332703], [17.884545, 49.3352], [17.891376, 49.341002], [17.891805, 49.340807], [17.893094, 49.340232], [17.893676, 49.340161], [17.894144, 49.340165], [17.899649, 49.344467], [17.900837, 49.345024], [17.905068, 49.34714], [17.905146, 49.347161], [17.905381, 49.347257], [17.905642, 49.347398], [17.906031, 49.347684], [17.914686, 49.346745], [17.915821, 49.345851], [17.917283, 49.344359], [17.92091, 49.342597], [17.921233, 49.342524], [17.92196, 49.342504], [17.922676, 49.342686], [17.923556, 49.343033], [17.925534, 49.343233], [17.92642, 49.343096], [17.926959, 49.343053], [17.927483, 49.343038], [17.927863, 49.343077], [17.931789, 49.335164], [17.930561, 49.334382], [17.928145, 49.333748], [17.927303, 49.333661], [17.927065, 49.333638], [17.926112, 49.333653], [17.924192, 49.333621], [17.923235, 49.333423], [17.922376, 49.333076], [17.921435, 49.332385], [17.920979, 49.331558], [17.916519, 49.326688], [17.912857, 49.325306], [17.909679, 49.325213], [17.908841, 49.325152], [17.907635, 49.325019], [17.901457, 49.321058], [17.901123, 49.320989], [17.900319, 49.320748], [17.899673, 49.320597], [17.898595, 49.320385], [17.89741, 49.319951], [17.892404, 49.319865], [17.888804, 49.31991], [17.888625, 49.318194], [17.888757, 49.317677], [17.891314, 49.314998], [17.894999, 49.315215], [17.899998, 49.311036], [17.899954, 49.306397], [17.899778, 49.305497], [17.89991, 49.304261], [17.901311, 49.301086], [17.901956, 49.29994], [17.902937, 49.299109], [17.904694, 49.301211], [17.905263, 49.301856], [17.905275, 49.302147], [17.905311, 49.303462], [17.911131, 49.310222], [17.913341, 49.313064], [17.921191, 49.314087], [17.922384, 49.313635], [17.925305, 49.313133], [17.926231, 49.312919], [17.931939, 49.311039], [17.929124, 49.303018], [17.928874, 49.299426], [17.9228, 49.293366], [17.920691, 49.2939], [17.919363, 49.294438], [17.913262, 49.293241], [17.912022, 49.293344], [17.911714, 49.293369], [17.910417, 49.29353], [17.909975, 49.289957], [17.911272, 49.289796], [17.911947, 49.28967], [17.913358, 49.289331], [17.917854, 49.285837], [17.914044, 49.278929], [17.912478, 49.278331], [17.911817, 49.278201], [17.909638, 49.277897], [17.90705, 49.276933], [17.90302, 49.275428], [17.901921, 49.275208], [17.902627, 49.271678], [17.904572, 49.271793], [17.90589, 49.271947], [17.906472, 49.272032], [17.910033, 49.272699], [17.918556, 49.274031], [17.919128, 49.273919], [17.919606, 49.273871], [17.920264, 49.274208], [17.928196, 49.27795], [17.931438, 49.279437], [17.935838, 49.286882], [17.941644, 49.288416], [17.946052, 49.289117], [17.946043, 49.289503], [17.945931, 49.290119], [17.947759, 49.296999], [17.9528, 49.298656], [17.958408, 49.292429], [17.959337, 49.290309], [17.959753, 49.28956], [17.962766, 49.291198], [17.9629, 49.291308], [17.964756, 49.29487], [17.965178, 49.295649], [17.965361, 49.296593], [17.965028, 49.297796], [17.970552, 49.304033], [17.97391, 49.303387], [17.974937, 49.302829], [17.976438, 49.306101], [17.977643, 49.314863], [17.980478, 49.318186], [17.988701, 49.319912], [17.989699, 49.318568], [17.990518, 49.317584], [17.993148, 49.315375], [17.992994, 49.30758], [17.990217, 49.304647], [17.98784, 49.300837], [17.98937, 49.297578], [17.986065, 49.291107], [17.988371, 49.284634], [17.990029, 49.281439], [17.991688, 49.274401], [17.991407, 49.272021], [17.995454, 49.268038], [17.998072, 49.267398], [17.999266, 49.26755], [18.001091, 49.271729], [18.00143, 49.273245], [18.001501, 49.273829], [18.001461, 49.274893], [18.001681, 49.277336], [18.008718, 49.281587], [18.00918, 49.281524], [18.01034, 49.281382], [18.010835, 49.281348], [18.013193, 49.281228], [18.013572, 49.281169], [18.014129, 49.284726], [18.01337, 49.284876], [18.012773, 49.284967], [18.007073, 49.289382], [18.009918, 49.297838], [18.017013, 49.297032], [18.017605, 49.296649], [18.018424, 49.296352], [18.021219, 49.295337], [18.021969, 49.294886], [18.022335, 49.294734], [18.023718, 49.298058], [18.021524, 49.300692], [18.026222, 49.307469], [18.029841, 49.307494], [18.032847, 49.30675], [18.032932, 49.306726], [18.039502, 49.307526], [18.041291, 49.307374], [18.041833, 49.3073], [18.043408, 49.307036], [18.046113, 49.306579], [18.048838, 49.306143], [18.052928, 49.29943], [18.050602, 49.295541], [18.050567, 49.295442], [18.049294, 49.292827], [18.051806, 49.290249], [18.056989, 49.293249], [18.058503, 49.295771], [18.066034, 49.298454], [18.073587, 49.298879], [18.082508, 49.29958], [18.088262, 49.300554], [18.091049, 49.301525], [18.091753, 49.302865], [18.092221, 49.303913], [18.092169, 49.304016], [18.092077, 49.304151], [18.09069, 49.305107], [18.090356, 49.305073], [18.086214, 49.304784], [18.085045, 49.304506], [18.083357, 49.304299], [18.082418, 49.304284], [18.081801, 49.304327], [18.081428, 49.304373], [18.075767, 49.304763], [18.073146, 49.304918], [18.067649, 49.308969], [18.070318, 49.313792], [18.071083, 49.314225], [18.071815, 49.314901], [18.074071, 49.316284], [18.074822, 49.317172], [18.07492, 49.31739], [18.071755, 49.319296], [18.066505, 49.317239], [18.065861, 49.316878], [18.064613, 49.314176], [18.058224, 49.308683], [18.051014, 49.309388], [18.050298, 49.309539], [18.047174, 49.310641], [18.039372, 49.314113], [18.034397, 49.320436], [18.030331, 49.3237], [18.029345, 49.327128], [18.034013, 49.33255], [18.037445, 49.332273], [18.038402, 49.332019], [18.041628, 49.333592], [18.044376, 49.334631], [18.046001, 49.337175], [18.04636, 49.337635], [18.052168, 49.342436], [18.052895, 49.342762], [18.056927, 49.34467], [18.055975, 49.348142], [18.053169, 49.348766], [18.049207, 49.351319], [18.049195, 49.351315], [18.045689, 49.350558], [18.037227, 49.347606], [18.036339, 49.350935], [18.032551, 49.356407], [18.029763, 49.361277], [18.036065, 49.366093], [18.036713, 49.365925], [18.038883, 49.365098], [18.039202, 49.365587], [18.03917, 49.36573], [18.039288, 49.373568], [18.039541, 49.374817], [18.039314, 49.376406], [18.047175, 49.380133], [18.04764, 49.379896], [18.048097, 49.379712], [18.048985, 49.379462], [18.049942, 49.379212], [18.051226, 49.378753], [18.055508, 49.371251], [18.055497, 49.36917], [18.055927, 49.368526], [18.056413, 49.367711], [18.060849, 49.369023], [18.062197, 49.36934], [18.069375, 49.368788], [18.072076, 49.368856], [18.072733, 49.369], [18.073226, 49.369163], [18.074087, 49.369806], [18.079836, 49.372205], [18.085237, 49.369973], [18.086113, 49.369566], [18.08651, 49.369492], [18.087503, 49.369287], [18.091806, 49.368649], [18.092127, 49.368799], [18.092941, 49.369269], [18.094171, 49.370163], [18.092719, 49.374274], [18.101052, 49.377466], [18.107835, 49.37998], [18.110923, 49.379787], [18.111437, 49.379804], [18.112045, 49.379918], [18.113097, 49.38038], [18.115168, 49.381126], [18.123563, 49.378986], [18.127004, 49.37429], [18.12767, 49.373566], [18.129061, 49.372636], [18.133603, 49.36895], [18.134084, 49.369093], [18.134972, 49.369713], [18.135947, 49.370972], [18.141811, 49.37764], [18.142445, 49.378361], [18.147001, 49.382612], [18.150386, 49.383428], [18.150944, 49.386749], [18.152501, 49.389996], [18.157132, 49.391977], [18.162439, 49.384735], [18.161914, 49.382917], [18.162455, 49.381334], [18.16248, 49.381238], [18.162554, 49.38094], [18.162576, 49.380906], [18.163034, 49.380175], [18.163653, 49.379698], [18.163718, 49.379678], [18.168834, 49.381311], [18.16997, 49.381658], [18.171043, 49.382676], [18.178793, 49.386677], [18.187223, 49.388666], [18.195386, 49.391848], [18.20015, 49.385719], [18.200719, 49.385806], [18.201938, 49.386161], [18.207753, 49.388209], [18.213255, 49.386179], [18.218744, 49.386352], [18.219712, 49.389891], [18.219579, 49.390233], [18.220088, 49.399132], [18.224932, 49.4021], [18.225696, 49.402211], [18.232984, 49.398302], [18.232409, 49.394728], [18.234576, 49.386674], [18.234005, 49.385716], [18.233658, 49.384096], [18.23458, 49.375594], [18.233878, 49.375092], [18.235396, 49.37208], [18.237134, 49.369891], [18.237202, 49.369832], [18.244961, 49.369527], [18.253751, 49.368191], [18.255585, 49.367104], [18.262723, 49.362627], [18.263425, 49.359243], [18.263446, 49.358523], [18.263611, 49.357989], [18.265379, 49.350848], [18.265593, 49.350878], [18.270851, 49.351799], [18.271061, 49.352058], [18.271737, 49.352845], [18.275593, 49.356026], [18.27873, 49.357127], [18.286385, 49.355025], [18.287148, 49.354537], [18.287559, 49.354366], [18.291316, 49.352248], [18.294401, 49.34948], [18.294784, 49.349306], [18.296181, 49.348806], [18.297402, 49.350129], [18.298628, 49.351447], [18.298366, 49.351715], [18.297586, 49.358065], [18.303305, 49.360223], [18.303634, 49.360241], [18.304079, 49.360318], [18.304724, 49.360431], [18.30743, 49.362066], [18.307807, 49.364181], [18.307767, 49.364287], [18.306055, 49.365393], [18.303229, 49.366022], [18.30293, 49.365983], [18.295371, 49.365566], [18.291306, 49.371479], [18.28944, 49.374558], [18.288869, 49.382735], [18.289638, 49.384987], [18.289279, 49.388105], [18.287922, 49.393494], [18.289733, 49.401191], [18.294317, 49.406835], [18.295276, 49.407456], [18.297759, 49.408962], [18.298471, 49.409428], [18.299008, 49.409991], [18.300497, 49.412068], [18.300779, 49.412469], [18.306993, 49.415674], [18.311741, 49.412362], [18.314502, 49.406616], [18.313852, 49.40224], [18.313565, 49.40109], [18.314435, 49.399637], [18.315215, 49.399346], [18.317058, 49.398982], [18.32031, 49.398514], [18.320991, 49.398353], [18.321818, 49.401857], [18.329609, 49.404104], [18.330234, 49.403808], [18.335797, 49.406192], [18.342092, 49.408765], [18.342904, 49.408984], [18.343744, 49.409596], [18.352565, 49.409366], [18.356141, 49.408594], [18.359532, 49.4084], [18.362441, 49.407625], [18.363001, 49.407567], [18.363814, 49.40777], [18.364374, 49.408127], [18.366879, 49.409185], [18.374691, 49.408685], [18.37618, 49.401055], [18.374903, 49.399541], [18.374295, 49.398002], [18.37363, 49.396706], [18.373251, 49.395762], [18.37318, 49.395324], [18.37204, 49.39184], [18.376284, 49.388982], [18.376689, 49.388736], [18.378384, 49.388589], [18.379666, 49.388594], [18.379741, 49.388786], [18.379874, 49.389429], [18.379889, 49.38987], [18.379666, 49.390778], [18.381358, 49.399048], [18.384974, 49.398351], [18.385929, 49.397652], [18.386487, 49.397268], [18.3871, 49.397043], [18.387777, 49.396989], [18.391719, 49.396982], [18.392351, 49.396837], [18.393935, 49.396334], [18.394305, 49.396178], [18.401989, 49.394438], [18.40365, 49.392571], [18.406212, 49.392049], [18.41013, 49.384261], [18.410099, 49.384128], [18.413605, 49.383289], [18.413783, 49.383501], [18.417176, 49.387194], [18.417557, 49.387855], [18.417717, 49.388472], [18.424915, 49.393433], [18.425542, 49.393396], [18.42575, 49.39699], [18.422628, 49.40502], [18.423903, 49.405875], [18.425017, 49.406463], [18.425522, 49.407955], [18.431392, 49.413367], [18.434368, 49.413709], [18.435074, 49.413771], [18.436379, 49.413908], [18.438625, 49.413956], [18.439087, 49.414054], [18.439507, 49.414171], [18.442064, 49.415076], [18.44282, 49.415623], [18.447842, 49.418941], [18.447642, 49.422535], [18.453315, 49.426375], [18.45426, 49.426317], [18.461746, 49.430439], [18.463723, 49.431039], [18.465747, 49.432095], [18.466599, 49.432637], [18.472551, 49.437477], [18.473831, 49.439073], [18.476494, 49.441916], [18.477168, 49.442834], [18.48416, 49.446346], [18.489249, 49.443644], [18.492904, 49.440378], [18.493488, 49.439688], [18.494192, 49.439122], [18.494861, 49.438775], [18.497064, 49.437788], [18.498745, 49.438526], [18.499421, 49.439288], [18.500047, 49.440468], [18.503813, 49.446616], [18.511208, 49.447578], [18.513351, 49.44866], [18.513596, 49.448734], [18.514138, 49.448927], [18.515409, 49.449286], [18.51628, 49.449501], [18.517781, 49.449732], [18.523273, 49.442656], [18.521854, 49.440527], [18.521663, 49.437878], [18.52164, 49.437594], [18.525148, 49.436976], [18.533837, 49.436295], [18.534917, 49.434151], [18.535232, 49.432738], [18.535632, 49.43219], [18.536633, 49.431394], [18.536918, 49.431282], [18.537207, 49.43117], [18.539255, 49.433591], [18.547175, 49.434106], [18.547628, 49.43425], [18.549953, 49.435138], [18.549505, 49.43871], [18.544009, 49.441298], [18.543654, 49.441759], [18.543012, 49.442284], [18.540773, 49.444787], [18.540262, 49.445495], [18.539765, 49.445879], [18.538185, 49.45254], [18.542511, 49.454576], [18.543239, 49.454612], [18.543871, 49.454704], [18.545525, 49.454988], [18.545769, 49.454995], [18.547332, 49.454845], [18.548292, 49.454563], [18.554836, 49.450746], [18.555099, 49.447156], [18.557915, 49.445695], [18.562571, 49.442004], [18.565923, 49.440691], [18.566256, 49.441542], [18.574715, 49.444212], [18.575072, 49.443928], [18.577812, 49.441887], [18.578277, 49.441614], [18.579048, 49.441266], [18.58017, 49.44081], [18.582382, 49.438268], [18.579059, 49.431879], [18.577604, 49.429962], [18.577265, 49.428583], [18.577265, 49.426378], [18.577837, 49.425029], [18.580868, 49.425043], [18.5826, 49.42537], [18.589779, 49.423183], [18.591976, 49.419973], [18.59295, 49.418756], [18.594589, 49.415978], [18.595048, 49.415026], [18.59667, 49.411948], [18.596764, 49.41189], [18.597792, 49.411509], [18.601974, 49.411124], [18.602904, 49.412701], [18.603607, 49.414333], [18.598021, 49.420786], [18.59827, 49.427844], [18.59848, 49.428592], [18.598061, 49.430129], [18.597454, 49.430781], [18.595852, 49.435045], [18.60112, 49.440476], [18.604456, 49.442686], [18.604897, 49.443124], [18.604859, 49.44463], [18.604781, 49.444826], [18.602361, 49.445679], [18.59929, 49.444764], [18.59863, 49.444568], [18.597662, 49.444025], [18.596053, 49.443382], [18.595622, 49.443253], [18.595139, 49.443121], [18.589245, 49.443311], [18.588808, 49.443361], [18.588336, 49.443399], [18.582335, 49.443776], [18.581624, 49.444104], [18.580405, 49.444601], [18.579706, 49.444949], [18.577228, 49.446811], [18.57659, 49.447428], [18.57806, 49.456156], [18.578498, 49.45642], [18.578899, 49.456787], [18.579473, 49.457865], [18.586561, 49.462099], [18.589765, 49.460536], [18.589876, 49.460462], [18.591919, 49.460287], [18.595365, 49.461066], [18.596135, 49.461149], [18.597298, 49.461521], [18.597969, 49.461664], [18.598766, 49.462031], [18.602854, 49.464163], [18.608257, 49.468592], [18.611647, 49.467382], [18.613815, 49.46703], [18.614368, 49.466906], [18.615055, 49.466878], [18.615615, 49.466969], [18.615844, 49.467039], [18.616504, 49.467273], [18.619352, 49.468103], [18.620231, 49.468796], [18.620294, 49.46889], [18.619198, 49.4717], [18.61129, 49.472788], [18.608822, 49.473075], [18.606354, 49.472861], [18.599262, 49.474368], [18.598634, 49.47421], [18.598056, 49.473961], [18.589309, 49.473889], [18.588202, 49.47392], [18.586843, 49.472837], [18.586206, 49.472078], [18.586193, 49.47206], [18.58553, 49.468521], [18.581624, 49.465134], [18.574958, 49.466687], [18.572144, 49.473163], [18.570137, 49.476151], [18.56426, 49.477367], [18.558111, 49.478994], [18.557318, 49.479212], [18.556194, 49.479455], [18.552387, 49.480764], [18.552343, 49.480772], [18.546859, 49.480983], [18.546229, 49.48101], [18.542687, 49.481161], [18.536332, 49.485691], [18.535825, 49.486385], [18.535605, 49.486635], [18.53061, 49.493991], [18.528622, 49.496992], [18.526636, 49.495872], [18.526499, 49.495697], [18.526069, 49.493908], [18.520826, 49.48827], [18.515578, 49.485216], [18.512158, 49.485125], [18.507629, 49.485822], [18.505867, 49.484453], [18.500129, 49.480737], [18.498591, 49.480657], [18.498559, 49.480639], [18.497365, 49.477242], [18.499252, 49.474245], [18.497427, 49.466531], [18.495501, 49.465641], [18.487531, 49.469384], [18.486175, 49.470704], [18.485134, 49.470956], [18.484318, 49.471126], [18.477704, 49.475875], [18.476948, 49.483966], [18.47817, 49.486568], [18.486388, 49.488608], [18.487759, 49.489876], [18.488907, 49.490569], [18.493398, 49.492948], [18.496876, 49.494133], [18.497146, 49.494863], [18.500392, 49.49904], [18.502657, 49.501838], [18.507117, 49.509216], [18.515781, 49.511579], [18.517268, 49.511449], [18.52144, 49.510751], [18.522348, 49.510394], [18.523455, 49.509992], [18.53114, 49.508591], [18.531721, 49.508348], [18.533202, 49.507438], [18.533866, 49.507099], [18.535916, 49.506157], [18.537956, 49.504151], [18.540059, 49.503056], [18.540736, 49.502656], [18.542092, 49.502492], [18.547651, 49.501382], [18.548923, 49.501606], [18.550341, 49.502333], [18.5544, 49.504208], [18.556496, 49.504855], [18.558402, 49.505806], [18.559122, 49.506186], [18.560386, 49.507417], [18.560208, 49.508865], [18.5612, 49.516577], [18.563333, 49.519392], [18.567935, 49.522179], [18.572179, 49.522594], [18.57295, 49.522567], [18.580081, 49.51796], [18.580905, 49.51532], [18.582164, 49.51424], [18.582635, 49.514347], [18.583362, 49.51461], [18.586208, 49.516724], [18.586761, 49.517081], [18.58697, 49.517304], [18.588198, 49.52023], [18.589186, 49.528672], [18.594147, 49.535282], [18.599186, 49.539761], [18.600369, 49.540955], [18.600901, 49.54224], [18.604632, 49.550059], [18.605165, 49.550744], [18.605405, 49.551591], [18.606254, 49.553591], [18.611676, 49.557917], [18.616099, 49.552815], [18.616304, 49.55242], [18.617179, 49.550009], [18.617301, 49.549506], [18.620348, 49.549297], [18.620478, 49.549517], [18.6208, 49.550356], [18.624187, 49.556102], [18.624447, 49.556506], [18.624703, 49.557113], [18.624836, 49.557643], [18.624965, 49.558185], [18.625502, 49.559917], [18.625691, 49.560717], [18.622503, 49.56239], [18.618921, 49.563478], [18.615351, 49.563945], [18.610498, 49.566344], [18.608947, 49.573042], [18.610187, 49.576547], [18.607577, 49.579027], [18.599453, 49.578535], [18.597915, 49.57924], [18.597399, 49.579451], [18.596347, 49.579745], [18.595609, 49.57993], [18.593886, 49.580173], [18.593054, 49.580232], [18.59175, 49.580208], [18.590796, 49.580321], [18.589094, 49.580549], [18.588524, 49.580702], [18.587934, 49.580804], [18.587198, 49.580856], [18.58671, 49.580867], [18.585942, 49.580819], [18.584455, 49.581026], [18.583882, 49.589601], [18.58687, 49.591553], [18.586888, 49.591582], [18.591688, 49.596263], [18.592584, 49.596677], [18.593365, 49.597205], [18.594674, 49.598303], [18.598548, 49.600465], [18.59992, 49.600853], [18.608283, 49.603788], [18.610199, 49.600621], [18.610872, 49.600655], [18.611885, 49.600908], [18.612909, 49.60163], [18.619471, 49.602492], [18.623138, 49.597639], [18.623617, 49.596002], [18.623859, 49.595531], [18.624188, 49.595036], [18.625024, 49.593985], [18.625595, 49.593253], [18.626364, 49.592263], [18.62668, 49.591875], [18.628239, 49.589372], [18.63008, 49.583977], [18.627983, 49.579852], [18.628185, 49.578817], [18.628487, 49.578029], [18.629427, 49.577486], [18.630261, 49.577388], [18.631253, 49.577504], [18.631977, 49.5777], [18.636894, 49.57669], [18.637619, 49.576318], [18.638636, 49.576051], [18.639747, 49.575861], [18.640267, 49.57576], [18.641909, 49.57524], [18.645274, 49.571721], [18.640536, 49.566245], [18.639771, 49.566331], [18.639123, 49.566433], [18.638642, 49.566454], [18.637799, 49.566422], [18.636685, 49.566441], [18.636149, 49.562881], [18.640363, 49.560853], [18.644239, 49.558444], [18.647835, 49.55175], [18.642815, 49.54554], [18.642251, 49.545269], [18.642021, 49.545119], [18.641673, 49.544426], [18.641107, 49.542836], [18.641109, 49.54216], [18.64398, 49.542099], [18.644709, 49.542171], [18.647016, 49.543255], [18.648037, 49.54391], [18.653138, 49.54577], [18.661038, 49.543921], [18.661774, 49.543949], [18.66366, 49.544097], [18.667043, 49.544012], [18.674522, 49.541483], [18.675271, 49.541296], [18.675989, 49.541326], [18.678054, 49.543185], [18.681284, 49.544245], [18.683627, 49.544098], [18.686927, 49.542556], [18.688868, 49.534267], [18.689443, 49.532981], [18.690477, 49.531047], [18.69104, 49.531328], [18.692322, 49.532448], [18.693572, 49.534306], [18.694605, 49.536179], [18.694813, 49.536943], [18.694998, 49.537559], [18.695228, 49.538179], [18.699522, 49.545986], [18.704002, 49.540609], [18.704183, 49.539978], [18.707048, 49.538151], [18.709746, 49.531175], [18.709723, 49.530267], [18.709431, 49.528066], [18.709161, 49.527062], [18.710974, 49.525122], [18.711535, 49.525334], [18.712496, 49.526179], [18.712832, 49.526653], [18.716103, 49.530107], [18.716696, 49.530503], [18.717085, 49.530896], [18.717488, 49.53148], [18.726119, 49.531509], [18.726488, 49.531631], [18.727056, 49.53194], [18.72877, 49.533386], [18.735304, 49.534555], [18.735837, 49.534453], [18.741624, 49.528014], [18.739217, 49.524542], [18.739124, 49.523201], [18.73873, 49.520421], [18.733234, 49.514927], [18.732523, 49.514673], [18.732101, 49.514387], [18.731572, 49.513652], [18.731412, 49.512783], [18.731243, 49.509348], [18.731254, 49.508747], [18.731322, 49.508352], [18.728548, 49.50021], [18.727829, 49.499762], [18.727407, 49.499347], [18.729791, 49.49684], [18.730042, 49.496828], [18.735323, 49.49135], [18.732774, 49.48725], [18.732666, 49.486636], [18.732636, 49.486234], [18.732802, 49.485381], [18.733477, 49.481876], [18.734829, 49.481033], [18.734968, 49.481045], [18.735808, 49.481271], [18.737076, 49.481951], [18.737054, 49.483021], [18.737163, 49.484507], [18.737386, 49.485488], [18.737907, 49.486721], [18.746427, 49.487345], [18.74742, 49.486757], [18.752472, 49.487194], [18.753467, 49.486789], [18.756611, 49.479062], [18.756727, 49.478122], [18.756924, 49.477559], [18.760322, 49.47875], [18.766425, 49.478591], [18.767938, 49.478194], [18.769475, 49.477933], [18.771191, 49.477591], [18.7716, 49.47748], [18.77272, 49.477409], [18.778212, 49.471107], [18.77823, 49.470403], [18.77578, 49.465189], [18.775528, 49.464806], [18.775319, 49.464362], [18.775157, 49.463719], [18.77514, 49.463401], [18.775179, 49.462847], [18.77537, 49.462187], [18.775803, 49.460917], [18.777035, 49.455877], [18.777225, 49.454951], [18.780426, 49.451332], [18.784025, 49.446735], [18.784654, 49.445882], [18.785087, 49.445411], [18.785423, 49.445085], [18.78583, 49.444734], [18.786668, 49.444103], [18.791072, 49.440752], [18.791517, 49.440441], [18.791968, 49.440167], [18.798214, 49.43395], [18.801375, 49.435673], [18.800386, 49.439129], [18.800371, 49.439156], [18.79425, 49.443043], [18.791396, 49.445106], [18.790376, 49.445882], [18.788756, 49.447036], [18.786689, 49.449337], [18.785367, 49.451913], [18.785052, 49.452492], [18.784098, 49.459929], [18.790881, 49.465511], [18.792172, 49.468884], [18.794846, 49.476071], [18.796138, 49.477241], [18.800206, 49.479809], [18.801049, 49.480248], [18.803961, 49.481535], [18.806645, 49.482375], [18.808254, 49.482828], [18.808457, 49.483045], [18.807869, 49.485546], [18.809923, 49.493921], [18.811082, 49.494362], [18.812466, 49.49486], [18.813466, 49.495259], [18.814429, 49.495714], [18.815438, 49.496286], [18.816108, 49.496729], [18.816543, 49.497048], [18.817037, 49.497453], [18.817653, 49.498035], [18.815179, 49.50065], [18.811944, 49.498521], [18.811142, 49.498208], [18.809866, 49.497751], [18.808643, 49.497286], [18.807369, 49.496735], [18.80684, 49.496483], [18.805933, 49.496004], [18.805048, 49.4955], [18.804535, 49.495182], [18.801724, 49.49317], [18.801288, 49.492897], [18.80087, 49.492668], [18.800486, 49.49249], [18.800026, 49.492288], [18.799728, 49.492177], [18.798928, 49.491913], [18.798219, 49.491734], [18.797494, 49.491593], [18.790831, 49.497265], [18.79254, 49.499388], [18.79263, 49.50086], [18.791167, 49.509352], [18.79169, 49.510031], [18.799073, 49.515142], [18.800477, 49.518457], [18.800009, 49.518655], [18.798566, 49.519317], [18.798176, 49.519548], [18.797655, 49.519762], [18.797158, 49.519863], [18.796733, 49.519867], [18.796235, 49.519774], [18.789712, 49.520427], [18.789201, 49.520625], [18.788682, 49.52069], [18.788121, 49.520623], [18.786353, 49.520171], [18.783991, 49.520023], [18.783078, 49.519815], [18.782709, 49.519631], [18.774916, 49.523991], [18.773108, 49.523537], [18.772607, 49.523359], [18.772094, 49.523067], [18.771401, 49.522185], [18.763156, 49.524749], [18.763383, 49.526796], [18.763339, 49.528265], [18.763286, 49.528664], [18.763788, 49.53246], [18.765032, 49.539637], [18.769408, 49.54406], [18.777464, 49.547009], [18.778021, 49.546889], [18.784188, 49.541201], [18.784712, 49.540154], [18.786456, 49.537877], [18.788037, 49.537471], [18.788213, 49.537434], [18.789942, 49.537512], [18.790103, 49.538288], [18.790405, 49.53914], [18.790635, 49.54011], [18.7996, 49.539484], [18.799604, 49.538304], [18.80038, 49.53648], [18.801482, 49.535893], [18.802743, 49.535997], [18.803435, 49.535996], [18.808384, 49.540705], [18.811045, 49.542286], [18.810777, 49.542857], [18.810605, 49.548448], [18.819147, 49.549987], [18.821108, 49.546969], [18.827143, 49.546027], [18.835114, 49.5453], [18.835327, 49.545254], [18.836352, 49.545781], [18.837215, 49.546479], [18.84446, 49.55056], [18.850522, 49.548937], [18.851799, 49.548857], [18.856015, 49.550188], [18.856995, 49.552312], [18.856596, 49.553741], [18.850859, 49.55581], [18.842519, 49.557811], [18.84036, 49.558823], [18.840006, 49.558978], [18.839242, 49.559126], [18.838363, 49.558954], [18.836576, 49.558264], [18.831697, 49.558252], [18.827328, 49.564873], [18.827933, 49.568422], [18.821341, 49.571963], [18.816489, 49.575932], [18.810128, 49.577997], [18.802217, 49.580623], [18.797626, 49.581496], [18.788992, 49.581086], [18.786943, 49.58115], [18.782583, 49.588414], [18.782662, 49.592511], [18.787247, 49.598592], [18.789494, 49.599441], [18.789864, 49.599533], [18.790493, 49.599739], [18.791192, 49.599943], [18.791957, 49.600277], [18.792485, 49.600544], [18.793509, 49.601109], [18.793881, 49.601371], [18.800136, 49.603967], [18.800504, 49.604048], [18.805991, 49.604306], [18.807502, 49.604784], [18.809646, 49.607676], [18.809204, 49.608004], [18.80885, 49.608223], [18.808148, 49.608474], [18.807073, 49.608624], [18.806278, 49.60864], [18.805615, 49.608608], [18.803192, 49.608225], [18.802184, 49.60811], [18.80166, 49.608072], [18.80135, 49.608031], [18.800931, 49.60794], [18.798433, 49.607635], [18.797966, 49.607587], [18.797379, 49.607436], [18.795232, 49.60687], [18.794084, 49.606662], [18.793633, 49.606556], [18.793221, 49.60642], [18.792877, 49.606259], [18.791568, 49.604969], [18.787393, 49.602983], [18.786887, 49.602963], [18.780234, 49.607551], [18.785609, 49.61323], [18.786879, 49.614556], [18.790273, 49.615596], [18.790517, 49.615588], [18.790754, 49.615616], [18.79091, 49.615652], [18.791264, 49.615761], [18.787864, 49.618556], [18.787445, 49.619054], [18.786683, 49.619931], [18.785962, 49.62057], [18.783386, 49.627341], [18.788497, 49.632246], [18.791001, 49.635312], [18.791567, 49.635816], [18.79191, 49.63653], [18.791933, 49.639059], [18.792328, 49.641739], [18.796743, 49.646892], [18.799247, 49.649478], [18.797862, 49.651484], [18.79632, 49.653479], [18.795947, 49.653963], [18.795426, 49.654486], [18.793306, 49.661233], [18.797183, 49.665265], [18.797741, 49.665489], [18.798098, 49.665755], [18.79808, 49.667522], [18.797484, 49.669302], [18.795949, 49.672661], [18.795893, 49.672746], [18.793531, 49.67557], [18.793174, 49.675885], [18.792848, 49.676109], [18.784303, 49.676084], [18.78359, 49.676676], [18.78306, 49.676961], [18.776866, 49.680457], [18.775887, 49.681094], [18.774343, 49.682062], [18.773205, 49.682296], [18.772487, 49.682393], [18.771759, 49.682444], [18.771058, 49.682343], [18.766733, 49.682302], [18.766341, 49.681933], [18.761083, 49.679566], [18.754202, 49.678456], [18.75362, 49.678094], [18.752726, 49.677295], [18.751156, 49.675908], [18.750623, 49.672865], [18.749989, 49.671072], [18.741973, 49.667801], [18.740606, 49.670095], [18.735066, 49.675196], [18.735801, 49.678636], [18.736456, 49.679689], [18.736477, 49.680565], [18.736453, 49.680694], [18.736133, 49.681345], [18.735448, 49.681937], [18.73969, 49.68987], [18.740126, 49.689706], [18.740862, 49.689534], [18.741643, 49.689504], [18.742341, 49.68969], [18.746853, 49.689362], [18.751427, 49.690026], [18.751928, 49.690027], [18.75381, 49.690289], [18.754495, 49.690273], [18.755745, 49.69038], [18.756309, 49.69047], [18.756682, 49.69058], [18.757971, 49.690828], [18.759602, 49.691462], [18.76035, 49.691587], [18.761017, 49.692518], [18.761416, 49.693082], [18.761598, 49.693689], [18.761593, 49.693929], [18.761041, 49.699723], [18.76621, 49.706987], [18.766729, 49.707299], [18.767408, 49.707654], [18.76813, 49.708757], [18.768443, 49.70922], [18.768801, 49.710131], [18.776343, 49.71465], [18.785022, 49.715951], [18.793454, 49.713905], [18.799038, 49.713527], [18.802369, 49.710787], [18.807304, 49.709802], [18.81143, 49.708177], [18.812392, 49.70775], [18.81473, 49.706949], [18.815897, 49.710354], [18.816699, 49.715941], [18.816844, 49.724662], [18.81844, 49.729929], [18.823629, 49.734686], [18.828978, 49.735946], [18.832048, 49.738522], [18.83617, 49.742477], [18.841069, 49.743703], [18.845347, 49.74526], [18.851401, 49.748226], [18.86026, 49.747276], [18.863066, 49.745147], [18.863464, 49.745462], [18.871932, 49.742621], [18.872127, 49.742513], [18.877601, 49.738919], [18.878098, 49.73854], [18.879537, 49.737609], [18.883975, 49.73533], [18.890633, 49.73182], [18.892522, 49.731589], [18.892969, 49.731797], [18.892975, 49.734554], [18.892934, 49.734589], [18.89058, 49.73692], [18.88892, 49.742825], [18.888588, 49.74398], [18.888525, 49.744069], [18.886543, 49.744189], [18.884219, 49.744968], [18.881177, 49.751449], [18.883306, 49.754664], [18.88373, 49.755063], [18.883654, 49.7553], [18.882484, 49.758441], [18.877781, 49.75887], [18.871412, 49.763465], [18.87501, 49.770894], [18.880267, 49.775904], [18.88896, 49.777509], [18.890391, 49.778721], [18.889827, 49.780441], [18.889507, 49.78386], [18.884706, 49.787426], [18.882788, 49.793115], [18.88358, 49.798077], [18.890797, 49.799228], [18.89511, 49.797425], [18.895651, 49.797045], [18.896077, 49.796878], [18.897184, 49.796592], [18.898204, 49.796309], [18.901245, 49.794862], [18.903513, 49.792952], [18.907262, 49.788606], [18.90796, 49.78758], [18.9072, 49.778795], [18.907095, 49.777572], [18.907091, 49.776902], [18.906972, 49.773531], [18.90656, 49.771907], [18.906607, 49.770442], [18.906736, 49.769692], [18.90698, 49.769094], [18.908734, 49.764094], [18.908777, 49.763794], [18.909623, 49.763287], [18.913155, 49.763091], [18.913249, 49.763379], [18.913289, 49.764461], [18.912421, 49.765618], [18.910538, 49.77304], [18.91534, 49.779039], [18.916008, 49.779559], [18.916399, 49.779937], [18.916772, 49.7804], [18.917058, 49.780843], [18.917425, 49.781573], [18.918024, 49.782846], [18.918541, 49.784004], [18.920716, 49.786614], [18.921347, 49.787128], [18.921587, 49.787444], [18.927092, 49.791348], [18.929518, 49.791412], [18.933066, 49.784218], [18.93321, 49.7841], [18.934356, 49.783806], [18.935966, 49.783501], [18.94474, 49.783608], [18.945226, 49.783165], [18.947703, 49.781371], [18.947819, 49.781299], [18.948088, 49.781192], [18.949553, 49.780899], [18.949988, 49.781786], [18.957075, 49.787267], [18.958753, 49.787643], [18.964472, 49.788425], [18.966377, 49.788945], [18.971924, 49.792235], [18.973371, 49.794965], [18.974039, 49.79777], [18.976109, 49.800512], [18.982874, 49.801139], [18.983451, 49.801181], [18.990091, 49.806647], [18.990623, 49.808454], [18.990577, 49.808588], [18.988431, 49.816577], [18.993588, 49.817266], [18.99461, 49.817178], [18.996159, 49.817602], [18.998074, 49.818157], [18.999212, 49.818477], [18.999435, 49.818588], [19.001562, 49.819841], [19.006072, 49.822228], [19.007608, 49.82255], [19.008469, 49.822671], [19.011698, 49.822495], [19.017271, 49.818996], [19.017838, 49.818679], [19.020423, 49.820735], [19.020405, 49.821203], [19.019684, 49.821936], [19.018307, 49.823761], [19.017081, 49.826918], [19.016825, 49.827256], [19.016406, 49.827705], [19.014888, 49.829076], [19.012443, 49.832699], [19.010816, 49.835196], [19.009976, 49.837642], [19.009861, 49.838362], [19.009835, 49.841123], [19.015344, 49.845539], [19.01682, 49.84555], [19.018824, 49.845614], [19.025685, 49.840121], [19.02599, 49.839843], [19.026457, 49.839533], [19.031867, 49.835775], [19.03917, 49.834996], [19.041089, 49.835637], [19.042203, 49.836934], [19.043311, 49.838658], [19.042565, 49.84218], [19.047511, 49.848484], [19.04968, 49.847967], [19.050864, 49.847731], [19.051751, 49.847586], [19.053363, 49.847357], [19.053808, 49.847282], [19.055185, 49.846905], [19.056995, 49.84625], [19.057514, 49.846079], [19.05817, 49.845896], [19.064664, 49.840422], [19.066506, 49.838019], [19.071703, 49.835005], [19.072096, 49.835011], [19.072641, 49.835056], [19.072727, 49.835212], [19.074901, 49.837533], [19.075005, 49.837767], [19.080237, 49.841263], [19.084265, 49.835723], [19.083479, 49.833756], [19.086821, 49.832419], [19.087608, 49.834387], [19.09022, 49.839319], [19.096667, 49.844599], [19.096597, 49.845331], [19.089507, 49.845174], [19.087133, 49.845053], [19.08099, 49.84483], [19.080413, 49.844859], [19.079252, 49.844937], [19.078063, 49.84506], [19.074885, 49.845431], [19.067485, 49.848756], [19.060167, 49.849139], [19.056411, 49.85029], [19.055681, 49.850531], [19.055267, 49.850649], [19.054558, 49.850803], [19.053971, 49.850905], [19.052259, 49.85115], [19.050407, 49.851493], [19.048347, 49.851986], [19.046232, 49.85249], [19.04536, 49.852658], [19.044836, 49.852729], [19.037392, 49.856882], [19.03572, 49.857802], [19.035657, 49.857804], [19.027908, 49.857523], [19.023577, 49.861427], [19.022761, 49.861768], [19.020316, 49.859871], [19.019783, 49.85902], [19.019594, 49.858653], [19.019525, 49.856359], [19.015241, 49.849226], [19.014008, 49.849157], [19.013212, 49.849079], [19.012414, 49.848967], [19.011456, 49.84879], [19.009674, 49.84864], [19.009546, 49.848623], [19.003756, 49.848444], [18.997442, 49.851163], [18.993556, 49.852484], [18.98632, 49.855665], [18.984614, 49.857025], [18.97942, 49.858343], [18.977727, 49.85706], [18.97753, 49.855279], [18.978317, 49.853757], [18.982336, 49.847128], [18.982442, 49.846926], [18.982468, 49.846873], [18.977932, 49.839114], [18.974513, 49.839809], [18.970184, 49.841477], [18.969147, 49.841762], [18.968917, 49.841824], [18.968839, 49.841846], [18.968211, 49.84205], [18.965822, 49.842449], [18.959992, 49.841242], [18.956354, 49.841622], [18.953744, 49.840836], [18.946876, 49.845207], [18.94447, 49.850681], [18.943355, 49.851983], [18.942851, 49.852032], [18.94191, 49.8521], [18.93606, 49.849184], [18.934592, 49.84544], [18.929481, 49.838059], [18.928926, 49.837527], [18.927432, 49.835355], [18.919142, 49.832748], [18.913552, 49.837764], [18.913125, 49.839005], [18.91232, 49.846046], [18.912321, 49.846299], [18.910323, 49.848122], [18.907049, 49.851721], [18.906343, 49.852264], [18.903563, 49.853946], [18.898889, 49.857545], [18.896609, 49.858907], [18.894439, 49.859746], [18.892331, 49.859323], [18.885534, 49.856884], [18.883624, 49.856581], [18.882655, 49.855855], [18.882596, 49.855776], [18.883679, 49.852982], [18.882769, 49.844571], [18.882034, 49.842873], [18.879134, 49.838885], [18.878754, 49.83843], [18.870886, 49.835304], [18.863677, 49.840445], [18.862902, 49.841064], [18.861409, 49.848815], [18.863748, 49.850506], [18.861906, 49.853599], [18.85713, 49.851399], [18.851411, 49.846522], [18.849283, 49.844886], [18.844579, 49.841555], [18.837704, 49.838827], [18.834533, 49.846436], [18.837144, 49.848344], [18.837594, 49.84853], [18.838587, 49.84901], [18.839323, 49.849401], [18.837635, 49.852581], [18.835177, 49.851789], [18.829076, 49.849046], [18.822145, 49.847527], [18.820603, 49.847124], [18.815765, 49.843441], [18.812722, 49.841518], [18.805628, 49.84246], [18.804811, 49.84268], [18.804279, 49.842765], [18.803629, 49.842773], [18.802746, 49.841038], [18.794491, 49.838419], [18.788019, 49.842066], [18.78216, 49.846605], [18.785295, 49.851861], [18.78639, 49.853037], [18.786734, 49.854113], [18.787005, 49.857702], [18.78234, 49.858792], [18.775931, 49.854924], [18.767834, 49.852712], [18.766743, 49.853817], [18.766218, 49.854366], [18.75936, 49.859057], [18.758835, 49.859563], [18.757071, 49.860985], [18.756429, 49.861326], [18.754165, 49.863133], [18.752275, 49.869431], [18.752069, 49.871102], [18.746062, 49.877583], [18.744543, 49.877872], [18.742531, 49.878284], [18.74217, 49.876466], [18.741743, 49.874307], [18.74167, 49.873637], [18.741696, 49.87275], [18.74186, 49.871925], [18.742242, 49.870945], [18.742447, 49.87056], [18.742238, 49.863574], [18.74276, 49.860402], [18.742751, 49.86001], [18.746053, 49.853625], [18.745625, 49.85005], [18.743325, 49.845939], [18.73858, 49.843053], [18.737889, 49.842594], [18.737415, 49.841957], [18.737203, 49.841473], [18.735842, 49.838657], [18.734618, 49.837264], [18.732154, 49.834399], [18.725345, 49.83688], [18.724811, 49.837808], [18.724215, 49.83888], [18.723958, 49.839342], [18.720954, 49.837356], [18.720908, 49.837258], [18.717399, 49.831851], [18.714322, 49.827479], [18.709691, 49.827131], [18.709241, 49.826986], [18.708379, 49.826747], [18.707287, 49.826561], [18.70336, 49.82653], [18.702567, 49.826453], [18.695338, 49.831765], [18.696102, 49.839388], [18.700748, 49.840138], [18.701729, 49.843602], [18.701535, 49.843778], [18.700977, 49.8442], [18.698859, 49.845193], [18.698304, 49.845425], [18.697603, 49.845555], [18.694145, 49.847064], [18.691395, 49.854414], [18.695462, 49.857811], [18.696029, 49.858152], [18.702649, 49.864023], [18.703625, 49.863871], [18.703951, 49.863844], [18.706207, 49.863516], [18.707027, 49.863466], [18.707441, 49.863452], [18.712022, 49.862384], [18.716934, 49.860301], [18.721008, 49.85773], [18.724402, 49.858931], [18.727743, 49.862114], [18.730841, 49.863807], [18.730958, 49.866462], [18.731146, 49.867314], [18.729414, 49.867803], [18.726258, 49.869716], [18.722414, 49.875677], [18.718879, 49.876358], [18.718458, 49.874176], [18.709504, 49.874771], [18.709387, 49.875093], [18.706004, 49.873863], [18.702342, 49.869293], [18.696779, 49.871064], [18.697071, 49.87666], [18.698915, 49.8824], [18.699834, 49.883481], [18.699888, 49.883597], [18.704394, 49.888761], [18.703059, 49.892105], [18.704121, 49.899671], [18.707644, 49.900525], [18.708042, 49.900548], [18.707839, 49.904142], [18.705991, 49.904404], [18.705207, 49.904016], [18.702707, 49.902982], [18.699632, 49.902175], [18.693893, 49.908402], [18.69887, 49.914543], [18.70002, 49.91469], [18.699563, 49.918261], [18.698103, 49.922944], [18.697423, 49.925342], [18.696325, 49.927361], [18.692887, 49.92843], [18.689317, 49.923254], [18.685528, 49.915473], [18.685108, 49.913154], [18.683771, 49.906664], [18.677297, 49.901392], [18.674307, 49.899387], [18.671843, 49.897562], [18.669737, 49.89585], [18.669151, 49.895171], [18.670499, 49.8936], [18.67075, 49.893284], [18.671122, 49.892906], [18.671825, 49.892917], [18.676484, 49.890411], [18.676859, 49.884675], [18.670108, 49.882111], [18.667389, 49.881159], [18.667188, 49.881115], [18.665979, 49.879494], [18.666161, 49.878506], [18.666241, 49.878344], [18.668101, 49.876739], [18.666408, 49.869231], [18.662202, 49.862964], [18.658445, 49.862], [18.652825, 49.867324], [18.649249, 49.867734], [18.648352, 49.867663], [18.641635, 49.867267], [18.63921, 49.867815], [18.630568, 49.868248], [18.626701, 49.869168], [18.626094, 49.869308], [18.623843, 49.869582], [18.61679, 49.873654], [18.615617, 49.874368], [18.615579, 49.874374], [18.612647, 49.871788], [18.612276, 49.871431], [18.612231, 49.869634], [18.607752, 49.86231], [18.599688, 49.862594], [18.598558, 49.864006], [18.594727, 49.864565], [18.592389, 49.864451], [18.589971, 49.864573], [18.584297, 49.869024], [18.584287, 49.869046], [18.580199, 49.869474], [18.579953, 49.869584], [18.579362, 49.869813], [18.575675, 49.869837], [18.570212, 49.871022], [18.569082, 49.872208], [18.568065, 49.871852], [18.560327, 49.875329], [18.559441, 49.875824], [18.55894, 49.876067], [18.557572, 49.884718], [18.559922, 49.88614], [18.567385, 49.886861], [18.571551, 49.881712], [18.573896, 49.880091], [18.577883, 49.879911], [18.581969, 49.879998], [18.586529, 49.87961], [18.588197, 49.879653], [18.589698, 49.879288], [18.590461, 49.878971], [18.591419, 49.879435], [18.591663, 49.879679], [18.591843, 49.882296], [18.587939, 49.884415], [18.584413, 49.885139], [18.578248, 49.891284], [18.577964, 49.891506], [18.577428, 49.891798], [18.575295, 49.89241], [18.57094, 49.893386], [18.566659, 49.896594], [18.566414, 49.89665], [18.563494, 49.896532], [18.558133, 49.894592], [18.554002, 49.898394], [18.552146, 49.90173], [18.550054, 49.908524], [18.549273, 49.909193], [18.549153, 49.909172], [18.548407, 49.908856], [18.547751, 49.908245], [18.546832, 49.907403], [18.546283, 49.906922], [18.545401, 49.90591], [18.544676, 49.905123], [18.544385, 49.904781], [18.540841, 49.901884], [18.533689, 49.901332], [18.525125, 49.900385], [18.524324, 49.900451], [18.523415, 49.900548], [18.520435, 49.901018], [18.519728, 49.901121], [18.519435, 49.901144], [18.518503, 49.89993], [18.518425, 49.899744], [18.519151, 49.897555], [18.519893, 49.897459], [18.52286, 49.896991], [18.523934, 49.896872], [18.524825, 49.896797], [18.527846, 49.895665], [18.529136, 49.887262], [18.526924, 49.885711], [18.524701, 49.884152], [18.51666, 49.884285], [18.514302, 49.884453], [18.509206, 49.879837], [18.501256, 49.87688], [18.49766, 49.882134], [18.497495, 49.882768], [18.49733, 49.883154], [18.496461, 49.886352], [18.49633, 49.890022], [18.495346, 49.893485], [18.494769, 49.898441], [18.494115, 49.901981], [18.493109, 49.901795], [18.492593, 49.901664], [18.492065, 49.901479], [18.491421, 49.901144], [18.490378, 49.900744], [18.487175, 49.900299], [18.485843, 49.899977], [18.485211, 49.89966], [18.485206, 49.897285], [18.480656, 49.889712], [18.479447, 49.889972], [18.471066, 49.891667], [18.469517, 49.891541], [18.469468, 49.891514], [18.468675, 49.888976], [18.469312, 49.887514], [18.470269, 49.88651], [18.470653, 49.886083], [18.475251, 49.88071], [18.476846, 49.880243], [18.483256, 49.878958], [18.485661, 49.880289], [18.494502, 49.878608], [18.494858, 49.877767], [18.495205, 49.877099], [18.495587, 49.876505], [18.495902, 49.87612], [18.499465, 49.873757], [18.500865, 49.869936], [18.500696, 49.867676], [18.494675, 49.863234], [18.49184, 49.864087], [18.490111, 49.865005], [18.488295, 49.864846], [18.479787, 49.863128], [18.47911, 49.86317], [18.478324, 49.863163], [18.475127, 49.862069], [18.473925, 49.861052], [18.473826, 49.860864], [18.472124, 49.856694], [18.47239, 49.855322], [18.46432, 49.851519], [18.463332, 49.852444], [18.462202, 49.854093], [18.46128, 49.855403], [18.457543, 49.855148], [18.450114, 49.856537], [18.448905, 49.856113], [18.447449, 49.85496], [18.439886, 49.85325], [18.437499, 49.855944], [18.436009, 49.854624], [18.433727, 49.852494], [18.432137, 49.851468], [18.424306, 49.855804], [18.424149, 49.855885], [18.419186, 49.858959], [18.414921, 49.864152], [18.413663, 49.864929], [18.413084, 49.864918], [18.411323, 49.864245], [18.411301, 49.863418], [18.411322, 49.862997], [18.411011, 49.858598], [18.402393, 49.860059], [18.401557, 49.860649], [18.399721, 49.862472], [18.397202, 49.869218], [18.397171, 49.869353], [18.396578, 49.870493], [18.39495, 49.873815], [18.399405, 49.87978], [18.401478, 49.880433], [18.40528, 49.881988], [18.40601, 49.882135], [18.408705, 49.884121], [18.410896, 49.888068], [18.418391, 49.89246], [18.419203, 49.892543], [18.420013, 49.892574], [18.426448, 49.892595], [18.429803, 49.89129], [18.43218, 49.892863], [18.438934, 49.892014], [18.440926, 49.888934], [18.443952, 49.890687], [18.450696, 49.892711], [18.451379, 49.894023], [18.451452, 49.894226], [18.450541, 49.896307], [18.449585, 49.896266], [18.445076, 49.897635], [18.442066, 49.90159], [18.441488, 49.902638], [18.440465, 49.903913], [18.439417, 49.903659], [18.436685, 49.903016], [18.428819, 49.907087], [18.425061, 49.912979], [18.423549, 49.912655], [18.421288, 49.912239], [18.419001, 49.91277], [18.415616, 49.91732], [18.417561, 49.921878], [18.42272, 49.922815], [18.425822, 49.92212], [18.428925, 49.921426], [18.431934, 49.925369], [18.436897, 49.926397], [18.442658, 49.931897], [18.445811, 49.930503], [18.44834, 49.930778], [18.455671, 49.933212], [18.45999, 49.931166], [18.462497, 49.928628], [18.468748, 49.924958], [18.472014, 49.91815], [18.473702, 49.917351], [18.473704, 49.91735], [18.473939, 49.917238], [18.475397, 49.917382], [18.483395, 49.915387], [18.485536, 49.914597], [18.486791, 49.915998], [18.487587, 49.917555], [18.487154, 49.926071], [18.488269, 49.929768], [18.486583, 49.931018], [18.481827, 49.934574], [18.479894, 49.938975], [18.479596, 49.942563], [18.477763, 49.947446], [18.482919, 49.953483], [18.485441, 49.953964], [18.487962, 49.954445], [18.490454, 49.954921], [18.491541, 49.95511], [18.492987, 49.955333], [18.494594, 49.955533], [18.496023, 49.95567], [18.496841, 49.955727], [18.498635, 49.955812], [18.500537, 49.95584], [18.504299, 49.955827], [18.512859, 49.954878], [18.513198, 49.954769], [18.513622, 49.954692], [18.514223, 49.954691], [18.514663, 49.954772], [18.515333, 49.954967], [18.51686, 49.955386], [18.520824, 49.956192], [18.522091, 49.956391], [18.523447, 49.956641], [18.523669, 49.956679], [18.524499, 49.956911], [18.525806, 49.957279], [18.527049, 49.957691], [18.528365, 49.958203], [18.529208, 49.958572], [18.530215, 49.95906], [18.531082, 49.959534], [18.532251, 49.96025], [18.532914, 49.960707], [18.534065, 49.961588], [18.534972, 49.962417], [18.535603, 49.963039], [18.5361, 49.963612], [18.542419, 49.96617], [18.54609, 49.964783], [18.546138, 49.964773], [18.546446, 49.964837], [18.547832, 49.96538], [18.547848, 49.965399], [18.547929, 49.965904], [18.547943, 49.96601], [18.546877, 49.968296], [18.55039, 49.975533], [18.552219, 49.976151], [18.553921, 49.976766], [18.554855, 49.977142], [18.555806, 49.977559], [18.55736, 49.978339], [18.558409, 49.97894], [18.559226, 49.979448], [18.560368, 49.98025], [18.56104, 49.980764], [18.561676, 49.9813], [18.56232, 49.981892], [18.563306, 49.982905], [18.563786, 49.983462], [18.564441, 49.98429], [18.566488, 49.987156], [18.572382, 49.993046], [18.575402, 49.99569], [18.576417, 49.996599], [18.577234, 49.997383], [18.577919, 49.9981], [18.578706, 49.999022], [18.579198, 49.99966], [18.579782, 50.000473], [18.581079, 50.002378], [18.582618, 50.004672], [18.588732, 50.010902], [18.590041, 50.011797], [18.593523, 50.014036], [18.597079, 50.016324], [18.598581, 50.017402], [18.599316, 50.018006], [18.599839, 50.018474], [18.600485, 50.019104], [18.601063, 50.019729], [18.601707, 50.020509], [18.602434, 50.021543], [18.602852, 50.022238], [18.60322, 50.022942], [18.603487, 50.023529], [18.603775, 50.024283], [18.605324, 50.02826], [18.607302, 50.035275], [18.604432, 50.037448], [18.603722, 50.03651], [18.603174, 50.035654], [18.602723, 50.034804], [18.602369, 50.033986], [18.602016, 50.032966], [18.601697, 50.031788], [18.60117, 50.029084], [18.600788, 50.027029], [18.596302, 50.020189], [18.594986, 50.019254], [18.591577, 50.017064], [18.588094, 50.014825], [18.586702, 50.013875], [18.585493, 50.012975], [18.584582, 50.012233], [18.583769, 50.011512], [18.583328, 50.0111], [18.582527, 50.010296], [18.58177, 50.009439], [18.580593, 50.008003], [18.579708, 50.006791], [18.578104, 50.004404], [18.573002, 49.998373], [18.57001, 49.995755], [18.567266, 49.993351], [18.566729, 49.992857], [18.565706, 49.991843], [18.565148, 49.991237], [18.564663, 49.99067], [18.564068, 49.989929], [18.563605, 49.989311], [18.561512, 49.986384], [18.555574, 49.981464], [18.554196, 49.980778], [18.553417, 49.980442], [18.55258, 49.980107], [18.550997, 49.979537], [18.549238, 49.978943], [18.547444, 49.978338], [18.54066, 49.977166], [18.539254, 49.977205], [18.538453, 49.977153], [18.53055, 49.980373], [18.529707, 49.980439], [18.52897, 49.980418], [18.524191, 49.98072], [18.517272, 49.982801], [18.514014, 49.983861], [18.512369, 49.983473], [18.512025, 49.983103], [18.51195, 49.982972], [18.511961, 49.980903], [18.514235, 49.977642], [18.514531, 49.977125], [18.518126, 49.97556], [18.519806, 49.975038], [18.523632, 49.972468], [18.529418, 49.969809], [18.526646, 49.961598], [18.525318, 49.961102], [18.523884, 49.960664], [18.522982, 49.960431], [18.521946, 49.96021], [18.520924, 49.960028], [18.519381, 49.959825], [18.518029, 49.959706], [18.517223, 49.959659], [18.515714, 49.959597], [18.514329, 49.959581], [18.513407, 49.959579], [18.510918, 49.959394], [18.510751, 49.959402], [18.504312, 49.959427], [18.500549, 49.95944], [18.498584, 49.959412], [18.496672, 49.959323], [18.495773, 49.959261], [18.494253, 49.959117], [18.492543, 49.958905], [18.490995, 49.958668], [18.489838, 49.958468], [18.487287, 49.957981], [18.484766, 49.9575], [18.482245, 49.957019], [18.479723, 49.956538], [18.478439, 49.956314], [18.477214, 49.956125], [18.475731, 49.955949], [18.474578, 49.955848], [18.472843, 49.955759], [18.465713, 49.959723], [18.463742, 49.963028], [18.461179, 49.966605], [18.457694, 49.967507], [18.457178, 49.965514], [18.452193, 49.960643], [18.446809, 49.962178], [18.443454, 49.960874], [18.440159, 49.952845], [18.43905, 49.952286], [18.437964, 49.951699], [18.43663, 49.950944], [18.430368, 49.949106], [18.429873, 49.949105], [18.429242, 49.949006], [18.423555, 49.955848], [18.422466, 49.958519], [18.424417, 49.96704], [18.424028, 49.968706], [18.423507, 49.970523], [18.421546, 49.970661], [18.414278, 49.971094], [18.414136, 49.971035], [18.413497, 49.9706], [18.405254, 49.970717], [18.402859, 49.97552], [18.40045, 49.978196], [18.399158, 49.97707], [18.397963, 49.976005], [18.395794, 49.974234], [18.395313, 49.971706], [18.395221, 49.971212], [18.395272, 49.970288], [18.395725, 49.968919], [18.388456, 49.964339], [18.387883, 49.964685], [18.387011, 49.965077], [18.38628, 49.965311], [18.38158, 49.96865], [18.378742, 49.970353], [18.376165, 49.967839], [18.367896, 49.967021], [18.366551, 49.967854], [18.366096, 49.968189], [18.365659, 49.96849], [18.363621, 49.965522], [18.358581, 49.958124], [18.357951, 49.958188], [18.357497, 49.958194], [18.356907, 49.958153], [18.3563, 49.958043], [18.355841, 49.957898], [18.353579, 49.95685], [18.352937, 49.956679], [18.349606, 49.956482], [18.343193, 49.95818], [18.338671, 49.963397], [18.344442, 49.969671], [18.344997, 49.969682], [18.345775, 49.969671], [18.346475, 49.969715], [18.346249, 49.973308], [18.347798, 49.978742], [18.346493, 49.982097], [18.338209, 49.979763], [18.331799, 49.97817], [18.328857, 49.977645], [18.32028, 49.977524], [18.315608, 49.970869], [18.313689, 49.967856], [18.310114, 49.965519], [18.303917, 49.966669], [18.302211, 49.968254], [18.298981, 49.967773], [18.291067, 49.969255], [18.290091, 49.970244], [18.288034, 49.973199], [18.280623, 49.976043], [18.278658, 49.973027], [18.284632, 49.968019], [18.28637, 49.966652], [18.289115, 49.96623], [18.292343, 49.958604], [18.292165, 49.957588], [18.292363, 49.956829], [18.29242, 49.956717], [18.293558, 49.954312], [18.295558, 49.952215], [18.300182, 49.944914], [18.295769, 49.940454], [18.294604, 49.936641], [18.28824, 49.933935], [18.281933, 49.930845], [18.275347, 49.931365], [18.271718, 49.932287], [18.271058, 49.931409], [18.269121, 49.929005], [18.263027, 49.925991], [18.262475, 49.925889], [18.261818, 49.925703], [18.256974, 49.924136], [18.254056, 49.923879], [18.248987, 49.93103], [18.249477, 49.934596], [18.24674, 49.936325], [18.243794, 49.942979], [18.244108, 49.945303], [18.242934, 49.947435], [18.239804, 49.95159], [18.237815, 49.954019], [18.23758, 49.954338], [18.237131, 49.954767], [18.236861, 49.954952], [18.236536, 49.955145], [18.235606, 49.95566], [18.233355, 49.952851], [18.231378, 49.947432], [18.225763, 49.943272], [18.224764, 49.942716], [18.220189, 49.941049], [18.219716, 49.940882], [18.219303, 49.940657], [18.218837, 49.938966], [18.217842, 49.932649], [18.212037, 49.927886], [18.208237, 49.925884], [18.207583, 49.925793], [18.205063, 49.925811], [18.199789, 49.932126], [18.199877, 49.934118], [18.199736, 49.93516], [18.199614, 49.935614], [18.198822, 49.938], [18.197953, 49.940581], [18.197531, 49.941359], [18.196777, 49.942291], [18.195418, 49.944221], [18.195277, 49.944443], [18.192236, 49.942517], [18.193507, 49.934331], [18.192867, 49.930788], [18.188617, 49.923412], [18.188401, 49.919818], [18.191312, 49.919643], [18.193142, 49.911622], [18.191656, 49.910582], [18.189174, 49.910144], [18.187155, 49.907164], [18.178651, 49.905083], [18.176368, 49.906387], [18.174084, 49.907692], [18.1718, 49.908996], [18.169435, 49.910344], [18.169073, 49.910521], [18.168717, 49.910666], [18.168349, 49.910791], [18.163542, 49.91805], [18.162431, 49.921475], [18.159877, 49.926431], [18.159855, 49.926483], [18.154321, 49.92797], [18.150946, 49.926717], [18.143127, 49.927594], [18.139852, 49.926099], [18.134732, 49.925154], [18.131961, 49.926168], [18.131167, 49.933566], [18.136581, 49.93938], [18.137652, 49.939597], [18.141462, 49.941982], [18.14432, 49.943019], [18.145964, 49.943438], [18.148699, 49.943452], [18.149263, 49.943485], [18.150911, 49.943627], [18.150601, 49.947214], [18.143512, 49.947782], [18.143373, 49.947772], [18.136197, 49.945243], [18.134189, 49.947611], [18.13369, 49.948877], [18.133312, 49.949803], [18.13314, 49.950218], [18.13227, 49.952257], [18.128959, 49.950844], [18.126038, 49.948075], [18.125561, 49.947131], [18.119646, 49.942377], [18.116259, 49.942023], [18.111369, 49.939231], [18.108024, 49.937902], [18.101579, 49.936129], [18.097754, 49.935639], [18.08977, 49.939769], [18.089197, 49.94167], [18.088135, 49.945178], [18.087688, 49.946617], [18.087602, 49.946941], [18.085935, 49.947959], [18.085821, 49.947951], [18.084122, 49.946018], [18.083643, 49.941701], [18.084793, 49.93829], [18.083005, 49.930764], [18.079681, 49.926293], [18.075265, 49.924192], [18.069798, 49.927355], [18.066284, 49.928137], [18.061538, 49.925902], [18.053776, 49.928217], [18.05136, 49.930886], [18.047634, 49.937503], [18.050302, 49.939952], [18.0527, 49.942197], [18.052866, 49.942315], [18.055504, 49.943531], [18.058142, 49.944746], [18.058681, 49.944995], [18.057173, 49.948264], [18.056634, 49.948015], [18.053997, 49.9468], [18.051359, 49.945585], [18.050806, 49.945258], [18.047868, 49.942604], [18.0452, 49.940155], [18.042532, 49.937706], [18.039864, 49.935257], [18.033153, 49.933566], [18.030617, 49.937022], [18.030373, 49.93802], [18.030739, 49.946548], [18.032915, 49.948486], [18.034863, 49.949491], [18.039675, 49.95271], [18.04104, 49.953941], [18.042521, 49.956758], [18.043238, 49.957591], [18.04329, 49.957712], [18.042117, 49.959246], [18.040142, 49.967134], [18.041894, 49.969322], [18.039083, 49.971572], [18.037332, 49.969384], [18.029971, 49.96656], [18.026974, 49.967669], [18.025725, 49.964293], [18.029878, 49.957734], [18.028478, 49.949349], [18.026313, 49.947602], [18.019181, 49.944613], [18.015132, 49.943486], [18.010323, 49.949706], [18.006892, 49.950797], [17.998796, 49.948502], [17.997865, 49.949748], [17.994282, 49.949405], [17.994321, 49.948991], [17.994803, 49.947689], [17.996117, 49.946097], [17.996963, 49.943913], [17.997116, 49.943387], [17.995524, 49.935013], [17.988714, 49.936153], [17.986684, 49.936451], [17.984626, 49.936753], [17.981928, 49.937107], [17.97463, 49.939801], [17.972344, 49.944543], [17.971706, 49.946888], [17.971068, 49.949233], [17.969837, 49.952496], [17.967713, 49.954244], [17.965589, 49.955992], [17.963301, 49.953212], [17.965425, 49.951464], [17.967595, 49.948288], [17.962169, 49.942933], [17.95445, 49.940292], [17.953838, 49.940405], [17.951761, 49.940836], [17.951016, 49.940933], [17.950229, 49.941004], [17.943983, 49.942104], [17.942406, 49.942666], [17.934552, 49.939935], [17.931307, 49.941495], [17.931254, 49.941385], [17.930628, 49.939922], [17.930418, 49.939321], [17.926518, 49.932555], [17.925457, 49.929115], [17.917396, 49.926024], [17.915603, 49.928043], [17.915387, 49.928253], [17.914051, 49.929054], [17.913896, 49.929118], [17.913445, 49.929192], [17.913261, 49.929186], [17.912829, 49.929161], [17.91179, 49.928405], [17.909622, 49.925401], [17.909459, 49.924746], [17.90862, 49.922548], [17.905522, 49.918682], [17.904516, 49.916985], [17.896454, 49.919427], [17.893181, 49.920924], [17.889163, 49.915938], [17.888675, 49.912371], [17.883217, 49.905264], [17.881783, 49.902866], [17.881327, 49.902144], [17.880688, 49.900828], [17.878922, 49.897144], [17.873982, 49.892724], [17.866164, 49.890593], [17.862912, 49.89067], [17.862826, 49.887071], [17.862872, 49.880215], [17.862805, 49.877603], [17.863243, 49.876634], [17.857713, 49.869563], [17.857056, 49.869758], [17.856412, 49.869754], [17.855594, 49.869498], [17.849064, 49.869171], [17.848185, 49.869171], [17.843343, 49.870101], [17.841345, 49.870864], [17.840857, 49.870933], [17.839299, 49.86892], [17.839317, 49.868729], [17.840352, 49.867368], [17.842297, 49.865128], [17.843336, 49.864389], [17.844497, 49.864282], [17.847862, 49.856553], [17.843062, 49.851436], [17.841218, 49.850387], [17.840537, 49.849607], [17.840242, 49.848933], [17.835218, 49.841507], [17.833878, 49.840556], [17.831859, 49.83924], [17.831138, 49.838729], [17.833217, 49.835791], [17.834312, 49.836407], [17.835115, 49.836852], [17.838408, 49.838789], [17.840861, 49.839064], [17.842394, 49.83911], [17.845013, 49.839578], [17.849972, 49.8386], [17.851226, 49.837376], [17.851662, 49.836815], [17.852424, 49.836155], [17.85446, 49.833854], [17.850017, 49.827328], [17.845848, 49.827737], [17.842596, 49.826192], [17.842595, 49.825874], [17.84322, 49.824394], [17.846155, 49.819061], [17.846037, 49.817221], [17.845205, 49.813486], [17.836338, 49.812775], [17.83247, 49.812536], [17.83194, 49.812482], [17.83113, 49.812074], [17.830708, 49.811597], [17.829757, 49.810639], [17.821735, 49.806766], [17.816374, 49.807968], [17.815871, 49.808225], [17.815586, 49.808342], [17.81446, 49.808693], [17.807934, 49.810607], [17.805519, 49.81146], [17.800279, 49.811675], [17.798952, 49.811007], [17.798876, 49.810852], [17.798693, 49.810317], [17.799192, 49.808243], [17.799667, 49.806968], [17.803086, 49.804921], [17.80558, 49.802384], [17.811537, 49.80522], [17.814788, 49.80306], [17.815746, 49.802644], [17.816498, 49.802514], [17.818175, 49.802642], [17.818993, 49.802692], [17.819878, 49.802727], [17.823584, 49.803069], [17.830436, 49.801138], [17.833218, 49.80097], [17.83356, 49.80113], [17.834123, 49.801363], [17.834568, 49.801509], [17.83493, 49.801612], [17.83539, 49.801721], [17.835766, 49.801792], [17.836784, 49.801917], [17.837445, 49.80194], [17.837854, 49.801943], [17.838243, 49.801933], [17.839128, 49.801875], [17.839622, 49.801814], [17.840148, 49.801732], [17.841141, 49.801521], [17.845898, 49.795194], [17.843155, 49.790216], [17.840265, 49.788887], [17.839509, 49.788704], [17.837261, 49.787002], [17.829186, 49.78736], [17.825457, 49.786572], [17.825166, 49.786402], [17.817902, 49.785571], [17.815856, 49.785991], [17.813539, 49.786794], [17.812699, 49.786606], [17.812075, 49.786516], [17.811108, 49.786431], [17.810499, 49.786413], [17.809732, 49.786429], [17.802426, 49.790618], [17.798299, 49.795409], [17.796654, 49.794646], [17.792788, 49.793465], [17.786173, 49.798021], [17.786313, 49.799919], [17.786383, 49.801661], [17.786825, 49.803584], [17.785904, 49.804645], [17.783749, 49.805701], [17.782647, 49.806151], [17.777922, 49.808279], [17.772266, 49.811049], [17.768787, 49.811974], [17.76856, 49.81112], [17.768497, 49.81074], [17.76723, 49.807532], [17.759947, 49.806388], [17.759248, 49.806784], [17.758574, 49.806992], [17.757771, 49.807273], [17.754749, 49.809345], [17.751196, 49.809928], [17.751123, 49.809485], [17.750762, 49.806584], [17.750038, 49.803057], [17.747987, 49.797898], [17.747622, 49.797373], [17.747307, 49.796707], [17.747143, 49.795891], [17.745921, 49.79288], [17.737777, 49.791445], [17.736747, 49.80006], [17.737867, 49.803181], [17.738031, 49.803424], [17.735928, 49.806696], [17.733789, 49.809592], [17.732464, 49.808613], [17.731572, 49.807876], [17.73075, 49.807065], [17.725563, 49.800268], [17.724316, 49.800626], [17.722731, 49.801686], [17.721764, 49.802227], [17.720538, 49.80276], [17.719817, 49.803146], [17.718534, 49.804129], [17.716504, 49.806436], [17.712935, 49.806906], [17.712714, 49.805961], [17.712559, 49.805077], [17.7124, 49.803035], [17.710848, 49.795123], [17.710807, 49.794733], [17.709448, 49.790191], [17.703851, 49.788412], [17.702346, 49.788698], [17.700105, 49.78916], [17.699011, 49.789407], [17.693837, 49.791469], [17.689118, 49.792316], [17.687149, 49.7927], [17.686133, 49.789247], [17.689556, 49.788239], [17.693018, 49.780406], [17.694339, 49.778494], [17.695854, 49.778189], [17.696371, 49.778704], [17.704998, 49.780046], [17.705623, 49.779665], [17.70607, 49.77982], [17.713052, 49.783509], [17.715793, 49.783319], [17.718465, 49.783135], [17.721031, 49.782985], [17.723342, 49.78285], [17.724452, 49.78273], [17.725028, 49.78263], [17.725918, 49.782403], [17.726515, 49.782187], [17.727746, 49.781637], [17.730056, 49.780583], [17.731359, 49.78002], [17.732547, 49.779657], [17.733646, 49.779419], [17.735521, 49.779148], [17.736497, 49.778981], [17.737122, 49.778808], [17.738186, 49.778448], [17.743929, 49.773788], [17.739771, 49.766205], [17.73536, 49.767715], [17.734315, 49.767961], [17.732141, 49.768701], [17.731475, 49.769159], [17.730018, 49.770089], [17.728603, 49.770778], [17.727026, 49.767542], [17.726208, 49.760408], [17.720542, 49.757244], [17.719762, 49.753729], [17.721917, 49.752953], [17.722573, 49.752863], [17.724821, 49.752146], [17.729048, 49.744614], [17.729125, 49.744503], [17.730743, 49.743927], [17.730962, 49.743989], [17.734585, 49.74477], [17.735579, 49.744901], [17.742795, 49.741854], [17.742998, 49.735567], [17.743823, 49.732063], [17.743295, 49.727232], [17.736451, 49.721745], [17.731527, 49.723644], [17.730773, 49.724399], [17.729522, 49.725758], [17.7287, 49.726554], [17.728053, 49.726872], [17.727274, 49.726972], [17.72031, 49.730093], [17.719542, 49.729113], [17.712059, 49.724832], [17.711568, 49.724763], [17.707623, 49.724138], [17.705107, 49.724071], [17.704526, 49.723942], [17.703914, 49.723698], [17.702465, 49.723123], [17.693527, 49.722732], [17.69251, 49.722568], [17.691688, 49.722438], [17.690935, 49.722263], [17.69041, 49.722073], [17.68929, 49.721188], [17.684304, 49.715872], [17.683974, 49.715509], [17.683684, 49.715012], [17.683502, 49.714329], [17.682809, 49.712527], [17.682134, 49.711468], [17.674152, 49.708522], [17.67399, 49.708506], [17.667907, 49.709241], [17.666997, 49.709475], [17.666236, 49.709554], [17.665348, 49.709545], [17.663894, 49.709364], [17.661588, 49.708908], [17.660849, 49.704973], [17.6612, 49.698142], [17.658815, 49.695445], [17.654187, 49.690733], [17.647538, 49.687877], [17.64469, 49.689247], [17.64258, 49.689179], [17.641987, 49.689162], [17.640658, 49.689033], [17.639052, 49.688622], [17.637315, 49.688121], [17.635736, 49.687657], [17.635444, 49.687592], [17.628344, 49.692972], [17.628092, 49.694227], [17.626026, 49.695727], [17.624487, 49.695404], [17.617606, 49.692607], [17.60899, 49.690087], [17.606893, 49.68716], [17.600488, 49.681307], [17.598137, 49.684445], [17.598003, 49.685315], [17.596066, 49.688349], [17.590776, 49.689498], [17.587638, 49.687734], [17.588831, 49.685613], [17.589776, 49.684451], [17.591095, 49.683253], [17.59199, 49.682385], [17.592542, 49.682012], [17.593976, 49.68107], [17.595113, 49.680376], [17.597316, 49.679058], [17.598493, 49.678284], [17.59959, 49.677557], [17.598128, 49.669007], [17.59761, 49.668723], [17.596773, 49.667896], [17.590326, 49.66355], [17.586782, 49.663895], [17.585927, 49.664187], [17.585142, 49.664267], [17.584353, 49.664186], [17.582871, 49.663772], [17.581981, 49.663334], [17.576875, 49.661777], [17.574716, 49.661537], [17.573281, 49.661462], [17.573469, 49.657867], [17.574905, 49.657942], [17.576093, 49.65795], [17.582026, 49.655504], [17.582822, 49.654129], [17.579502, 49.646125], [17.578314, 49.646035], [17.577542, 49.646], [17.576752, 49.64594], [17.574985, 49.645943], [17.572627, 49.646107], [17.572101, 49.646123], [17.569685, 49.646757], [17.565803, 49.652553], [17.56242, 49.653785], [17.554792, 49.655899], [17.553931, 49.659395], [17.547776, 49.660874], [17.539751, 49.6603], [17.536298, 49.65928], [17.532928, 49.651625], [17.531523, 49.644179], [17.52857, 49.643274], [17.526344, 49.641943], [17.525704, 49.641659], [17.520895, 49.640292], [17.518074, 49.640078], [17.518346, 49.636488], [17.521168, 49.636702], [17.523989, 49.636916], [17.524966, 49.6372], [17.531277, 49.631109], [17.53471, 49.630208], [17.537059, 49.630191], [17.537758, 49.63004], [17.538674, 49.629946], [17.543628, 49.622957], [17.541366, 49.62039], [17.542489, 49.611864], [17.538931, 49.611322], [17.538737, 49.610963], [17.53553, 49.606224], [17.532549, 49.602015], [17.527763, 49.59914], [17.527154, 49.598484], [17.526678, 49.597867], [17.518859, 49.593695], [17.51643, 49.591038], [17.516788, 49.585419], [17.516523, 49.584528], [17.512277, 49.580332], [17.511232, 49.57979], [17.50393, 49.584241], [17.503067, 49.584466], [17.501429, 49.584925], [17.498191, 49.585998], [17.493612, 49.586787], [17.485998, 49.589132], [17.483116, 49.592104], [17.482485, 49.592636], [17.477512, 49.595568], [17.475051, 49.60398], [17.476052, 49.606805], [17.47678, 49.608366], [17.477001, 49.60887], [17.480142, 49.612661], [17.487437, 49.613274], [17.490112, 49.610865], [17.493182, 49.61101], [17.495359, 49.611203], [17.49553, 49.613738], [17.495225, 49.6148], [17.492226, 49.61955], [17.497384, 49.624782], [17.49752, 49.628379], [17.496643, 49.628412], [17.495972, 49.628391], [17.49484, 49.628169], [17.486916, 49.626524], [17.486343, 49.626295], [17.479374, 49.624929], [17.47441, 49.627399], [17.472298, 49.626649], [17.472063, 49.62546], [17.472145, 49.62492], [17.472285, 49.624097], [17.472333, 49.623921], [17.4731, 49.62314], [17.473701, 49.62283], [17.474319, 49.622446], [17.475053, 49.613725], [17.474497, 49.613092], [17.474048, 49.612171], [17.47192, 49.607688], [17.471485, 49.605949], [17.470667, 49.603215], [17.470158, 49.600796], [17.470066, 49.599167], [17.469529, 49.596462], [17.469112, 49.595399], [17.461808, 49.592573], [17.459979, 49.595673], [17.458841, 49.595506], [17.455774, 49.595249], [17.453329, 49.594506], [17.452744, 49.59431], [17.452156, 49.594103], [17.451513, 49.593888], [17.450885, 49.59367], [17.444427, 49.595841], [17.445946, 49.603234], [17.449104, 49.607056], [17.449353, 49.607195], [17.44945, 49.60732], [17.449321, 49.607438], [17.448464, 49.608032], [17.446689, 49.607383], [17.43904, 49.610912], [17.438098, 49.612511], [17.437389, 49.612736], [17.435277, 49.613513], [17.43353, 49.61407], [17.43172, 49.614647], [17.427606, 49.62169], [17.427981, 49.625266], [17.427111, 49.631971], [17.426001, 49.635395], [17.420619, 49.641929], [17.422045, 49.645235], [17.421715, 49.645377], [17.419663, 49.645649], [17.419299, 49.645713], [17.413404, 49.650894], [17.413099, 49.652666], [17.411914, 49.655895], [17.411699, 49.656577], [17.411169, 49.657896], [17.409821, 49.658486], [17.409524, 49.65848], [17.407626, 49.657259], [17.407728, 49.656691], [17.40797, 49.651811], [17.405117, 49.646917], [17.396533, 49.64427], [17.389931, 49.644649], [17.388911, 49.644661], [17.383651, 49.645374], [17.379386, 49.644105], [17.371687, 49.64386], [17.368488, 49.643216], [17.368532, 49.641414], [17.368533, 49.639617], [17.368819, 49.637826], [17.366297, 49.631495], [17.36051, 49.631686], [17.355121, 49.633041], [17.35442, 49.633245], [17.349958, 49.634187], [17.34474, 49.633022], [17.339623, 49.633757], [17.339412, 49.633754], [17.339382, 49.633748], [17.331825, 49.636361], [17.331261, 49.638355], [17.33082, 49.63976], [17.329744, 49.641453], [17.324458, 49.647494], [17.323227, 49.647408], [17.322814, 49.647337], [17.315511, 49.645231], [17.314624, 49.644539], [17.314284, 49.643524], [17.311067, 49.63974], [17.30555, 49.63947], [17.304711, 49.63691], [17.304678, 49.63677], [17.305917, 49.634152], [17.305999, 49.634142], [17.307117, 49.634425], [17.307495, 49.634523], [17.309989, 49.635472], [17.314403, 49.635282], [17.318765, 49.635156], [17.322195, 49.63344], [17.320843, 49.625615], [17.315722, 49.624267], [17.313845, 49.624079], [17.313364, 49.623974], [17.312919, 49.623811], [17.312591, 49.623649], [17.310505, 49.622507], [17.303206, 49.622839], [17.299773, 49.621366], [17.292439, 49.617722], [17.292348, 49.617676], [17.290294, 49.616609], [17.289912, 49.616407], [17.283783, 49.61337], [17.280992, 49.609818], [17.278269, 49.606314], [17.271605, 49.607605], [17.270556, 49.608059], [17.270133, 49.608072], [17.269759, 49.608056], [17.262577, 49.607066], [17.261297, 49.603702], [17.259097, 49.600486], [17.258878, 49.59799], [17.256207, 49.59054], [17.249071, 49.592497], [17.248517, 49.592932], [17.247669, 49.592796], [17.243307, 49.592059], [17.236602, 49.596828], [17.235308, 49.599477], [17.23451, 49.60236], [17.234238, 49.602915], [17.230617, 49.607681], [17.230335, 49.608133], [17.230217, 49.608271], [17.229165, 49.608695], [17.22914, 49.608703], [17.220478, 49.610142], [17.21933, 49.610129], [17.213347, 49.608997], [17.209932, 49.612064], [17.206555, 49.613318], [17.201293, 49.615095], [17.198865, 49.615904], [17.198661, 49.615961], [17.19612, 49.616419], [17.189362, 49.618306], [17.18327, 49.621376], [17.181311, 49.62352], [17.177662, 49.631176], [17.178229, 49.639233], [17.177359, 49.641173], [17.176914, 49.641375], [17.175709, 49.641804], [17.173289, 49.640715], [17.167321, 49.638482], [17.165581, 49.63533], [17.158247, 49.633548], [17.155867, 49.634815], [17.153487, 49.636082], [17.150181, 49.637842], [17.148061, 49.639458], [17.147207, 49.639924], [17.143267, 49.641671], [17.13541, 49.645823], [17.134103, 49.646744], [17.133213, 49.647303], [17.132002, 49.648024], [17.13004, 49.649158], [17.128078, 49.650291], [17.126116, 49.651425], [17.124152, 49.652559], [17.12138, 49.654157], [17.118608, 49.655754], [17.115836, 49.657351], [17.113063, 49.658949], [17.110741, 49.660287], [17.108419, 49.661624], [17.106622, 49.658505]]], "type": "Polygon"}}], "metadata": {"attribution": "openrouteservice.org | OpenStreetMap contributors", "service": "isochrones", "timestamp": 1785691423260, "query": {"profile": "driving-car", "profileName": "driving-car", "locations": [[18.1351564, 49.5887553]], "range": [3600.0], "range_type": "time"}, "engine": {"version": "9.9.0", "build_date": "2026-06-12T10:08:58Z", "graph_date": "2026-07-26T12:04:00Z", "osm_date": "2026-07-20T00:00:00Z"}}}