{"type": "FeatureCollection", "bbox": [14.705178, 48.970633, 16.75939, 49.920463], "features": [{"type": "Feature", "properties": {"group_index": 0, "value": 3600.0, "center": [15.59228229849928, 49.39617343236787]}, "geometry": {"coordinates": [[[14.706369, 49.916731], [14.708515, 49.914671], [14.709454, 49.913805], [14.710038, 49.913398], [14.71048, 49.913111], [14.711138, 49.91272], [14.712439, 49.912038], [14.713184, 49.911692], [14.714372, 49.911218], [14.715574, 49.910804], [14.716788, 49.910462], [14.718069, 49.910159], [14.720076, 49.909764], [14.722018, 49.909382], [14.723347, 49.909092], [14.724303, 49.908848], [14.726873, 49.90802], [14.733662, 49.903813], [14.735008, 49.902551], [14.736537, 49.901108], [14.738071, 49.899662], [14.740077, 49.89777], [14.741454, 49.89647], [14.742831, 49.89517], [14.743771, 49.894334], [14.744765, 49.893487], [14.746288, 49.892279], [14.74715, 49.891649], [14.748906, 49.890426], [14.750631, 49.889227], [14.754819, 49.883924], [14.755373, 49.880987], [14.755571, 49.880226], [14.755839, 49.879404], [14.756373, 49.878225], [14.756954, 49.877219], [14.757516, 49.87643], [14.7581, 49.875748], [14.759768, 49.874135], [14.760323, 49.873689], [14.760969, 49.873236], [14.761149, 49.864505], [14.757995, 49.856168], [14.755576, 49.855441], [14.74931, 49.854485], [14.748932, 49.854522], [14.748515, 49.854513], [14.748155, 49.854462], [14.746827, 49.854161], [14.747624, 49.85065], [14.752453, 49.844899], [14.753626, 49.841495], [14.755454, 49.842125], [14.757281, 49.842755], [14.758428, 49.84305], [14.766443, 49.840864], [14.767177, 49.840389], [14.767913, 49.840115], [14.773356, 49.844377], [14.780863, 49.844687], [14.781994, 49.844279], [14.782832, 49.844091], [14.790208, 49.841517], [14.791911, 49.841188], [14.793352, 49.840742], [14.794914, 49.840217], [14.79694, 49.840027], [14.800273, 49.837019], [14.795969, 49.831019], [14.793216, 49.831082], [14.791037, 49.831841], [14.787535, 49.829547], [14.779834, 49.825511], [14.773247, 49.825789], [14.772096, 49.826325], [14.769868, 49.823498], [14.775122, 49.819173], [14.775245, 49.819201], [14.778295, 49.820091], [14.77892, 49.820242], [14.782205, 49.820685], [14.783443, 49.821131], [14.784132, 49.821361], [14.784665, 49.821485], [14.792082, 49.816853], [14.79957, 49.812125], [14.802906, 49.811103], [14.80317, 49.811395], [14.803557, 49.812189], [14.803505, 49.814493], [14.80391, 49.81664], [14.811968, 49.820341], [14.812415, 49.820104], [14.813025, 49.81985], [14.813817, 49.821677], [14.814238, 49.822351], [14.814403, 49.822646], [14.816918, 49.827125], [14.821892, 49.831451], [14.825416, 49.830906], [14.826429, 49.83077], [14.827544, 49.830682], [14.829488, 49.830006], [14.831275, 49.829072], [14.830382, 49.82042], [14.829787, 49.81988], [14.829387, 49.818743], [14.828048, 49.813449], [14.828646, 49.809899], [14.831683, 49.81041], [14.832345, 49.810647], [14.832548, 49.810902], [14.834344, 49.813548], [14.834995, 49.814234], [14.835291, 49.815158], [14.837417, 49.818483], [14.838086, 49.819379], [14.844264, 49.820974], [14.844748, 49.820904], [14.845124, 49.820878], [14.845375, 49.824469], [14.848691, 49.832392], [14.851028, 49.831829], [14.85158, 49.831673], [14.852106, 49.831492], [14.853482, 49.830782], [14.855562, 49.829381], [14.858101, 49.827446], [14.859344, 49.82598], [14.859671, 49.825645], [14.862072, 49.8234], [14.861738, 49.814951], [14.854349, 49.813138], [14.853184, 49.813047], [14.852339, 49.812857], [14.850849, 49.812115], [14.847741, 49.810621], [14.847108, 49.810564], [14.84648, 49.81052], [14.844153, 49.810026], [14.843999, 49.80986], [14.843964, 49.80973], [14.844259, 49.808696], [14.8443, 49.808597], [14.847442, 49.808802], [14.851444, 49.808565], [14.855034, 49.801477], [14.85187, 49.795743], [14.851776, 49.79568], [14.846101, 49.789171], [14.84378, 49.788949], [14.838632, 49.790083], [14.832534, 49.794552], [14.829199, 49.793197], [14.827506, 49.789785], [14.820523, 49.7888], [14.81433, 49.78401], [14.815288, 49.78054], [14.818226, 49.781351], [14.824969, 49.780022], [14.825698, 49.779847], [14.826323, 49.779792], [14.831708, 49.781589], [14.832126, 49.781961], [14.837666, 49.785342], [14.83927, 49.785166], [14.843786, 49.778381], [14.84553, 49.775232], [14.847717, 49.77435], [14.854844, 49.777804], [14.858447, 49.779783], [14.864675, 49.785225], [14.866778, 49.783723], [14.868281, 49.780452], [14.86929, 49.781261], [14.869747, 49.78156], [14.877128, 49.779854], [14.87267, 49.772411], [14.869653, 49.770038], [14.869773, 49.76644], [14.868415, 49.761311], [14.867543, 49.758699], [14.867623, 49.758566], [14.868337, 49.757712], [14.869126, 49.757695], [14.87561, 49.756435], [14.879723, 49.753355], [14.880563, 49.753277], [14.88101, 49.753244], [14.888308, 49.752319], [14.890661, 49.753522], [14.891391, 49.757048], [14.890063, 49.761231], [14.897892, 49.764188], [14.899925, 49.762637], [14.901141, 49.761775], [14.902219, 49.761412], [14.903365, 49.764825], [14.904161, 49.770259], [14.909957, 49.772735], [14.911444, 49.773196], [14.91838, 49.770109], [14.918875, 49.76942], [14.918012, 49.762112], [14.914635, 49.760733], [14.913589, 49.760755], [14.912892, 49.760796], [14.912684, 49.757202], [14.915448, 49.754881], [14.918276, 49.754793], [14.918991, 49.754672], [14.919078, 49.754675], [14.923383, 49.753034], [14.921261, 49.745233], [14.9174, 49.745409], [14.916941, 49.744887], [14.916566, 49.744038], [14.91697, 49.74239], [14.917416, 49.741993], [14.917647, 49.741808], [14.919026, 49.740436], [14.922301, 49.735149], [14.918027, 49.728853], [14.915781, 49.728227], [14.915644, 49.727889], [14.91586, 49.726711], [14.916887, 49.72466], [14.912079, 49.717756], [14.911709, 49.717535], [14.91137, 49.717256], [14.910883, 49.716667], [14.90724, 49.713526], [14.906847, 49.713299], [14.905868, 49.712817], [14.904622, 49.71236], [14.903951, 49.712218], [14.897505, 49.714613], [14.89615, 49.717742], [14.89422, 49.718815], [14.892548, 49.718866], [14.892496, 49.718849], [14.891033, 49.717142], [14.883878, 49.714376], [14.882862, 49.710876], [14.88504, 49.709185], [14.885969, 49.70872], [14.887502, 49.708128], [14.893027, 49.7017], [14.893435, 49.701406], [14.894988, 49.700167], [14.898266, 49.696085], [14.899372, 49.694259], [14.899431, 49.685922], [14.905676, 49.680769], [14.909226, 49.680172], [14.915823, 49.678973], [14.923425, 49.676695], [14.929037, 49.672507], [14.926141, 49.667393], [14.923599, 49.665891], [14.920501, 49.665809], [14.919159, 49.665738], [14.918496, 49.66566], [14.91764, 49.665512], [14.91698, 49.665378], [14.915926, 49.665096], [14.910078, 49.66661], [14.90788, 49.666183], [14.905624, 49.66578], [14.904973, 49.66579], [14.90392, 49.66578], [14.903224, 49.66575], [14.901243, 49.665603], [14.901509, 49.662013], [14.903491, 49.66216], [14.904067, 49.662183], [14.905004, 49.66219], [14.908188, 49.661786], [14.910602, 49.661204], [14.911076, 49.661128], [14.912185, 49.661092], [14.913398, 49.661141], [14.914066, 49.661205], [14.918895, 49.653854], [14.919175, 49.65033], [14.922569, 49.64913], [14.920897, 49.640432], [14.919298, 49.640351], [14.918513, 49.640364], [14.918078, 49.640387], [14.917497, 49.640477], [14.915689, 49.640868], [14.913882, 49.641259], [14.91312, 49.637741], [14.914928, 49.63735], [14.916735, 49.636958], [14.91751, 49.636832], [14.918263, 49.636772], [14.919231, 49.636752], [14.92107, 49.636836], [14.923433, 49.63695], [14.925797, 49.637064], [14.92752, 49.63697], [14.93448, 49.631847], [14.93508, 49.628253], [14.936059, 49.628612], [14.937242, 49.629217], [14.938065, 49.629863], [14.945432, 49.630306], [14.947582, 49.627968], [14.948093, 49.627469], [14.947005, 49.618763], [14.944687, 49.617797], [14.941721, 49.617789], [14.940919, 49.617765], [14.940283, 49.617698], [14.939746, 49.617601], [14.937389, 49.617044], [14.935058, 49.616493], [14.932861, 49.616007], [14.931515, 49.615835], [14.930896, 49.615828], [14.929392, 49.615841], [14.923347, 49.615094], [14.916403, 49.618385], [14.913902, 49.620975], [14.912557, 49.619676], [14.904462, 49.619093], [14.903883, 49.619438], [14.903019, 49.619786], [14.901671, 49.616448], [14.899852, 49.610572], [14.900076, 49.61], [14.902475, 49.605967], [14.908127, 49.604648], [14.916136, 49.604138], [14.919032, 49.603326], [14.919396, 49.603246], [14.921397, 49.60288], [14.922458, 49.602705], [14.923091, 49.602663], [14.924658, 49.602685], [14.927261, 49.594386], [14.926844, 49.593946], [14.926469, 49.592748], [14.926489, 49.592336], [14.926577, 49.592109], [14.926798, 49.591797], [14.929633, 49.591679], [14.936414, 49.586353], [14.935876, 49.583962], [14.935724, 49.58029], [14.937078, 49.576954], [14.943786, 49.572166], [14.94729, 49.56989], [14.947337, 49.560952], [14.944768, 49.55843], [14.946358, 49.55681], [14.947947, 49.555191], [14.946462, 49.546709], [14.943978, 49.544104], [14.946143, 49.540177], [14.947381, 49.538441], [14.947669, 49.538214], [14.949376, 49.538274], [14.949478, 49.538347], [14.951201, 49.540077], [14.958605, 49.535803], [14.958794, 49.535366], [14.960366, 49.534251], [14.960875, 49.533871], [14.961228, 49.533682], [14.964953, 49.530505], [14.965511, 49.529983], [14.967861, 49.528919], [14.966816, 49.520843], [14.963374, 49.519468], [14.961325, 49.519664], [14.960807, 49.519372], [14.961044, 49.516724], [14.961213, 49.51658], [14.962575, 49.516236], [14.964674, 49.516208], [14.966026, 49.516048], [14.966663, 49.516079], [14.967023, 49.516145], [14.967645, 49.516384], [14.967998, 49.516592], [14.976132, 49.512831], [14.970722, 49.506558], [14.967186, 49.506664], [14.966769, 49.506735], [14.965673, 49.506893], [14.964905, 49.503376], [14.965407, 49.503266], [14.969292, 49.500762], [14.969873, 49.499978], [14.972536, 49.499587], [14.973053, 49.499603], [14.976992, 49.499518], [14.978978, 49.498865], [14.979777, 49.498538], [14.981593, 49.497427], [14.982835, 49.495951], [14.98453, 49.492135], [14.984837, 49.491109], [14.977816, 49.486085], [14.97716, 49.486494], [14.974754, 49.487681], [14.97392, 49.487977], [14.971941, 49.488597], [14.969962, 49.489216], [14.96873, 49.489593], [14.964511, 49.491056], [14.963182, 49.491719], [14.963078, 49.491723], [14.96153, 49.489037], [14.961616, 49.488911], [14.962286, 49.488278], [14.963299, 49.487343], [14.963936, 49.487394], [14.967328, 49.486277], [14.969565, 49.485352], [14.970865, 49.485161], [14.972845, 49.484542], [14.975615, 49.480408], [14.969905, 49.47494], [14.969141, 49.47501], [14.968496, 49.475055], [14.96797, 49.475145], [14.965244, 49.475851], [14.964578, 49.476284], [14.963413, 49.476672], [14.962175, 49.477037], [14.961695, 49.477202], [14.960245, 49.476685], [14.957438, 49.475796], [14.956861, 49.475744], [14.955993, 49.475521], [14.955138, 49.475097], [14.954011, 49.474464], [14.952802, 49.473711], [14.953766, 49.470242], [14.953932, 49.470289], [14.954337, 49.470447], [14.955914, 49.471408], [14.960028, 49.472286], [14.962956, 49.472392], [14.963622, 49.47238], [14.964332, 49.472338], [14.964806, 49.472278], [14.967046, 49.471666], [14.967851, 49.471513], [14.969972, 49.462843], [14.966533, 49.459585], [14.963479, 49.458684], [14.964498, 49.455231], [14.958077, 49.449586], [14.95508, 49.451581], [14.954823, 49.451195], [14.95457, 49.450669], [14.954315, 49.448516], [14.954155, 49.44757], [14.949295, 49.441035], [14.946669, 49.438572], [14.946529, 49.43525], [14.94821, 49.434134], [14.947708, 49.427009], [14.942111, 49.427163], [14.939434, 49.427987], [14.938817, 49.428121], [14.936781, 49.428325], [14.934655, 49.428536], [14.929473, 49.435604], [14.926203, 49.437109], [14.919348, 49.438969], [14.914184, 49.436927], [14.905923, 49.438268], [14.903202, 49.438346], [14.89808, 49.43517], [14.893897, 49.435629], [14.891959, 49.434928], [14.891995, 49.431328], [14.894113, 49.431218], [14.894494, 49.431235], [14.894852, 49.431279], [14.896204, 49.431406], [14.898372, 49.431581], [14.900475, 49.431752], [14.907828, 49.42717], [14.910799, 49.428139], [14.913906, 49.427838], [14.914816, 49.427457], [14.914412, 49.418761], [14.913822, 49.418473], [14.911567, 49.417628], [14.911011, 49.417313], [14.910343, 49.416689], [14.910078, 49.416277], [14.909806, 49.415588], [14.909732, 49.415067], [14.909838, 49.41416], [14.910202, 49.413094], [14.911864, 49.412861], [14.91824, 49.416094], [14.920654, 49.416396], [14.9217, 49.416601], [14.923459, 49.417045], [14.926136, 49.417662], [14.928851, 49.418289], [14.929319, 49.418414], [14.929791, 49.418584], [14.930568, 49.418935], [14.933011, 49.419493], [14.933549, 49.419492], [14.93458, 49.419435], [14.939424, 49.412584], [14.937472, 49.405889], [14.937873, 49.402311], [14.946251, 49.4008], [14.947256, 49.400104], [14.948988, 49.401701], [14.957161, 49.399287], [14.959196, 49.398769], [14.960747, 49.398354], [14.962155, 49.398089], [14.962842, 49.397996], [14.965892, 49.389564], [14.966555, 49.389247], [14.97094, 49.38974], [14.975045, 49.383823], [14.972941, 49.38075], [14.972493, 49.380385], [14.967248, 49.378097], [14.963941, 49.379074], [14.960754, 49.377007], [14.959503, 49.374196], [14.958558, 49.372401], [14.958579, 49.372267], [14.958665, 49.371928], [14.958842, 49.371438], [14.960263, 49.370677], [14.963669, 49.369818], [14.966927, 49.369184], [14.967712, 49.369162], [14.970104, 49.369242], [14.970429, 49.36933], [14.976094, 49.373116], [14.979194, 49.371558], [14.979897, 49.371078], [14.982283, 49.368253], [14.982742, 49.367774], [14.983669, 49.367104], [14.985691, 49.365786], [14.98825, 49.363897], [14.990388, 49.366793], [14.993352, 49.372199], [14.998346, 49.372596], [15.000448, 49.365761], [15.002489, 49.363513], [15.003134, 49.363364], [15.004682, 49.363547], [15.005776, 49.367064], [15.008523, 49.370184], [15.00898, 49.370509], [15.009556, 49.371102], [15.018477, 49.371482], [15.019014, 49.37066], [15.01952, 49.370168], [15.020225, 49.369339], [15.022717, 49.366251], [15.023139, 49.365759], [15.023644, 49.365371], [15.024063, 49.365031], [15.024527, 49.36499], [15.029463, 49.363737], [15.035808, 49.358793], [15.036343, 49.354859], [15.036671, 49.351274], [15.04278, 49.34693], [15.043582, 49.344868], [15.044919, 49.341525], [15.048192, 49.33835], [15.056247, 49.338362], [15.060029, 49.330395], [15.061439, 49.324642], [15.061453, 49.324597], [15.061722, 49.32443], [15.062828, 49.324082], [15.068081, 49.317796], [15.068087, 49.317117], [15.060524, 49.312341], [15.059936, 49.312616], [15.057983, 49.313601], [15.057304, 49.313783], [15.056935, 49.313809], [15.052683, 49.314658], [15.051333, 49.315295], [15.051093, 49.315418], [15.046852, 49.317017], [15.045124, 49.317912], [15.044406, 49.318257], [15.043425, 49.318646], [15.042248, 49.31915], [15.041176, 49.31957], [15.039933, 49.320025], [15.038274, 49.31683], [15.032126, 49.311127], [15.026417, 49.311621], [15.023465, 49.313681], [15.020917, 49.315166], [15.018085, 49.312944], [15.019983, 49.3073], [15.019765, 49.303707], [15.019994, 49.303693], [15.02031, 49.303752], [15.022144, 49.3054], [15.02611, 49.305986], [15.030098, 49.299766], [15.030627, 49.299189], [15.03123, 49.298565], [15.032669, 49.297307], [15.033089, 49.296937], [15.035468, 49.299639], [15.041199, 49.300968], [15.04167, 49.301031], [15.041911, 49.301087], [15.042715, 49.30129], [15.043686, 49.301559], [15.044213, 49.301662], [15.050165, 49.296181], [15.048117, 49.293374], [15.044725, 49.289682], [15.042339, 49.286986], [15.043114, 49.2863], [15.04348, 49.286013], [15.043784, 49.28581], [15.046332, 49.284466], [15.046756, 49.284291], [15.049746, 49.283032], [15.053053, 49.281609], [15.057633, 49.282298], [15.059355, 49.282045], [15.059764, 49.282017], [15.061245, 49.2819], [15.063957, 49.273947], [15.060973, 49.268337], [15.06061, 49.264755], [15.061038, 49.264712], [15.061917, 49.264752], [15.063462, 49.265002], [15.064247, 49.265277], [15.071417, 49.261927], [15.071826, 49.260311], [15.07188, 49.259632], [15.075478, 49.259524], [15.077327, 49.262461], [15.077208, 49.263134], [15.076909, 49.263893], [15.075714, 49.265197], [15.07422, 49.266591], [15.073825, 49.266873], [15.072426, 49.268346], [15.075611, 49.276364], [15.076378, 49.276606], [15.077129, 49.27732], [15.077588, 49.278037], [15.077849, 49.278543], [15.077795, 49.282728], [15.086279, 49.283753], [15.08678, 49.283354], [15.087035, 49.283214], [15.088531, 49.282497], [15.089464, 49.282201], [15.091421, 49.281404], [15.092146, 49.281261], [15.097199, 49.280261], [15.099588, 49.279172], [15.104521, 49.277523], [15.104977, 49.277273], [15.105958, 49.276935], [15.106368, 49.276787], [15.107, 49.27668], [15.107603, 49.27675], [15.113195, 49.27592], [15.116237, 49.275179], [15.117017, 49.275014], [15.1186, 49.274797], [15.119309, 49.274567], [15.120014, 49.274316], [15.120377, 49.274219], [15.120652, 49.274165], [15.121247, 49.274124], [15.121701, 49.274129], [15.122516, 49.274173], [15.123009, 49.274245], [15.123669, 49.274401], [15.125587, 49.274895], [15.12588, 49.274989], [15.126462, 49.275297], [15.131572, 49.276135], [15.133581, 49.275419], [15.135801, 49.274658], [15.138001, 49.273903], [15.138752, 49.273709], [15.140612, 49.273305], [15.142418, 49.272914], [15.14543, 49.272184], [15.148544, 49.271473], [15.15293, 49.268721], [15.15393, 49.268515], [15.156024, 49.268191], [15.156792, 49.268022], [15.159805, 49.266936], [15.162275, 49.265096], [15.159005, 49.257475], [15.156642, 49.257768], [15.154392, 49.258043], [15.154103, 49.258091], [15.151999, 49.258659], [15.151462, 49.258702], [15.14615, 49.261268], [15.144745, 49.26052], [15.139267, 49.25673], [15.135443, 49.257175], [15.132384, 49.257812], [15.127788, 49.262318], [15.124211, 49.262731], [15.117297, 49.262046], [15.108679, 49.260302], [15.105269, 49.259148], [15.105568, 49.25816], [15.106074, 49.257196], [15.104164, 49.249197], [15.105696, 49.24594], [15.103425, 49.237253], [15.103535, 49.233654], [15.108154, 49.226617], [15.103821, 49.223305], [15.103686, 49.223274], [15.10091, 49.223118], [15.100485, 49.223022], [15.10007, 49.22287], [15.099322, 49.222504], [15.097346, 49.221459], [15.099029, 49.218277], [15.103862, 49.219679], [15.104368, 49.219747], [15.111446, 49.220078], [15.117705, 49.213683], [15.118116, 49.212649], [15.118138, 49.212587], [15.120114, 49.211695], [15.120219, 49.211705], [15.120407, 49.211746], [15.120726, 49.211879], [15.120809, 49.211931], [15.121599, 49.212992], [15.123602, 49.217564], [15.124948, 49.219449], [15.126108, 49.221035], [15.127257, 49.222131], [15.1286, 49.223452], [15.129078, 49.224084], [15.129946, 49.22594], [15.136026, 49.229815], [15.138923, 49.230496], [15.141793, 49.23117], [15.144191, 49.231748], [15.150546, 49.228882], [15.150457, 49.225283], [15.151456, 49.225463], [15.152135, 49.22559], [15.153246, 49.226025], [15.160211, 49.224041], [15.159329, 49.216055], [15.154138, 49.213553], [15.153268, 49.213585], [15.151458, 49.213551], [15.151207, 49.213569], [15.149914, 49.213802], [15.149216, 49.213863], [15.147377, 49.213926], [15.146582, 49.213883], [15.144975, 49.213653], [15.144049, 49.213459], [15.143186, 49.213373], [15.140641, 49.212769], [15.138788, 49.210055], [15.137267, 49.208246], [15.139096, 49.205145], [15.140133, 49.205757], [15.148188, 49.206526], [15.149341, 49.207771], [15.157653, 49.208972], [15.158529, 49.208702], [15.15972, 49.208425], [15.161145, 49.208162], [15.162082, 49.208065], [15.162991, 49.208045], [15.164488, 49.208152], [15.169923, 49.201347], [15.169537, 49.200235], [15.169493, 49.199731], [15.169238, 49.197], [15.167519, 49.192428], [15.167379, 49.192142], [15.167669, 49.191289], [15.167733, 49.191141], [15.168647, 49.190414], [15.169005, 49.190219], [15.169334, 49.190096], [15.169592, 49.190021], [15.170178, 49.190237], [15.170612, 49.190559], [15.172288, 49.192138], [15.172512, 49.192353], [15.174352, 49.194091], [15.176616, 49.19689], [15.18365, 49.191508], [15.183083, 49.187953], [15.183959, 49.187814], [15.185315, 49.187646], [15.188223, 49.187074], [15.189016, 49.186901], [15.190621, 49.186944], [15.191456, 49.187086], [15.196271, 49.186682], [15.197053, 49.186552], [15.197463, 49.18654], [15.198275, 49.186707], [15.204022, 49.181417], [15.202631, 49.178754], [15.200625, 49.175993], [15.20041, 49.175631], [15.200044, 49.174725], [15.199967, 49.174003], [15.199097, 49.16689], [15.198993, 49.166235], [15.199191, 49.164625], [15.196002, 49.15689], [15.195395, 49.155949], [15.193939, 49.153768], [15.196835, 49.151629], [15.203465, 49.151136], [15.204697, 49.151121], [15.207825, 49.156424], [15.20866, 49.157917], [15.209396, 49.159235], [15.217696, 49.159552], [15.218627, 49.158572], [15.219021, 49.158246], [15.221571, 49.160644], [15.227274, 49.164049], [15.229936, 49.164367], [15.2316, 49.16457], [15.233294, 49.164655], [15.238039, 49.158742], [15.236356, 49.155559], [15.237021, 49.150596], [15.237728, 49.150609], [15.238708, 49.150702], [15.240449, 49.150908], [15.241969, 49.151121], [15.249468, 49.149549], [15.250354, 49.149222], [15.252638, 49.148953], [15.254922, 49.148684], [15.255344, 49.152259], [15.254357, 49.155716], [15.252981, 49.159043], [15.252571, 49.160032], [15.255277, 49.168573], [15.255697, 49.168736], [15.257062, 49.16928], [15.258735, 49.169932], [15.264355, 49.170565], [15.265837, 49.171697], [15.272836, 49.172655], [15.275877, 49.168661], [15.275232, 49.163538], [15.275155, 49.162544], [15.275302, 49.161896], [15.275529, 49.161282], [15.276315, 49.159688], [15.276596, 49.159344], [15.276946, 49.159014], [15.278858, 49.156641], [15.280172, 49.156109], [15.283088, 49.15012], [15.277682, 49.146181], [15.276732, 49.146274], [15.275689, 49.142326], [15.275727, 49.138726], [15.281533, 49.135206], [15.283124, 49.133394], [15.283468, 49.133171], [15.283822, 49.132995], [15.284363, 49.132774], [15.285596, 49.132382], [15.29448, 49.132814], [15.295144, 49.133261], [15.298778, 49.135157], [15.299825, 49.135359], [15.306299, 49.130049], [15.308535, 49.128433], [15.31063, 49.127197], [15.313446, 49.124842], [15.316729, 49.116729], [15.318996, 49.113932], [15.321029, 49.114205], [15.321747, 49.114301], [15.323305, 49.115869], [15.323567, 49.116575], [15.330684, 49.120865], [15.333063, 49.119727], [15.334997, 49.119202], [15.335244, 49.119098], [15.338158, 49.119237], [15.342155, 49.112857], [15.33827, 49.109648], [15.333955, 49.108814], [15.333738, 49.108844], [15.330783, 49.105913], [15.328772, 49.103074], [15.330524, 49.099929], [15.333277, 49.101463], [15.339715, 49.102401], [15.341529, 49.105511], [15.349237, 49.106462], [15.352103, 49.104284], [15.350327, 49.095528], [15.347327, 49.092674], [15.344791, 49.090119], [15.336778, 49.087852], [15.334958, 49.088917], [15.334529, 49.089209], [15.333574, 49.089605], [15.331996, 49.090229], [15.327641, 49.088903], [15.325709, 49.089469], [15.323902, 49.089994], [15.320719, 49.090929], [15.320686, 49.09093], [15.318863, 49.089129], [15.318863, 49.089061], [15.320573, 49.087331], [15.322637, 49.086624], [15.324695, 49.086015], [15.326628, 49.085448], [15.327437, 49.08523], [15.328173, 49.085136], [15.329972, 49.084948], [15.332716, 49.084806], [15.336259, 49.08429], [15.339798, 49.083774], [15.346381, 49.079104], [15.348572, 49.078882], [15.350961, 49.079862], [15.351781, 49.080163], [15.352728, 49.080701], [15.353419, 49.081214], [15.354442, 49.082437], [15.361303, 49.086629], [15.365352, 49.086542], [15.367537, 49.085969], [15.368246, 49.085799], [15.371384, 49.084579], [15.371754, 49.084421], [15.375206, 49.08336], [15.378507, 49.082352], [15.379702, 49.081999], [15.38036, 49.081835], [15.381104, 49.081709], [15.384075, 49.080732], [15.386175, 49.080551], [15.391313, 49.077817], [15.387757, 49.071376], [15.387353, 49.071275], [15.3868, 49.071102], [15.386294, 49.070903], [15.385481, 49.070539], [15.384713, 49.070206], [15.384519, 49.070136], [15.383847, 49.069939], [15.377318, 49.071485], [15.375607, 49.070906], [15.373897, 49.070328], [15.373377, 49.070092], [15.365256, 49.069548], [15.362742, 49.068891], [15.360914, 49.068652], [15.357071, 49.06916], [15.353024, 49.069683], [15.352161, 49.069695], [15.349077, 49.069563], [15.345738, 49.069402], [15.344831, 49.06928], [15.344142, 49.068729], [15.345151, 49.065694], [15.345723, 49.065745], [15.346265, 49.065821], [15.349231, 49.065966], [15.352314, 49.066098], [15.352959, 49.066083], [15.360945, 49.062171], [15.362268, 49.058823], [15.368158, 49.053497], [15.369487, 49.052082], [15.372086, 49.045153], [15.369441, 49.04085], [15.368475, 49.040123], [15.368427, 49.040084], [15.367923, 49.037586], [15.368865, 49.035933], [15.370886, 49.034636], [15.375596, 49.033587], [15.376229, 49.033566], [15.378382, 49.033859], [15.377896, 49.037426], [15.379068, 49.04258], [15.379613, 49.043767], [15.381169, 49.047418], [15.381807, 49.049635], [15.381899, 49.049872], [15.383209, 49.052452], [15.386022, 49.054738], [15.386994, 49.055106], [15.387501, 49.055317], [15.388017, 49.055574], [15.395089, 49.053532], [15.394894, 49.048861], [15.394689, 49.048437], [15.394551, 49.048061], [15.393956, 49.046035], [15.393284, 49.044666], [15.395208, 49.042996], [15.396394, 49.042854], [15.396769, 49.043498], [15.397015, 49.043983], [15.397101, 49.044156], [15.397362, 49.044869], [15.399165, 49.048991], [15.399553, 49.049791], [15.407416, 49.053753], [15.410169, 49.05347], [15.412823, 49.053146], [15.413478, 49.053028], [15.414257, 49.053265], [15.414629, 49.053942], [15.415163, 49.054847], [15.416128, 49.056462], [15.418735, 49.059738], [15.418622, 49.060877], [15.420018, 49.066511], [15.420747, 49.067513], [15.421271, 49.06818], [15.429731, 49.070854], [15.430197, 49.070777], [15.435286, 49.063682], [15.434981, 49.062538], [15.43692, 49.056536], [15.4372, 49.055931], [15.438082, 49.048364], [15.437851, 49.046972], [15.437811, 49.046105], [15.435896, 49.037548], [15.435748, 49.033951], [15.443343, 49.029503], [15.444829, 49.026426], [15.445153, 49.026079], [15.447783, 49.028537], [15.451942, 49.034681], [15.451361, 49.038234], [15.445279, 49.04202], [15.444905, 49.042435], [15.443375, 49.043688], [15.444236, 49.051754], [15.444702, 49.052427], [15.44486, 49.053093], [15.444635, 49.054129], [15.444232, 49.054664], [15.440861, 49.061123], [15.439052, 49.064925], [15.443396, 49.070512], [15.451693, 49.070482], [15.452585, 49.069609], [15.453564, 49.068816], [15.454605, 49.067929], [15.455461, 49.067171], [15.45644, 49.066376], [15.458773, 49.064822], [15.461246, 49.063185], [15.463874, 49.058737], [15.460883, 49.050886], [15.46115, 49.049494], [15.464084, 49.047452], [15.465509, 49.045355], [15.466005, 49.044437], [15.466569, 49.043622], [15.467179, 49.043013], [15.467761, 49.042573], [15.468246, 49.042275], [15.470594, 49.04116], [15.473934, 49.035898], [15.470849, 49.028936], [15.470009, 49.026262], [15.470251, 49.025386], [15.47107, 49.024608], [15.472864, 49.024069], [15.477101, 49.027118], [15.477771, 49.027657], [15.478991, 49.031044], [15.478321, 49.033951], [15.47816, 49.034864], [15.478031, 49.037692], [15.478071, 49.038367], [15.477998, 49.038886], [15.477856, 49.039376], [15.477607, 49.039884], [15.478362, 49.046276], [15.483692, 49.052343], [15.486101, 49.050948], [15.487141, 49.04987], [15.488556, 49.044934], [15.488105, 49.041434], [15.48865, 49.040951], [15.488967, 49.040703], [15.490035, 49.04001], [15.490646, 49.039612], [15.491297, 49.039355], [15.492891, 49.038997], [15.499365, 49.033714], [15.500699, 49.029857], [15.503664, 49.027816], [15.504761, 49.029409], [15.507712, 49.032512], [15.507833, 49.033254], [15.507737, 49.033926], [15.506755, 49.035065], [15.5065, 49.035201], [15.500654, 49.039421], [15.499744, 49.041417], [15.498854, 49.043376], [15.497555, 49.047249], [15.498621, 49.055878], [15.500435, 49.058988], [15.498107, 49.060066], [15.496919, 49.068633], [15.499714, 49.070663], [15.505444, 49.071422], [15.508207, 49.071465], [15.511503, 49.07153], [15.51674, 49.066944], [15.516188, 49.060713], [15.515884, 49.06008], [15.515733, 49.058968], [15.516022, 49.058035], [15.517509, 49.055621], [15.517399, 49.049091], [15.516545, 49.047565], [15.519626, 49.042493], [15.522638, 49.040522], [15.529977, 49.044848], [15.533539, 49.044027], [15.535458, 49.044155], [15.535482, 49.047755], [15.53547, 49.047784], [15.534961, 49.047909], [15.534103, 49.047919], [15.53094, 49.048316], [15.527016, 49.050474], [15.522148, 49.054934], [15.521374, 49.060825], [15.521083, 49.064122], [15.521114, 49.065051], [15.52519, 49.072095], [15.53072, 49.068697], [15.530936, 49.067987], [15.531548, 49.066893], [15.533903, 49.066739], [15.536951, 49.072641], [15.543063, 49.07855], [15.545064, 49.078955], [15.553021, 49.078815], [15.553644, 49.078754], [15.557194, 49.078496], [15.557384, 49.078672], [15.55775, 49.079118], [15.557924, 49.079811], [15.561763, 49.084679], [15.564392, 49.086015], [15.567009, 49.087356], [15.57102, 49.087492], [15.573022, 49.078932], [15.572369, 49.078471], [15.571858, 49.077703], [15.571714, 49.076768], [15.571805, 49.076261], [15.572829, 49.073118], [15.572384, 49.065695], [15.567857, 49.060307], [15.567567, 49.056719], [15.568804, 49.04848], [15.567882, 49.047539], [15.561406, 49.045718], [15.558957, 49.050992], [15.558938, 49.051053], [15.558891, 49.05111], [15.558567, 49.051077], [15.558394, 49.051035], [15.556884, 49.050748], [15.553041, 49.050545], [15.554867, 49.047057], [15.559169, 49.042897], [15.557457, 49.038274], [15.556916, 49.034715], [15.554973, 49.029277], [15.554033, 49.027918], [15.553995, 49.027592], [15.548438, 49.020605], [15.547002, 49.020459], [15.54398, 49.020075], [15.540948, 49.019733], [15.539327, 49.019586], [15.53577, 49.01928], [15.534555, 49.019394], [15.530777, 49.020012], [15.529076, 49.020491], [15.527787, 49.020835], [15.527369, 49.020866], [15.52614, 49.020889], [15.524193, 49.020919], [15.522246, 49.020948], [15.522192, 49.017349], [15.524138, 49.017319], [15.526085, 49.017289], [15.530991, 49.015795], [15.531437, 49.015504], [15.535839, 49.008079], [15.535238, 49.006417], [15.535334, 49.006051], [15.536879, 49.004633], [15.538635, 49.004821], [15.539881, 49.005194], [15.540498, 49.005431], [15.541432, 49.005926], [15.545165, 49.007879], [15.5471, 49.00871], [15.554406, 49.009296], [15.556874, 49.008807], [15.559342, 49.008318], [15.567581, 49.008449], [15.571827, 49.005599], [15.572955, 49.004429], [15.575548, 49.006926], [15.581922, 49.007089], [15.589247, 49.009881], [15.591686, 49.008797], [15.593148, 49.012087], [15.594887, 49.017835], [15.60218, 49.020784], [15.603837, 49.020665], [15.607293, 49.021834], [15.611857, 49.023092], [15.61923, 49.023009], [15.619561, 49.023006], [15.621513, 49.02291], [15.623548, 49.022812], [15.626093, 49.022682], [15.628643, 49.022551], [15.632659, 49.016234], [15.63152, 49.012819], [15.637151, 49.007217], [15.644218, 49.00191], [15.644333, 49.000513], [15.644987, 48.999512], [15.647463, 48.997105], [15.649802, 48.997044], [15.650194, 48.998121], [15.653604, 49.00481], [15.654816, 49.0082], [15.651969, 49.009989], [15.65113, 49.017129], [15.6542, 49.019394], [15.661467, 49.017362], [15.663293, 49.016198], [15.665303, 49.015115], [15.670262, 49.01435], [15.675068, 49.012915], [15.682047, 49.011919], [15.684695, 49.011028], [15.687344, 49.010136], [15.688492, 49.013548], [15.694256, 49.020315], [15.696993, 49.021208], [15.698124, 49.021674], [15.701205, 49.023019], [15.709744, 49.021454], [15.712505, 49.021019], [15.714755, 49.019971], [15.716564, 49.01901], [15.719244, 49.016607], [15.724518, 49.016926], [15.726432, 49.008762], [15.721361, 49.006527], [15.719048, 49.006645], [15.718176, 49.006453], [15.715609, 49.006135], [15.715676, 49.002536], [15.717451, 48.999139], [15.719445, 48.996142], [15.721765, 48.997424], [15.723452, 48.998268], [15.724087, 48.998676], [15.725739, 49.00001], [15.730651, 49.003723], [15.736329, 49.0057], [15.739234, 49.006033], [15.741909, 49.006936], [15.744278, 49.007802], [15.750025, 49.001781], [15.7505, 49.000492], [15.751386, 48.997575], [15.754975, 48.997293], [15.763917, 48.99732], [15.764058, 48.997269], [15.765995, 48.997665], [15.766226, 48.99867], [15.76668, 49.001083], [15.767122, 49.003088], [15.773617, 49.008163], [15.774415, 49.008403], [15.775196, 49.009057], [15.775722, 49.00991], [15.776022, 49.010368], [15.781241, 49.012185], [15.784281, 49.005963], [15.783164, 49.002943], [15.782047, 48.999922], [15.785424, 48.998674], [15.786541, 49.001694], [15.794115, 49.003077], [15.797482, 49.001803], [15.80276, 48.999694], [15.805971, 48.998066], [15.8131, 49.002489], [15.813851, 49.002523], [15.814294, 49.002596], [15.814775, 49.002771], [15.815456, 49.003272], [15.815879, 49.003989], [15.817545, 49.007546], [15.823157, 49.009908], [15.83002, 49.004307], [15.826532, 48.999061], [15.826444, 48.998906], [15.826765, 48.996716], [15.82738, 48.994849], [15.829227, 48.986903], [15.832665, 48.985837], [15.833295, 48.987869], [15.833926, 48.989901], [15.841387, 48.992807], [15.843268, 48.991152], [15.844755, 48.989949], [15.847333, 48.988809], [15.848117, 48.988629], [15.85158, 48.987403], [15.856914, 48.981579], [15.857666, 48.979895], [15.857897, 48.979434], [15.858926, 48.978594], [15.862845, 48.978436], [15.868216, 48.977892], [15.873694, 48.980308], [15.881787, 48.976938], [15.887089, 48.975884], [15.889685, 48.974874], [15.895394, 48.970843], [15.895633, 48.970753], [15.895695, 48.970732], [15.896305, 48.970633], [15.897188, 48.971264], [15.897621, 48.973774], [15.893341, 48.980638], [15.892875, 48.986098], [15.894196, 48.98964], [15.89793, 48.996369], [15.898413, 48.999936], [15.900449, 49.006992], [15.900641, 49.009596], [15.900444, 49.0172], [15.900113, 49.017561], [15.897797, 49.020168], [15.895387, 49.026673], [15.893041, 49.029767], [15.888053, 49.034559], [15.886057, 49.03897], [15.885749, 49.039695], [15.88512, 49.0406], [15.882526, 49.038806], [15.882163, 49.038547], [15.87542, 49.033341], [15.874622, 49.032863], [15.872409, 49.03101], [15.870559, 49.029551], [15.863263, 49.027635], [15.860591, 49.026998], [15.857959, 49.025834], [15.855203, 49.024461], [15.847454, 49.023219], [15.845788, 49.024918], [15.844123, 49.026616], [15.841943, 49.028814], [15.844655, 49.036662], [15.845472, 49.037088], [15.847283, 49.038002], [15.848452, 49.038473], [15.84894, 49.038717], [15.849383, 49.03898], [15.850349, 49.039664], [15.850633, 49.039928], [15.851803, 49.040873], [15.852319, 49.041467], [15.852885, 49.042384], [15.853189, 49.042942], [15.849963, 49.044539], [15.845953, 49.041348], [15.844502, 49.040738], [15.841794, 49.03945], [15.841275, 49.039273], [15.836439, 49.038789], [15.834245, 49.03831], [15.827883, 49.038821], [15.825464, 49.041334], [15.823405, 49.045773], [15.827903, 49.051209], [15.830271, 49.053549], [15.83417, 49.058526], [15.834956, 49.059038], [15.83545, 49.059507], [15.836511, 49.060704], [15.839774, 49.063617], [15.848424, 49.065152], [15.851385, 49.063847], [15.854205, 49.062605], [15.857026, 49.061362], [15.858477, 49.064656], [15.861431, 49.073047], [15.865208, 49.072323], [15.86663, 49.070964], [15.868558, 49.067902], [15.868594, 49.062361], [15.868411, 49.061476], [15.868413, 49.061401], [15.868456, 49.059379], [15.868533, 49.057047], [15.868735, 49.056208], [15.868895, 49.055825], [15.872217, 49.057212], [15.872055, 49.059456], [15.879228, 49.063864], [15.882273, 49.061547], [15.885318, 49.059231], [15.887498, 49.062096], [15.884452, 49.064412], [15.881407, 49.066729], [15.879059, 49.070643], [15.879191, 49.079592], [15.879666, 49.079793], [15.880773, 49.080367], [15.882065, 49.085865], [15.887476, 49.088807], [15.892745, 49.083947], [15.893196, 49.081915], [15.893556, 49.080387], [15.893543, 49.078579], [15.897143, 49.078553], [15.897156, 49.080361], [15.897507, 49.085162], [15.901067, 49.090846], [15.906832, 49.088552], [15.90727, 49.08797], [15.907506, 49.087753], [15.909941, 49.090404], [15.915134, 49.094472], [15.918207, 49.094834], [15.919025, 49.094975], [15.918412, 49.098523], [15.917594, 49.098382], [15.914716, 49.098048], [15.911715, 49.098229], [15.908182, 49.09754], [15.903806, 49.096798], [15.903093, 49.096816], [15.902472, 49.096733], [15.896258, 49.096791], [15.893425, 49.098321], [15.890571, 49.100583], [15.890202, 49.100937], [15.885778, 49.108258], [15.885251, 49.109632], [15.885187, 49.109839], [15.884916, 49.110331], [15.879812, 49.117508], [15.880247, 49.118069], [15.886503, 49.120047], [15.887125, 49.11991], [15.887772, 49.119948], [15.888912, 49.122782], [15.885421, 49.12785], [15.885107, 49.128991], [15.883862, 49.131931], [15.890058, 49.13769], [15.891351, 49.137143], [15.893993, 49.136042], [15.895131, 49.135737], [15.896047, 49.135361], [15.896151, 49.135312], [15.898331, 49.134031], [15.9012, 49.126194], [15.900765, 49.124418], [15.900626, 49.123416], [15.90037, 49.122019], [15.900363, 49.121522], [15.901418, 49.119124], [15.90403, 49.118114], [15.90681, 49.117049], [15.907861, 49.116771], [15.91182, 49.116177], [15.91565, 49.115607], [15.918322, 49.114809], [15.921851, 49.114439], [15.92211, 49.114403], [15.922527, 49.114469], [15.922748, 49.114604], [15.923208, 49.116843], [15.923066, 49.117714], [15.922597, 49.11797], [15.919051, 49.119554], [15.918076, 49.119514], [15.916442, 49.119118], [15.912354, 49.119737], [15.908396, 49.120331], [15.907774, 49.120518], [15.910042, 49.129198], [15.910798, 49.129206], [15.911747, 49.129373], [15.912135, 49.129408], [15.912693, 49.13264], [15.911354, 49.135988], [15.909877, 49.136017], [15.909482, 49.136027], [15.90333, 49.137291], [15.897975, 49.138416], [15.897677, 49.138571], [15.896862, 49.138935], [15.896353, 49.139124], [15.894941, 49.139515], [15.892754, 49.140458], [15.891461, 49.141005], [15.888947, 49.142198], [15.884164, 49.149564], [15.883984, 49.151851], [15.883937, 49.154236], [15.890055, 49.159063], [15.890521, 49.159061], [15.890708, 49.159054], [15.89294, 49.15869], [15.894551, 49.158544], [15.895566, 49.158353], [15.898975, 49.156801], [15.901111, 49.155842], [15.901181, 49.155835], [15.906875, 49.15534], [15.90815, 49.154891], [15.908791, 49.154721], [15.909506, 49.154602], [15.911337, 49.154402], [15.913228, 49.154197], [15.913856, 49.154166], [15.914666, 49.154245], [15.916024, 49.154285], [15.919697, 49.153675], [15.920445, 49.154456], [15.918185, 49.15631], [15.917102, 49.15772], [15.916302, 49.157871], [15.91191, 49.164367], [15.919851, 49.168206], [15.922365, 49.167315], [15.923669, 49.166972], [15.926519, 49.165647], [15.929017, 49.164737], [15.929643, 49.164618], [15.935091, 49.160628], [15.93595, 49.158246], [15.937305, 49.15513], [15.937991, 49.154532], [15.939905, 49.152276], [15.94055, 49.151501], [15.940919, 49.151222], [15.943156, 49.149652], [15.943728, 49.141014], [15.93577, 49.137968], [15.935046, 49.138108], [15.934493, 49.138178], [15.927566, 49.137194], [15.926917, 49.133653], [15.930349, 49.133024], [15.93307, 49.132538], [15.935783, 49.132052], [15.937986, 49.131175], [15.939213, 49.130658], [15.942464, 49.128835], [15.946129, 49.123554], [15.946676, 49.122981], [15.947124, 49.122711], [15.95027, 49.121202], [15.955123, 49.123885], [15.956912, 49.127009], [15.964554, 49.13125], [15.96744, 49.129613], [15.971329, 49.121665], [15.974614, 49.120194], [15.981247, 49.123093], [15.982806, 49.124129], [15.98295, 49.124239], [15.983218, 49.1258], [15.983162, 49.126035], [15.980766, 49.1271], [15.978254, 49.127747], [15.975714, 49.130298], [15.978927, 49.138324], [15.97861, 49.14191], [15.984884, 49.148209], [15.986709, 49.146986], [15.988712, 49.149977], [15.986888, 49.151199], [15.985063, 49.152422], [15.982209, 49.160331], [15.982847, 49.162307], [15.983004, 49.162647], [15.990313, 49.167236], [15.991075, 49.167204], [15.993292, 49.166827], [15.995001, 49.166451], [15.996358, 49.166202], [15.997505, 49.166039], [15.998651, 49.165912], [15.999304, 49.165787], [16.002733, 49.164515], [16.004372, 49.163665], [16.005921, 49.162865], [16.007064, 49.162187], [16.010801, 49.155048], [16.01012, 49.151861], [16.013641, 49.151109], [16.014322, 49.154296], [16.021153, 49.15622], [16.021692, 49.155894], [16.022333, 49.155585], [16.02292, 49.155344], [16.02355, 49.155111], [16.024183, 49.154901], [16.02615, 49.154353], [16.028083, 49.153815], [16.034861, 49.148469], [16.0351, 49.148064], [16.035433, 49.147685], [16.037588, 49.145828], [16.042921, 49.144737], [16.043877, 49.144869], [16.044149, 49.145001], [16.044905, 49.14774], [16.045295, 49.150362], [16.043288, 49.153351], [16.039617, 49.160891], [16.040099, 49.162051], [16.040505, 49.165628], [16.040186, 49.165664], [16.039201, 49.165548], [16.038453, 49.16533], [16.037945, 49.165124], [16.034617, 49.164411], [16.032128, 49.164371], [16.028758, 49.164519], [16.025283, 49.164668], [16.019448, 49.167134], [16.016259, 49.168804], [16.013509, 49.16932], [16.013239, 49.16881], [16.00603, 49.166861], [16.005063, 49.175374], [16.0063, 49.179023], [16.006362, 49.17978], [16.005782, 49.181129], [16.005959, 49.189243], [16.007622, 49.190362], [16.008058, 49.190816], [16.016115, 49.194183], [16.018678, 49.194099], [16.023874, 49.188387], [16.023211, 49.186213], [16.023122, 49.184867], [16.023567, 49.184772], [16.02734, 49.182949], [16.034845, 49.181787], [16.038465, 49.181742], [16.046821, 49.180602], [16.052345, 49.178082], [16.053156, 49.178126], [16.059273, 49.172107], [16.058767, 49.170202], [16.058968, 49.170097], [16.059743, 49.169868], [16.061238, 49.1695], [16.061782, 49.169424], [16.062187, 49.169441], [16.067135, 49.169082], [16.069416, 49.163252], [16.068871, 49.159694], [16.069121, 49.15334], [16.073849, 49.149557], [16.075564, 49.148941], [16.07593, 49.148895], [16.077429, 49.149172], [16.080529, 49.155314], [16.080787, 49.160468], [16.086912, 49.164501], [16.091724, 49.162765], [16.095176, 49.163784], [16.102466, 49.167459], [16.105007, 49.166109], [16.106751, 49.165182], [16.1085, 49.164222], [16.110675, 49.167091], [16.117558, 49.172374], [16.118939, 49.172034], [16.126577, 49.168024], [16.127187, 49.167265], [16.127792, 49.16685], [16.130076, 49.164931], [16.130524, 49.16458], [16.131159, 49.164258], [16.131735, 49.164082], [16.139396, 49.161045], [16.1411, 49.164216], [16.138569, 49.16935], [16.137788, 49.170858], [16.137242, 49.172696], [16.136576, 49.172782], [16.136059, 49.17257], [16.132967, 49.172403], [16.128708, 49.178018], [16.132657, 49.182524], [16.134988, 49.183006], [16.136391, 49.183595], [16.137477, 49.185496], [16.145605, 49.187303], [16.147476, 49.182108], [16.147843, 49.1819], [16.148657, 49.181656], [16.149281, 49.181664], [16.150198, 49.182039], [16.157711, 49.183529], [16.160084, 49.183593], [16.162099, 49.184463], [16.169443, 49.183482], [16.172877, 49.182624], [16.173804, 49.182294], [16.177338, 49.181048], [16.178766, 49.182271], [16.186722, 49.183114], [16.187372, 49.174352], [16.186617, 49.173233], [16.184515, 49.171459], [16.184461, 49.171425], [16.184398, 49.171296], [16.184448, 49.171169], [16.185203, 49.170238], [16.186502, 49.169635], [16.186868, 49.161133], [16.189065, 49.159631], [16.191387, 49.158857], [16.197193, 49.155642], [16.199108, 49.15326], [16.198319, 49.146044], [16.191009, 49.144422], [16.188528, 49.144857], [16.186048, 49.145292], [16.183567, 49.145727], [16.174981, 49.146515], [16.174663, 49.147466], [16.174273, 49.14765], [16.173495, 49.147532], [16.169623, 49.147468], [16.167876, 49.147638], [16.159176, 49.146765], [16.158248, 49.143287], [16.160057, 49.142804], [16.162762, 49.142031], [16.165497, 49.14125], [16.167407, 49.140718], [16.171012, 49.139021], [16.17386, 49.13682], [16.172673, 49.128392], [16.165226, 49.126085], [16.164839, 49.126201], [16.162688, 49.1271], [16.160464, 49.128029], [16.159799, 49.12827], [16.159309, 49.128416], [16.157749, 49.128873], [16.157219, 49.127543], [16.156737, 49.125418], [16.158297, 49.124961], [16.161299, 49.123779], [16.16345, 49.122879], [16.164135, 49.122654], [16.167466, 49.121802], [16.171772, 49.114497], [16.172585, 49.11296], [16.173205, 49.112635], [16.17477, 49.112147], [16.176494, 49.115882], [16.183662, 49.11395], [16.184182, 49.112872], [16.184526, 49.110455], [16.192078, 49.108303], [16.195117, 49.104679], [16.196132, 49.103546], [16.196864, 49.103707], [16.197639, 49.103956], [16.198678, 49.105212], [16.199712, 49.106899], [16.198889, 49.109983], [16.199753, 49.114289], [16.206716, 49.11795], [16.207213, 49.117886], [16.207688, 49.1179], [16.20819, 49.118002], [16.210842, 49.118357], [16.216459, 49.112953], [16.215998, 49.110046], [16.217288, 49.108727], [16.218413, 49.108384], [16.22101, 49.10914], [16.223037, 49.114348], [16.229695, 49.118236], [16.235794, 49.121096], [16.240325, 49.122404], [16.241118, 49.125915], [16.239419, 49.126455], [16.237995, 49.126683], [16.235099, 49.125455], [16.227639, 49.122856], [16.225339, 49.122846], [16.223049, 49.122759], [16.216617, 49.124564], [16.210635, 49.129895], [16.210733, 49.133494], [16.208867, 49.139891], [16.208499, 49.141249], [16.205767, 49.14585], [16.209493, 49.152503], [16.21223, 49.153723], [16.217228, 49.15461], [16.221879, 49.14976], [16.225463, 49.150096], [16.226762, 49.153458], [16.225016, 49.155337], [16.224347, 49.156128], [16.223196, 49.156971], [16.22082, 49.157849], [16.216506, 49.162295], [16.213786, 49.169019], [16.213648, 49.170683], [16.213113, 49.171277], [16.212388, 49.171641], [16.210218, 49.178955], [16.219066, 49.18032], [16.219209, 49.17937], [16.219375, 49.178294], [16.219712, 49.178305], [16.226505, 49.174101], [16.229114, 49.171621], [16.237682, 49.170581], [16.239918, 49.167309], [16.244763, 49.163349], [16.245158, 49.15977], [16.250507, 49.154254], [16.251266, 49.154049], [16.252872, 49.153828], [16.254372, 49.154224], [16.259494, 49.155431], [16.267427, 49.155866], [16.269622, 49.152897], [16.267592, 49.145697], [16.26644, 49.142286], [16.270176, 49.138845], [16.274487, 49.136057], [16.274632, 49.135966], [16.276449, 49.134779], [16.277236, 49.134452], [16.283459, 49.139834], [16.286857, 49.140735], [16.29415, 49.136841], [16.297626, 49.135907], [16.302088, 49.134072], [16.305076, 49.132363], [16.306914, 49.131545], [16.308752, 49.130727], [16.310216, 49.134016], [16.308378, 49.134834], [16.30654, 49.135652], [16.301277, 49.141904], [16.30114, 49.141908], [16.29351, 49.143251], [16.292937, 49.143579], [16.291638, 49.144141], [16.291091, 49.144297], [16.290332, 49.14436], [16.289371, 49.144301], [16.288564, 49.14429], [16.286951, 49.144334], [16.286261, 49.144396], [16.285587, 49.144393], [16.282175, 49.144782], [16.276103, 49.151035], [16.275215, 49.152535], [16.273256, 49.154274], [16.273326, 49.162225], [16.269268, 49.161699], [16.261894, 49.164696], [16.261566, 49.167095], [16.262683, 49.17128], [16.262743, 49.173603], [16.26266, 49.174644], [16.262756, 49.179383], [16.269979, 49.183282], [16.272866, 49.182723], [16.27444, 49.182504], [16.279197, 49.183834], [16.28412, 49.180669], [16.28887, 49.179062], [16.294938, 49.176], [16.295824, 49.172516], [16.289777, 49.166793], [16.287824, 49.163238], [16.288955, 49.15982], [16.28967, 49.15988], [16.290296, 49.159932], [16.298967, 49.158063], [16.301227, 49.1579], [16.308913, 49.1599], [16.311072, 49.159045], [16.312397, 49.162392], [16.315195, 49.165547], [16.317176, 49.16693], [16.3246, 49.164479], [16.324075, 49.157861], [16.324488, 49.157353], [16.324918, 49.156872], [16.326309, 49.155314], [16.333107, 49.153655], [16.333511, 49.153507], [16.333911, 49.153406], [16.334575, 49.153362], [16.342254, 49.15445], [16.344186, 49.152852], [16.345562, 49.151611], [16.348051, 49.147334], [16.348488, 49.14624], [16.351067, 49.14514], [16.351952, 49.137422], [16.350307, 49.135072], [16.350216, 49.134989], [16.348996, 49.133268], [16.348621, 49.132823], [16.346873, 49.130555], [16.345293, 49.128995], [16.344333, 49.127175], [16.344318, 49.127148], [16.344171, 49.125575], [16.345613, 49.125102], [16.347513, 49.125489], [16.355411, 49.128451], [16.356314, 49.128124], [16.356735, 49.127925], [16.358554, 49.127099], [16.362085, 49.127351], [16.367521, 49.128894], [16.370675, 49.129327], [16.371703, 49.129486], [16.373158, 49.129764], [16.373727, 49.129917], [16.380242, 49.124593], [16.379625, 49.123068], [16.379536, 49.122652], [16.377499, 49.11945], [16.377077, 49.118818], [16.376917, 49.118356], [16.376837, 49.117962], [16.37655, 49.115964], [16.372265, 49.110131], [16.371883, 49.109782], [16.371767, 49.109646], [16.374511, 49.107315], [16.376652, 49.107184], [16.377078, 49.107306], [16.377262, 49.107379], [16.382676, 49.11098], [16.384922, 49.112116], [16.387505, 49.113501], [16.385804, 49.116674], [16.385359, 49.125096], [16.385905, 49.125892], [16.386334, 49.12665], [16.392184, 49.132201], [16.399772, 49.132003], [16.401567, 49.131135], [16.402392, 49.130761], [16.407492, 49.123764], [16.410655, 49.122046], [16.417213, 49.123656], [16.419875, 49.121725], [16.421028, 49.12085], [16.422901, 49.118645], [16.423346, 49.118164], [16.424015, 49.117549], [16.424575, 49.11706], [16.425536, 49.116297], [16.427832, 49.118197], [16.427774, 49.119117], [16.427758, 49.121796], [16.422054, 49.124591], [16.419531, 49.12641], [16.41824, 49.127311], [16.417902, 49.127524], [16.417331, 49.127818], [16.41599, 49.128407], [16.414326, 49.129233], [16.411833, 49.136519], [16.411888, 49.137159], [16.411888, 49.13789], [16.410309, 49.138945], [16.409654, 49.139026], [16.405988, 49.139637], [16.399436, 49.140766], [16.399214, 49.140804], [16.397887, 49.141171], [16.394875, 49.144253], [16.392818, 49.147583], [16.398176, 49.153846], [16.40094, 49.151539], [16.402373, 49.153009], [16.403714, 49.154114], [16.40423, 49.154901], [16.404541, 49.155496], [16.404728, 49.156343], [16.404631, 49.157477], [16.404595, 49.158344], [16.4041, 49.159865], [16.404008, 49.161377], [16.404052, 49.161817], [16.404475, 49.163531], [16.411513, 49.167891], [16.413722, 49.165448], [16.414627, 49.163245], [16.415092, 49.160089], [16.415317, 49.158354], [16.415736, 49.157585], [16.4163, 49.156568], [16.416788, 49.156158], [16.421488, 49.153265], [16.422968, 49.152266], [16.423579, 49.151829], [16.424025, 49.151649], [16.424661, 49.151533], [16.428243, 49.15066], [16.430567, 49.149539], [16.435124, 49.152023], [16.436539, 49.152625], [16.443147, 49.157215], [16.445225, 49.15502], [16.445803, 49.154389], [16.446522, 49.153846], [16.447289, 49.153444], [16.448094, 49.153143], [16.448868, 49.152943], [16.455036, 49.15229], [16.456629, 49.151638], [16.459497, 49.15008], [16.460404, 49.149524], [16.462766, 49.141162], [16.462761, 49.14015], [16.463012, 49.139352], [16.463507, 49.138557], [16.464115, 49.137953], [16.464738, 49.137535], [16.467504, 49.136371], [16.469397, 49.135855], [16.471266, 49.135346], [16.474645, 49.127619], [16.473884, 49.120149], [16.473615, 49.117157], [16.473747, 49.117049], [16.474085, 49.116877], [16.474179, 49.116845], [16.475133, 49.116772], [16.47752, 49.117162], [16.479664, 49.119864], [16.479737, 49.119998], [16.48009, 49.120814], [16.480232, 49.121682], [16.481167, 49.126788], [16.483483, 49.131336], [16.483847, 49.132418], [16.483719, 49.133267], [16.483296, 49.134], [16.483066, 49.134227], [16.482723, 49.134513], [16.479938, 49.135165], [16.477749, 49.136548], [16.476132, 49.137436], [16.476235, 49.146361], [16.478673, 49.147726], [16.484959, 49.149095], [16.485982, 49.149173], [16.491815, 49.150286], [16.49517, 49.149934], [16.498725, 49.148323], [16.498779, 49.148299], [16.503195, 49.147208], [16.506758, 49.147724], [16.515376, 49.149031], [16.517884, 49.148605], [16.518239, 49.148546], [16.521444, 49.147891], [16.522284, 49.147803], [16.527229, 49.140732], [16.527, 49.140001], [16.526018, 49.137947], [16.52839, 49.135239], [16.529012, 49.135669], [16.529343, 49.135924], [16.529706, 49.136268], [16.5302, 49.137099], [16.533296, 49.141176], [16.54054, 49.144007], [16.544099, 49.142783], [16.551111, 49.139454], [16.551838, 49.139232], [16.552607, 49.1391], [16.553495, 49.13919], [16.554064, 49.139472], [16.558385, 49.14249], [16.560484, 49.143344], [16.56892, 49.142621], [16.571705, 49.14128], [16.576631, 49.135949], [16.579524, 49.133805], [16.581082, 49.135909], [16.582641, 49.138013], [16.584295, 49.140244], [16.585948, 49.142475], [16.59329, 49.142532], [16.5997, 49.137396], [16.599373, 49.135666], [16.599473, 49.134363], [16.599677, 49.131615], [16.599577, 49.130476], [16.598812, 49.127136], [16.595135, 49.119826], [16.592118, 49.120976], [16.59184, 49.120921], [16.591628, 49.120879], [16.591012, 49.120771], [16.589339, 49.12045], [16.588364, 49.120268], [16.587648, 49.120153], [16.587225, 49.120074], [16.58584, 49.119821], [16.582274, 49.120226], [16.579603, 49.11972], [16.579418, 49.119697], [16.578719, 49.119514], [16.57753, 49.119297], [16.575885, 49.118478], [16.574623, 49.11705], [16.574481, 49.115163], [16.575613, 49.113589], [16.58053, 49.112995], [16.581314, 49.112753], [16.58138, 49.112754], [16.581467, 49.112768], [16.583686, 49.113471], [16.592194, 49.112133], [16.595124, 49.10987], [16.598679, 49.105359], [16.597338, 49.098161], [16.595782, 49.09671], [16.595071, 49.096144], [16.592362, 49.093629], [16.591428, 49.093009], [16.590402, 49.092378], [16.58949, 49.091864], [16.588406, 49.091303], [16.587384, 49.090814], [16.586681, 49.090499], [16.585426, 49.089982], [16.584159, 49.08951], [16.582733, 49.089017], [16.580916, 49.08843], [16.578684, 49.087733], [16.576423, 49.087027], [16.575488, 49.086717], [16.573901, 49.086146], [16.572873, 49.085735], [16.571187, 49.08502], [16.569158, 49.084045], [16.566942, 49.082819], [16.565935, 49.082215], [16.5641, 49.080987], [16.563445, 49.080517], [16.56266, 49.079918], [16.564844, 49.077056], [16.568791, 49.07973], [16.572744, 49.081774], [16.574276, 49.08242], [16.576705, 49.083328], [16.577554, 49.083609], [16.579757, 49.084297], [16.581989, 49.084994], [16.58384, 49.085591], [16.591171, 49.086258], [16.592899, 49.086551], [16.599807, 49.088717], [16.604211, 49.088464], [16.604942, 49.08873], [16.605178, 49.088868], [16.605783, 49.090154], [16.60661, 49.097187], [16.612053, 49.103121], [16.610838, 49.10651], [16.606916, 49.11212], [16.608902, 49.117462], [16.613684, 49.118946], [16.620877, 49.121976], [16.624846, 49.122296], [16.631591, 49.126241], [16.635184, 49.126021], [16.64298, 49.121811], [16.64438, 49.119323], [16.645762, 49.116866], [16.646873, 49.1148], [16.648203, 49.112034], [16.649028, 49.110215], [16.64976, 49.108361], [16.650471, 49.106559], [16.651161, 49.104633], [16.651907, 49.102443], [16.652532, 49.100341], [16.653079, 49.098296], [16.65402, 49.094541], [16.655013, 49.090585], [16.655745, 49.087714], [16.656477, 49.084844], [16.657145, 49.082224], [16.657814, 49.079603], [16.661302, 49.080493], [16.660634, 49.083113], [16.659966, 49.085733], [16.659234, 49.088604], [16.658502, 49.091475], [16.657512, 49.095416], [16.656571, 49.099171], [16.65601, 49.101271], [16.655358, 49.103468], [16.654569, 49.105793], [16.65386, 49.107773], [16.653109, 49.109681], [16.652377, 49.111536], [16.651483, 49.113518], [16.650118, 49.116359], [16.652034, 49.123549], [16.652895, 49.126083], [16.652741, 49.132617], [16.652871, 49.134269], [16.652918, 49.135098], [16.652511, 49.135824], [16.65244, 49.13585], [16.644353, 49.138143], [16.643255, 49.139109], [16.640955, 49.140785], [16.640226, 49.141265], [16.633339, 49.146795], [16.631916, 49.151222], [16.631832, 49.152537], [16.631807, 49.153379], [16.637445, 49.159273], [16.640184, 49.158589], [16.643889, 49.159308], [16.648245, 49.160149], [16.650341, 49.160517], [16.652129, 49.160784], [16.653553, 49.160971], [16.655445, 49.161281], [16.65783, 49.16135], [16.658772, 49.161402], [16.660122, 49.161451], [16.66135, 49.16147], [16.663973, 49.161464], [16.667238, 49.161396], [16.670052, 49.161338], [16.671928, 49.161332], [16.673732, 49.161355], [16.675219, 49.161414], [16.676745, 49.161497], [16.678183, 49.161605], [16.680055, 49.161793], [16.681686, 49.16202], [16.683204, 49.162303], [16.684477, 49.162608], [16.685841, 49.162996], [16.687104, 49.163555], [16.69448, 49.162021], [16.696603, 49.157966], [16.696315, 49.154377], [16.697257, 49.154302], [16.697971, 49.154332], [16.698418, 49.15441], [16.698808, 49.154531], [16.701056, 49.155785], [16.703317, 49.160681], [16.703298, 49.16075], [16.701511, 49.162007], [16.700043, 49.162949], [16.698681, 49.170793], [16.70098, 49.172653], [16.702554, 49.173855], [16.704523, 49.175267], [16.705588, 49.175971], [16.706443, 49.176512], [16.707916, 49.17738], [16.709514, 49.178253], [16.710569, 49.178777], [16.711592, 49.179259], [16.715471, 49.180862], [16.716791, 49.181336], [16.717671, 49.181625], [16.719347, 49.182146], [16.720358, 49.182426], [16.72723, 49.183902], [16.728549, 49.184119], [16.731999, 49.184551], [16.734634, 49.184802], [16.736448, 49.184917], [16.738472, 49.185016], [16.741548, 49.185073], [16.743332, 49.185056], [16.745126, 49.185001], [16.747184, 49.184895], [16.748611, 49.184792], [16.749717, 49.184695], [16.752227, 49.184423], [16.753524, 49.184255], [16.755586, 49.183944], [16.75717, 49.183674], [16.758693, 49.183373], [16.75939, 49.186905], [16.757867, 49.187205], [16.756192, 49.187492], [16.754062, 49.187815], [16.752689, 49.187993], [16.750096, 49.188275], [16.748927, 49.188378], [16.747443, 49.188486], [16.745312, 49.188597], [16.743438, 49.188655], [16.741582, 49.188673], [16.738367, 49.188614], [16.736273, 49.188513], [16.734407, 49.188395], [16.731659, 49.188135], [16.728102, 49.187691], [16.726649, 49.187454], [16.719498, 49.185921], [16.718391, 49.185617], [16.716604, 49.185063], [16.715666, 49.184755], [16.714257, 49.184251], [16.710122, 49.182545], [16.709036, 49.182035], [16.707914, 49.181478], [16.706191, 49.180539], [16.704617, 49.179615], [16.703664, 49.179013], [16.70254, 49.178272], [16.700458, 49.176782], [16.698796, 49.175515], [16.696418, 49.173592], [16.68901, 49.173654], [16.686553, 49.176621], [16.686547, 49.176625], [16.686502, 49.176649], [16.686496, 49.176653], [16.685218, 49.176877], [16.680724, 49.177126], [16.67961, 49.176942], [16.679346, 49.176847], [16.678537, 49.174267], [16.679419, 49.172685], [16.674817, 49.165113], [16.672832, 49.165054], [16.670112, 49.165054], [16.667085, 49.165115], [16.66404, 49.165063], [16.661358, 49.16507], [16.660068, 49.165051], [16.658641, 49.164999], [16.657633, 49.164944], [16.655075, 49.164862], [16.653126, 49.16466], [16.6516, 49.164459], [16.649727, 49.164173], [16.646945, 49.163686], [16.643407, 49.162993], [16.636191, 49.165064], [16.630623, 49.169341], [16.628132, 49.170077], [16.62615, 49.170699], [16.620191, 49.174508], [16.616162, 49.176347], [16.613395, 49.183483], [16.611947, 49.186779], [16.608865, 49.190797], [16.608827, 49.190802], [16.607591, 49.190919], [16.607295, 49.190934], [16.607258, 49.190936], [16.603173, 49.19144], [16.602724, 49.19129], [16.595963, 49.197224], [16.595923, 49.197337], [16.595808, 49.19766], [16.595666, 49.198105], [16.594354, 49.198967], [16.593844, 49.198896], [16.591424, 49.198597], [16.589765, 49.198597], [16.586109, 49.199097], [16.585727, 49.199126], [16.585231, 49.199118], [16.584604, 49.199029], [16.584436, 49.198993], [16.583772, 49.198814], [16.583302, 49.198656], [16.579973, 49.198171], [16.578193, 49.198425], [16.57588, 49.198343], [16.571391, 49.205276], [16.572462, 49.20685], [16.573922, 49.207875], [16.574636, 49.208644], [16.576305, 49.211262], [16.5792, 49.213554], [16.577813, 49.216876], [16.577308, 49.216665], [16.576783, 49.216413], [16.568282, 49.213569], [16.567504, 49.213637], [16.567221, 49.213666], [16.564814, 49.214045], [16.563984, 49.214173], [16.556232, 49.2115], [16.554208, 49.210666], [16.553658, 49.210343], [16.553195, 49.207279], [16.552994, 49.206572], [16.545577, 49.202463], [16.545225, 49.202431], [16.540076, 49.198096], [16.534833, 49.199094], [16.535859, 49.20738], [16.536911, 49.210823], [16.534366, 49.213054], [16.531305, 49.221212], [16.531786, 49.221804], [16.532049, 49.22221], [16.527722, 49.227322], [16.527277, 49.230894], [16.524004, 49.231014], [16.521629, 49.231084], [16.519663, 49.230245], [16.511341, 49.233213], [16.511088, 49.233929], [16.510803, 49.234397], [16.510294, 49.234917], [16.505599, 49.239356], [16.502664, 49.24222], [16.496879, 49.24771], [16.496467, 49.248166], [16.495939, 49.248584], [16.495501, 49.248824], [16.494542, 49.249173], [16.486161, 49.252199], [16.485839, 49.252407], [16.485228, 49.252768], [16.484585, 49.253092], [16.479655, 49.255651], [16.477798, 49.256595], [16.476822, 49.257122], [16.472036, 49.260919], [16.471441, 49.261395], [16.470755, 49.261788], [16.470159, 49.262043], [16.468054, 49.262628], [16.467473, 49.26272], [16.466802, 49.262719], [16.466129, 49.2626], [16.465765, 49.262492], [16.465303, 49.262289], [16.462345, 49.25859], [16.458324, 49.258009], [16.454487, 49.264265], [16.454419, 49.265667], [16.454332, 49.266203], [16.450746, 49.26652], [16.446678, 49.274401], [16.450377, 49.275653], [16.452726, 49.27532], [16.453013, 49.275293], [16.453473, 49.275285], [16.454057, 49.275346], [16.454525, 49.275444], [16.455088, 49.275571], [16.459823, 49.276338], [16.4626, 49.275749], [16.462629, 49.275775], [16.462888, 49.276317], [16.46602, 49.280331], [16.46642, 49.280818], [16.466699, 49.281862], [16.46655, 49.282601], [16.470059, 49.290159], [16.474305, 49.290754], [16.474761, 49.290719], [16.475318, 49.290751], [16.478324, 49.290643], [16.47872, 49.290609], [16.479908, 49.29046], [16.480352, 49.290388], [16.483718, 49.289587], [16.483941, 49.289525], [16.484909, 49.292992], [16.484686, 49.293054], [16.483139, 49.293611], [16.482654, 49.293743], [16.482223, 49.293817], [16.480712, 49.29397], [16.480162, 49.294097], [16.479703, 49.29418], [16.47828, 49.294307], [16.473186, 49.295612], [16.472098, 49.302995], [16.476308, 49.304509], [16.477454, 49.304409], [16.47872, 49.304376], [16.479324, 49.30439], [16.479242, 49.307989], [16.47726, 49.311066], [16.477021, 49.311283], [16.476814, 49.31145], [16.475669, 49.311597], [16.469204, 49.310884], [16.461541, 49.309743], [16.459862, 49.310986], [16.459399, 49.31135], [16.458975, 49.311604], [16.454937, 49.313911], [16.457654, 49.321586], [16.458519, 49.322363], [16.458677, 49.322549], [16.459683, 49.32456], [16.458507, 49.325362], [16.457043, 49.325646], [16.454669, 49.327157], [16.457172, 49.335653], [16.46051, 49.335149], [16.463447, 49.334762], [16.466384, 49.334375], [16.466854, 49.337944], [16.463918, 49.338331], [16.460981, 49.338718], [16.45771, 49.339213], [16.457125, 49.339263], [16.454246, 49.339614], [16.453548, 49.339736], [16.45223, 49.339853], [16.45112, 49.339822], [16.450617, 49.339782], [16.445982, 49.339388], [16.445004, 49.33968], [16.438915, 49.34253], [16.440151, 49.348888], [16.445027, 49.354041], [16.449036, 49.356926], [16.449274, 49.357013], [16.448046, 49.360397], [16.446134, 49.359864], [16.44468, 49.35947], [16.444097, 49.359258], [16.443098, 49.358576], [16.442353, 49.357927], [16.440715, 49.35654], [16.439543, 49.355375], [16.432394, 49.354081], [16.42939, 49.35662], [16.429199, 49.356706], [16.425226, 49.355718], [16.425019, 49.355659], [16.42213, 49.351082], [16.414902, 49.353101], [16.41435, 49.353669], [16.41397, 49.353949], [16.412562, 49.355042], [16.411518, 49.355782], [16.407787, 49.357132], [16.405831, 49.358014], [16.405214, 49.358223], [16.404502, 49.358292], [16.397893, 49.364043], [16.39426, 49.368027], [16.391767, 49.374949], [16.384348, 49.378426], [16.382275, 49.379327], [16.379069, 49.380695], [16.378984, 49.380685], [16.377495, 49.378656], [16.374818, 49.373325], [16.366893, 49.375044], [16.365815, 49.37721], [16.365535, 49.377359], [16.365217, 49.377499], [16.364647, 49.377747], [16.359414, 49.380196], [16.35257, 49.383399], [16.346492, 49.3839], [16.339247, 49.387922], [16.335668, 49.391592], [16.335287, 49.392001], [16.334854, 49.392361], [16.334251, 49.392773], [16.333963, 49.392933], [16.333081, 49.393349], [16.331545, 49.390093], [16.334535, 49.387062], [16.334942, 49.386549], [16.333076, 49.377989], [16.32768, 49.378647], [16.327214, 49.378878], [16.324473, 49.381589], [16.324123, 49.382199], [16.320099, 49.384368], [16.319419, 49.384736], [16.314635, 49.39116], [16.314228, 49.392451], [16.311955, 49.395411], [16.311764, 49.395662], [16.308989, 49.395106], [16.308385, 49.394813], [16.307877, 49.394431], [16.307407, 49.393781], [16.307213, 49.393221], [16.30712, 49.392684], [16.307029, 49.392139], [16.29961, 49.387382], [16.298696, 49.387656], [16.29744, 49.387919], [16.296951, 49.387993], [16.296459, 49.388029], [16.290861, 49.389878], [16.288887, 49.39103], [16.287618, 49.391534], [16.285504, 49.392487], [16.281222, 49.387316], [16.274401, 49.391587], [16.273489, 49.396707], [16.273061, 49.400282], [16.271225, 49.400406], [16.271191, 49.400409], [16.262702, 49.40289], [16.261819, 49.403523], [16.25485, 49.40679], [16.251239, 49.406344], [16.246533, 49.413685], [16.246358, 49.414762], [16.245825, 49.419073], [16.24492, 49.420508], [16.24342, 49.421518], [16.242094, 49.42236], [16.236337, 49.422136], [16.234233, 49.421996], [16.233992, 49.421849], [16.233824, 49.419559], [16.23433, 49.41889], [16.235862, 49.417853], [16.236366, 49.417483], [16.236892, 49.417047], [16.237922, 49.416195], [16.2359, 49.407501], [16.233489, 49.407455], [16.230855, 49.40739], [16.225292, 49.411349], [16.224722, 49.413108], [16.222728, 49.417111], [16.219126, 49.419844], [16.218799, 49.420098], [16.214527, 49.423217], [16.215761, 49.430119], [16.216582, 49.430771], [16.217594, 49.431334], [16.226082, 49.431205], [16.228669, 49.42998], [16.229215, 49.429926], [16.22934, 49.430114], [16.229398, 49.430209], [16.229627, 49.430826], [16.229668, 49.431521], [16.229616, 49.431892], [16.228278, 49.435124], [16.228039, 49.435722], [16.227733, 49.436308], [16.225736, 49.439394], [16.225299, 49.439895], [16.223926, 49.448657], [16.224388, 49.45115], [16.229583, 49.456502], [16.23755, 49.454917], [16.238559, 49.453634], [16.239922, 49.451967], [16.24045, 49.451144], [16.240986, 49.450462], [16.241698, 49.449658], [16.242151, 49.449256], [16.242655, 49.448905], [16.243259, 49.448583], [16.243669, 49.448417], [16.245019, 49.451755], [16.242329, 49.454871], [16.242038, 49.455315], [16.239941, 49.458052], [16.239636, 49.458491], [16.239196, 49.458919], [16.236904, 49.462824], [16.23381, 49.466748], [16.237303, 49.474716], [16.241, 49.473695], [16.241512, 49.473376], [16.242089, 49.473195], [16.244015, 49.47242], [16.245094, 49.472426], [16.245421, 49.472563], [16.246821, 49.473459], [16.246847, 49.473712], [16.246451, 49.475071], [16.24547, 49.477167], [16.238727, 49.48133], [16.238508, 49.481403], [16.238489, 49.481405], [16.238342, 49.481376], [16.231304, 49.481004], [16.2256, 49.480972], [16.21824, 49.484093], [16.215995, 49.49137], [16.216148, 49.494966], [16.213003, 49.502421], [16.207716, 49.505961], [16.207236, 49.50621], [16.201945, 49.502658], [16.20222, 49.499068], [16.204227, 49.493515], [16.200236, 49.488405], [16.199483, 49.488066], [16.198666, 49.487726], [16.191003, 49.487689], [16.187786, 49.489953], [16.187223, 49.490462], [16.18628, 49.491107], [16.185634, 49.491415], [16.18525, 49.491557], [16.184099, 49.492022], [16.178311, 49.495827], [16.177156, 49.496762], [16.175774, 49.497329], [16.174729, 49.497338], [16.173351, 49.496422], [16.173147, 49.494748], [16.165392, 49.490504], [16.163917, 49.492754], [16.163632, 49.49283], [16.162677, 49.492868], [16.15827, 49.490108], [16.155535, 49.489708], [16.155195, 49.489704], [16.154593, 49.48963], [16.151567, 49.489227], [16.151187, 49.489247], [16.150627, 49.489217], [16.144763, 49.494437], [16.146102, 49.497084], [16.148051, 49.498842], [16.148233, 49.499449], [16.148279, 49.499813], [16.144708, 49.500266], [16.143967, 49.499982], [16.142499, 49.499519], [16.135683, 49.50073], [16.13368, 49.502581], [16.131849, 49.505133], [16.131397, 49.505844], [16.129146, 49.509229], [16.124824, 49.513772], [16.125045, 49.522724], [16.130894, 49.523142], [16.132161, 49.522499], [16.132548, 49.522332], [16.133091, 49.522151], [16.134045, 49.521941], [16.136497, 49.521541], [16.136969, 49.521492], [16.140393, 49.52038], [16.140756, 49.520164], [16.142932, 49.518997], [16.144633, 49.52217], [16.142458, 49.523336], [16.141369, 49.5241], [16.14101, 49.524334], [16.140644, 49.524536], [16.139967, 49.524803], [16.139264, 49.524968], [16.138867, 49.525025], [16.138442, 49.525056], [16.13693, 49.525115], [16.130569, 49.528425], [16.129808, 49.52831], [16.122405, 49.532458], [16.121774, 49.534282], [16.129318, 49.53849], [16.135675, 49.541961], [16.138091, 49.541583], [16.146351, 49.544013], [16.149951, 49.544033], [16.154187, 49.544375], [16.155841, 49.545292], [16.158041, 49.546387], [16.158103, 49.546436], [16.158177, 49.547589], [16.157896, 49.548167], [16.157822, 49.548297], [16.157508, 49.548504], [16.155878, 49.549266], [16.15331, 49.549498], [16.150132, 49.549224], [16.149473, 49.549162], [16.145229, 49.548639], [16.144809, 49.548614], [16.144404, 49.548559], [16.140807, 49.54837], [16.140222, 49.548398], [16.138457, 49.548357], [16.131284, 49.551929], [16.126846, 49.555306], [16.123248, 49.555172], [16.1233, 49.553795], [16.119135, 49.547087], [16.111225, 49.549312], [16.108346, 49.551193], [16.106746, 49.550329], [16.101722, 49.557303], [16.102337, 49.558385], [16.10495, 49.56254], [16.104067, 49.56603], [16.101804, 49.565458], [16.096501, 49.572585], [16.095016, 49.577059], [16.094887, 49.577159], [16.093701, 49.577645], [16.09311, 49.577406], [16.091763, 49.576675], [16.091478, 49.576447], [16.090736, 49.5757], [16.089557, 49.574649], [16.084639, 49.572769], [16.078187, 49.577345], [16.078116, 49.577498], [16.077795, 49.577616], [16.075314, 49.577949], [16.075171, 49.577844], [16.074625, 49.57662], [16.07114, 49.572165], [16.0699, 49.57131], [16.069282, 49.570945], [16.069053, 49.570754], [16.066799, 49.56797], [16.058966, 49.569315], [16.058154, 49.577307], [16.058096, 49.579521], [16.05766, 49.580913], [16.057232, 49.58167], [16.056832, 49.582163], [16.050287, 49.587645], [16.046719, 49.58717], [16.038929, 49.591487], [16.038729, 49.592375], [16.038398, 49.593467], [16.034953, 49.59242], [16.028543, 49.58623], [16.027776, 49.586489], [16.026878, 49.586825], [16.02482, 49.587886], [16.023171, 49.589139], [16.023269, 49.597122], [16.02247, 49.597915], [16.02068, 49.599953], [16.017846, 49.608458], [16.018496, 49.608709], [16.019441, 49.60916], [16.022873, 49.610512], [16.024174, 49.610602], [16.026049, 49.610986], [16.02791, 49.611333], [16.033846, 49.614214], [16.034109, 49.614296], [16.035148, 49.616756], [16.035315, 49.617121], [16.034845, 49.617673], [16.033896, 49.618408], [16.032185, 49.6188], [16.025843, 49.618106], [16.025207, 49.618], [16.024798, 49.617888], [16.024322, 49.617688], [16.023519, 49.617139], [16.021741, 49.615486], [16.021445, 49.615149], [16.017947, 49.612436], [16.013064, 49.611599], [16.010094, 49.611897], [16.009346, 49.611989], [16.003569, 49.613912], [16.00246, 49.61432], [15.998379, 49.615461], [15.996091, 49.615035], [15.989359, 49.614814], [15.988226, 49.614868], [15.986522, 49.614576], [15.98713, 49.611028], [15.979964, 49.60585], [15.978144, 49.607892], [15.977535, 49.60786], [15.97717, 49.607778], [15.976225, 49.607494], [15.977261, 49.604046], [15.976563, 49.597884], [15.969269, 49.593308], [15.967297, 49.593419], [15.967012, 49.592556], [15.962675, 49.584687], [15.961296, 49.582926], [15.961239, 49.582589], [15.960753, 49.579729], [15.955988, 49.575231], [15.953288, 49.573059], [15.950701, 49.57255], [15.948825, 49.572847], [15.945832, 49.574919], [15.946511, 49.582422], [15.946147, 49.582472], [15.945738, 49.582535], [15.945186, 49.582573], [15.944242, 49.582558], [15.942935, 49.582521], [15.940199, 49.583213], [15.936792, 49.58993], [15.937219, 49.591866], [15.937273, 49.592295], [15.937266, 49.593012], [15.941195, 49.600056], [15.945532, 49.60016], [15.945877, 49.600141], [15.951499, 49.602656], [15.952325, 49.602823], [15.953184, 49.602963], [15.953995, 49.603188], [15.954419, 49.603411], [15.956041, 49.604262], [15.957595, 49.612309], [15.959976, 49.615009], [15.961871, 49.618752], [15.963193, 49.620391], [15.965319, 49.623295], [15.964599, 49.630207], [15.96502, 49.633061], [15.965058, 49.63358], [15.964986, 49.63491], [15.961391, 49.634715], [15.961243, 49.632679], [15.95327, 49.628713], [15.952429, 49.629442], [15.951824, 49.629751], [15.943362, 49.628563], [15.942679, 49.628083], [15.942127, 49.627726], [15.935717, 49.625816], [15.93224, 49.632574], [15.930958, 49.636194], [15.92652, 49.639839], [15.926278, 49.640022], [15.924923, 49.640188], [15.920319, 49.641004], [15.916075, 49.644115], [15.914415, 49.644977], [15.914412, 49.644977], [15.913562, 49.644454], [15.913251, 49.644052], [15.913115, 49.643849], [15.912944, 49.643532], [15.912884, 49.643398], [15.912987, 49.642265], [15.912992, 49.642256], [15.913606, 49.64136], [15.90971, 49.63348], [15.909331, 49.6299], [15.913161, 49.627487], [15.913818, 49.627106], [15.916098, 49.626329], [15.916282, 49.62626], [15.918109, 49.626523], [15.926474, 49.623235], [15.926863, 49.621352], [15.927602, 49.617831], [15.920334, 49.612619], [15.919526, 49.613023], [15.917624, 49.614634], [15.91473, 49.612493], [15.908351, 49.61271], [15.905234, 49.618075], [15.90504, 49.618817], [15.904874, 49.619191], [15.903789, 49.619648], [15.903701, 49.619637], [15.902965, 49.619446], [15.901534, 49.618018], [15.900905, 49.616693], [15.896621, 49.609459], [15.894907, 49.609463], [15.892256, 49.610113], [15.891398, 49.610622], [15.889387, 49.611541], [15.888307, 49.612048], [15.886404, 49.613177], [15.885972, 49.61348], [15.883775, 49.615165], [15.88315, 49.615658], [15.881563, 49.616857], [15.880007, 49.618032], [15.879576, 49.618299], [15.879117, 49.618501], [15.878738, 49.618614], [15.878344, 49.618688], [15.876533, 49.618855], [15.87592, 49.618932], [15.873526, 49.619337], [15.871056, 49.619752], [15.86587, 49.622168], [15.865372, 49.622518], [15.864901, 49.622694], [15.864592, 49.622762], [15.861134, 49.621641], [15.854461, 49.618225], [15.853857, 49.6183], [15.853094, 49.618308], [15.852532, 49.618246], [15.84954, 49.617569], [15.846191, 49.617841], [15.845726, 49.617861], [15.843373, 49.618174], [15.842334, 49.618536], [15.840824, 49.627169], [15.843072, 49.628031], [15.84532, 49.628892], [15.847569, 49.629754], [15.849801, 49.630609], [15.852039, 49.631448], [15.853333, 49.631827], [15.855301, 49.632358], [15.857652, 49.632979], [15.860004, 49.633601], [15.862355, 49.634222], [15.865077, 49.634986], [15.865955, 49.635559], [15.866356, 49.636128], [15.86653, 49.637648], [15.865641, 49.640399], [15.864555, 49.643567], [15.87022, 49.650412], [15.871859, 49.650461], [15.872872, 49.650523], [15.875161, 49.651171], [15.880707, 49.651245], [15.881955, 49.651597], [15.882796, 49.652067], [15.886889, 49.654113], [15.89283, 49.654859], [15.897067, 49.65365], [15.898046, 49.653401], [15.898718, 49.653424], [15.900286, 49.653637], [15.899801, 49.657204], [15.896364, 49.658088], [15.894531, 49.658286], [15.893902, 49.658346], [15.89331, 49.658427], [15.892603, 49.658554], [15.891677, 49.658656], [15.891036, 49.658704], [15.890397, 49.658682], [15.889434, 49.658451], [15.886276, 49.657661], [15.881225, 49.664264], [15.881412, 49.666351], [15.888803, 49.671286], [15.890463, 49.67448], [15.88522, 49.68106], [15.882673, 49.683605], [15.879199, 49.683436], [15.877619, 49.683376], [15.873395, 49.681956], [15.871023, 49.689579], [15.873696, 49.691632], [15.876961, 49.693766], [15.87938, 49.695322], [15.880623, 49.696144], [15.882126, 49.69722], [15.885539, 49.699651], [15.886444, 49.700142], [15.886982, 49.700539], [15.887468, 49.708776], [15.887403, 49.712376], [15.881977, 49.713821], [15.879992, 49.715041], [15.875083, 49.720467], [15.872859, 49.723298], [15.875127, 49.731716], [15.880217, 49.735893], [15.881319, 49.73683], [15.882105, 49.737476], [15.888265, 49.740516], [15.888576, 49.740694], [15.892974, 49.743021], [15.89337, 49.743524], [15.894368, 49.744878], [15.89147, 49.747013], [15.883896, 49.743645], [15.883417, 49.743377], [15.881667, 49.742339], [15.879946, 49.741317], [15.877912, 49.740101], [15.87746, 49.739776], [15.877078, 49.739433], [15.876595, 49.738912], [15.874485, 49.736475], [15.872405, 49.734072], [15.870325, 49.731668], [15.868246, 49.729265], [15.864647, 49.725141], [15.861743, 49.721812], [15.860275, 49.720125], [15.857103, 49.717528], [15.853284, 49.715765], [15.851755, 49.714571], [15.847463, 49.71218], [15.842461, 49.708249], [15.841846, 49.708046], [15.835643, 49.706438], [15.829299, 49.707864], [15.828659, 49.707279], [15.828314, 49.706931], [15.827916, 49.706447], [15.822146, 49.702879], [15.820304, 49.702216], [15.813896, 49.706958], [15.813575, 49.710171], [15.813883, 49.714318], [15.81977, 49.720742], [15.822208, 49.720892], [15.822322, 49.721282], [15.821668, 49.723801], [15.821651, 49.723863], [15.821164, 49.724225], [15.820588, 49.724522], [15.818096, 49.730061], [15.821947, 49.733727], [15.824807, 49.733918], [15.825934, 49.733801], [15.826722, 49.73362], [15.828554, 49.733113], [15.830571, 49.731895], [15.830939, 49.731562], [15.833167, 49.72601], [15.834356, 49.722612], [15.834478, 49.722482], [15.837081, 49.720877], [15.837629, 49.720517], [15.838262, 49.720176], [15.838866, 49.719917], [15.839284, 49.719767], [15.840713, 49.723072], [15.838436, 49.728299], [15.841516, 49.735842], [15.841538, 49.737853], [15.84067, 49.739341], [15.844967, 49.747101], [15.847851, 49.748048], [15.848341, 49.748144], [15.849068, 49.750728], [15.848932, 49.750907], [15.847644, 49.751676], [15.844386, 49.751399], [15.840416, 49.751327], [15.833505, 49.75381], [15.830572, 49.751722], [15.821801, 49.750227], [15.821581, 49.750529], [15.819649, 49.753093], [15.823395, 49.759362], [15.825032, 49.759865], [15.826167, 49.761597], [15.825992, 49.764191], [15.82474, 49.764599], [15.823672, 49.764193], [15.815928, 49.768624], [15.816616, 49.770236], [15.813982, 49.77269], [15.813172, 49.77182], [15.812733, 49.771276], [15.81057, 49.768535], [15.805105, 49.762709], [15.804957, 49.759112], [15.809726, 49.753418], [15.809163, 49.750782], [15.807441, 49.74762], [15.802184, 49.743669], [15.796256, 49.747822], [15.794656, 49.748706], [15.794503, 49.748663], [15.788774, 49.746755], [15.782704, 49.74753], [15.775338, 49.75028], [15.773294, 49.753323], [15.769712, 49.753687], [15.76866, 49.750019], [15.768739, 49.74642], [15.772814, 49.743751], [15.773941, 49.740332], [15.7738, 49.738599], [15.773246, 49.735042], [15.776083, 49.727362], [15.769436, 49.723181], [15.763496, 49.718993], [15.759926, 49.720282], [15.756423, 49.719452], [15.753362, 49.717779], [15.751859, 49.717276], [15.745084, 49.721342], [15.744726, 49.721282], [15.736407, 49.724009], [15.739687, 49.73176], [15.74357, 49.734336], [15.745302, 49.734705], [15.748106, 49.734594], [15.75166, 49.733655], [15.75603, 49.733929], [15.758283, 49.733704], [15.75956, 49.733728], [15.759993, 49.733728], [15.760209, 49.733758], [15.761905, 49.734094], [15.762748, 49.734258], [15.762062, 49.737792], [15.76012, 49.737674], [15.759533, 49.737641], [15.751477, 49.740275], [15.750953, 49.740795], [15.750556, 49.741047], [15.749918, 49.741316], [15.749405, 49.741433], [15.745661, 49.742547], [15.742914, 49.744874], [15.742482, 49.744365], [15.741861, 49.743335], [15.741626, 49.742684], [15.741605, 49.741759], [15.737168, 49.735652], [15.734242, 49.736142], [15.733918, 49.736247], [15.733487, 49.736349], [15.732933, 49.736406], [15.732568, 49.736406], [15.732176, 49.736363], [15.731587, 49.73619], [15.730848, 49.735731], [15.727804, 49.73239], [15.723747, 49.73102], [15.717814, 49.734251], [15.717037, 49.7426], [15.718532, 49.743427], [15.722024, 49.748673], [15.722434, 49.749009], [15.722782, 49.7494], [15.726369, 49.75199], [15.727555, 49.752607], [15.735265, 49.752242], [15.736301, 49.752678], [15.740815, 49.755468], [15.741654, 49.755551], [15.742334, 49.755683], [15.742834, 49.755733], [15.743788, 49.759456], [15.742779, 49.762912], [15.740308, 49.763556], [15.738889, 49.762619], [15.73119, 49.760674], [15.727953, 49.75709], [15.72564, 49.755656], [15.718477, 49.758244], [15.718157, 49.758582], [15.712706, 49.762591], [15.712753, 49.768377], [15.712679, 49.769301], [15.712535, 49.770238], [15.712378, 49.771129], [15.708191, 49.774518], [15.701291, 49.779459], [15.701583, 49.781234], [15.704975, 49.786299], [15.705251, 49.786489], [15.704802, 49.787248], [15.702244, 49.79168], [15.701587, 49.792374], [15.701007, 49.792722], [15.700579, 49.792923], [15.700231, 49.793055], [15.69697, 49.794267], [15.694101, 49.793963], [15.685584, 49.795679], [15.679895, 49.794482], [15.676076, 49.796092], [15.673345, 49.795614], [15.672887, 49.794422], [15.673679, 49.792029], [15.675599, 49.791778], [15.679819, 49.787691], [15.673292, 49.781527], [15.666897, 49.782836], [15.665788, 49.784396], [15.665752, 49.784464], [15.663066, 49.785241], [15.659906, 49.786136], [15.658992, 49.785555], [15.658937, 49.7855], [15.658711, 49.785142], [15.658426, 49.784513], [15.657842, 49.783186], [15.658619, 49.782642], [15.658019, 49.773686], [15.65728, 49.773326], [15.653103, 49.773154], [15.651944, 49.773429], [15.650702, 49.773306], [15.650254, 49.773257], [15.646613, 49.773308], [15.646163, 49.773351], [15.643403, 49.77342], [15.64267, 49.77338], [15.641155, 49.773455], [15.633387, 49.777511], [15.638159, 49.784742], [15.644323, 49.784888], [15.644485, 49.784945], [15.645506, 49.787019], [15.645388, 49.787296], [15.643575, 49.792229], [15.64353, 49.792346], [15.643107, 49.793099], [15.641746, 49.794033], [15.641665, 49.794044], [15.639538, 49.794029], [15.631808, 49.794933], [15.626904, 49.789542], [15.626216, 49.788824], [15.62487, 49.787348], [15.623556, 49.785905], [15.61742, 49.781308], [15.615191, 49.781408], [15.613626, 49.781821], [15.609971, 49.783443], [15.609485, 49.783755], [15.604009, 49.788299], [15.603501, 49.78856], [15.603366, 49.788598], [15.594839, 49.79136], [15.589844, 49.79527], [15.589552, 49.795551], [15.588412, 49.796258], [15.585555, 49.795576], [15.584139, 49.792266], [15.584611, 49.786693], [15.584705, 49.785864], [15.586392, 49.782934], [15.579904, 49.777464], [15.577472, 49.778605], [15.576166, 49.779277], [15.575548, 49.779573], [15.573996, 49.776325], [15.566882, 49.773947], [15.564258, 49.776666], [15.564009, 49.777209], [15.562448, 49.783736], [15.559063, 49.784962], [15.554291, 49.787042], [15.553859, 49.787224], [15.553087, 49.786889], [15.551676, 49.784361], [15.552504, 49.783731], [15.555419, 49.781499], [15.554652, 49.77431], [15.553885, 49.77271], [15.553382, 49.77159], [15.554307, 49.769134], [15.554931, 49.769208], [15.555464, 49.769323], [15.556269, 49.76944], [15.562422, 49.771847], [15.562991, 49.771711], [15.566487, 49.763545], [15.566602, 49.762306], [15.567103, 49.760884], [15.567328, 49.759273], [15.567712, 49.758767], [15.568217, 49.75831], [15.570323, 49.757068], [15.566606, 49.748882], [15.564759, 49.749351], [15.564257, 49.749444], [15.559926, 49.753051], [15.55911, 49.75498], [15.558631, 49.755766], [15.557571, 49.758213], [15.557137, 49.759084], [15.556683, 49.759541], [15.555671, 49.760059], [15.55497, 49.760086], [15.554892, 49.760059], [15.552613, 49.758275], [15.548818, 49.756885], [15.543835, 49.763878], [15.544197, 49.764687], [15.543973, 49.765766], [15.543759, 49.765809], [15.541182, 49.766289], [15.536979, 49.767686], [15.532739, 49.772712], [15.532049, 49.776782], [15.53677, 49.782165], [15.538258, 49.785443], [15.537736, 49.785706], [15.536575, 49.786383], [15.535881, 49.786871], [15.534801, 49.787222], [15.529831, 49.790464], [15.528191, 49.795828], [15.530545, 49.804353], [15.530773, 49.80463], [15.531054, 49.80505], [15.531249, 49.805422], [15.539754, 49.807733], [15.540002, 49.807776], [15.541236, 49.80988], [15.541061, 49.813882], [15.541017, 49.81396], [15.540805, 49.814178], [15.538301, 49.816382], [15.537569, 49.816796], [15.537234, 49.816959], [15.53684, 49.817106], [15.536227, 49.817277], [15.53416, 49.817158], [15.530644, 49.815345], [15.527703, 49.813549], [15.521837, 49.811245], [15.519852, 49.810475], [15.518519, 49.810212], [15.51663, 49.810042], [15.515701, 49.809998], [15.513406, 49.810242], [15.510974, 49.810495], [15.510603, 49.810515], [15.509954, 49.810497], [15.508403, 49.810301], [15.504106, 49.811927], [15.502876, 49.813286], [15.501203, 49.814057], [15.500299, 49.813354], [15.499633, 49.812631], [15.493356, 49.810682], [15.487086, 49.815076], [15.488807, 49.820832], [15.492057, 49.823205], [15.495501, 49.82454], [15.498595, 49.82578], [15.501371, 49.825788], [15.505003, 49.824835], [15.505476, 49.824538], [15.505843, 49.824293], [15.506414, 49.824], [15.50871, 49.822167], [15.51002, 49.822798], [15.510819, 49.8233], [15.51086, 49.823593], [15.511758, 49.827936], [15.51204, 49.834055], [15.510093, 49.836034], [15.50724, 49.835973], [15.506672, 49.836007], [15.506036, 49.835915], [15.505464, 49.835671], [15.501479, 49.835019], [15.494925, 49.838298], [15.49559, 49.841836], [15.495109, 49.844042], [15.494096, 49.845978], [15.493829, 49.846571], [15.493554, 49.846586], [15.492049, 49.845938], [15.485425, 49.843763], [15.481759, 49.843348], [15.475067, 49.840612], [15.471709, 49.842589], [15.46448, 49.847064], [15.464619, 49.850661], [15.462078, 49.850862], [15.454743, 49.853498], [15.453198, 49.85511], [15.450599, 49.852619], [15.452145, 49.851007], [15.453971, 49.848352], [15.456459, 49.846483], [15.459232, 49.843566], [15.454434, 49.836722], [15.453863, 49.836725], [15.453308, 49.836666], [15.450803, 49.836753], [15.44989, 49.835844], [15.448525, 49.834709], [15.447051, 49.833556], [15.449269, 49.83072], [15.451411, 49.828057], [15.451627, 49.827813], [15.453856, 49.822998], [15.447849, 49.817976], [15.447164, 49.817662], [15.446494, 49.817266], [15.445643, 49.816177], [15.445427, 49.815196], [15.444107, 49.812608], [15.435531, 49.811243], [15.433775, 49.812858], [15.433392, 49.813142], [15.425353, 49.813494], [15.424613, 49.813665], [15.423076, 49.813971], [15.419755, 49.807137], [15.419592, 49.80354], [15.420263, 49.797161], [15.420664, 49.796995], [15.422087, 49.796194], [15.424555, 49.794662], [15.425211, 49.794345], [15.428761, 49.786119], [15.425914, 49.781693], [15.41789, 49.783608], [15.416853, 49.784681], [15.414452, 49.788006], [15.410841, 49.79434], [15.410678, 49.795158], [15.41001, 49.797646], [15.409699, 49.798584], [15.409418, 49.799026], [15.408533, 49.800323], [15.405559, 49.798294], [15.397493, 49.796859], [15.393162, 49.79483], [15.388165, 49.789025], [15.38484, 49.789735], [15.382216, 49.790993], [15.378209, 49.791009], [15.371774, 49.790316], [15.369181, 49.792813], [15.361218, 49.795723], [15.358864, 49.792999], [15.360336, 49.784917], [15.360427, 49.781449], [15.36045, 49.780772], [15.360677, 49.780146], [15.361102, 49.779562], [15.361395, 49.779263], [15.362238, 49.778594], [15.362823, 49.77817], [15.364671, 49.775655], [15.364869, 49.775152], [15.358814, 49.768541], [15.354061, 49.769356], [15.353782, 49.76899], [15.353776, 49.768982], [15.353384, 49.768463], [15.355444, 49.76139], [15.358276, 49.759167], [15.365229, 49.762556], [15.366122, 49.762469], [15.373678, 49.761334], [15.374127, 49.761037], [15.377703, 49.757735], [15.379731, 49.757724], [15.379954, 49.757759], [15.384542, 49.757692], [15.385416, 49.74945], [15.382618, 49.747465], [15.381985, 49.747316], [15.379815, 49.746689], [15.377955, 49.745889], [15.378731, 49.742371], [15.379109, 49.74248], [15.381229, 49.743379], [15.38296, 49.743851], [15.390114, 49.740999], [15.391524, 49.732671], [15.389594, 49.730986], [15.388802, 49.730388], [15.386769, 49.728203], [15.385455, 49.72708], [15.385073, 49.726762], [15.384566, 49.726285], [15.38032, 49.724094], [15.380211, 49.722433], [15.371518, 49.721783], [15.370721, 49.721513], [15.370232, 49.721326], [15.369879, 49.721157], [15.369515, 49.72093], [15.365881, 49.719795], [15.365444, 49.719698], [15.36505, 49.719587], [15.364476, 49.719364], [15.360204, 49.718379], [15.35513, 49.720303], [15.354089, 49.721057], [15.353306, 49.721681], [15.351472, 49.722791], [15.352678, 49.731625], [15.354772, 49.732501], [15.355606, 49.733151], [15.361833, 49.73541], [15.365362, 49.735846], [15.364976, 49.737185], [15.364699, 49.738208], [15.366352, 49.745523], [15.365382, 49.748989], [15.364256, 49.748414], [15.362529, 49.746476], [15.359633, 49.744061], [15.354614, 49.743135], [15.353844, 49.743097], [15.347097, 49.748219], [15.349437, 49.751097], [15.345351, 49.754587], [15.344973, 49.754918], [15.340837, 49.762518], [15.339986, 49.766017], [15.338512, 49.765658], [15.33047, 49.764695], [15.326197, 49.766809], [15.325367, 49.767297], [15.324699, 49.767515], [15.323532, 49.767813], [15.318639, 49.77215], [15.31693, 49.77455], [15.322123, 49.780861], [15.322533, 49.780985], [15.323001, 49.781198], [15.325726, 49.783977], [15.330212, 49.785776], [15.331186, 49.785998], [15.331831, 49.786327], [15.334641, 49.787422], [15.33764, 49.78805], [15.336903, 49.791573], [15.338285, 49.799441], [15.340065, 49.803967], [15.337789, 49.806756], [15.33555, 49.805572], [15.334951, 49.805166], [15.334568, 49.804804], [15.331594, 49.801643], [15.330874, 49.799363], [15.330595, 49.798556], [15.32937, 49.795993], [15.328886, 49.794965], [15.326661, 49.791617], [15.326305, 49.791047], [15.320977, 49.785306], [15.319289, 49.784666], [15.31751, 49.783989], [15.315668, 49.78335], [15.314899, 49.783057], [15.314014, 49.782656], [15.312924, 49.782111], [15.311843, 49.781698], [15.311231, 49.781527], [15.306439, 49.782248], [15.303408, 49.786524], [15.303108, 49.791813], [15.303643, 49.79762], [15.302459, 49.801019], [15.298744, 49.809155], [15.298708, 49.809366], [15.297874, 49.809778], [15.297014, 49.810111], [15.296191, 49.810184], [15.295907, 49.809943], [15.295159, 49.808759], [15.294685, 49.807235], [15.294763, 49.806902], [15.295688, 49.802709], [15.295628, 49.800684], [15.295687, 49.798902], [15.295632, 49.798158], [15.294537, 49.793385], [15.293587, 49.791588], [15.291723, 49.789151], [15.289531, 49.787592], [15.28879, 49.786294], [15.288515, 49.785702], [15.288086, 49.783373], [15.287791, 49.781497], [15.288691, 49.778911], [15.28905, 49.778401], [15.290228, 49.772162], [15.286442, 49.767922], [15.284962, 49.767305], [15.284645, 49.767172], [15.283867, 49.766668], [15.283601, 49.766455], [15.277434, 49.76602], [15.274714, 49.771648], [15.273706, 49.776038], [15.27378, 49.777474], [15.27379, 49.779208], [15.273835, 49.779957], [15.273986, 49.781616], [15.275258, 49.785546], [15.275602, 49.786402], [15.275826, 49.787444], [15.276035, 49.78851], [15.2759, 49.79], [15.276379, 49.794894], [15.275021, 49.80135], [15.274875, 49.806618], [15.273114, 49.808173], [15.270984, 49.807415], [15.26279, 49.807006], [15.261813, 49.803541], [15.26107, 49.794838], [15.2607, 49.794552], [15.260692, 49.794023], [15.260742, 49.793184], [15.260741, 49.793097], [15.260836, 49.792543], [15.262545, 49.79201], [15.265073, 49.791933], [15.266258, 49.791496], [15.266684, 49.79139], [15.270909, 49.785501], [15.263165, 49.781463], [15.262093, 49.781951], [15.260578, 49.782495], [15.259894, 49.782846], [15.252678, 49.784631], [15.251922, 49.785742], [15.250906, 49.788254], [15.247569, 49.786905], [15.248188, 49.785813], [15.248584, 49.784393], [15.242771, 49.778016], [15.241478, 49.778269], [15.240469, 49.77837], [15.234314, 49.783765], [15.232143, 49.786277], [15.230342, 49.789394], [15.229661, 49.789001], [15.229099, 49.788629], [15.227869, 49.787743], [15.227381, 49.78735], [15.221359, 49.78516], [15.217078, 49.792079], [15.215151, 49.798621], [15.215096, 49.798751], [15.214153, 49.800686], [15.210623, 49.8067], [15.209528, 49.806399], [15.208651, 49.806244], [15.208062, 49.806001], [15.206782, 49.805372], [15.206405, 49.805234], [15.200881, 49.804201], [15.199661, 49.804466], [15.195329, 49.810554], [15.19801, 49.813932], [15.198219, 49.814173], [15.199506, 49.816468], [15.199916, 49.817722], [15.200271, 49.819986], [15.198184, 49.820878], [15.194115, 49.819841], [15.185494, 49.820894], [15.182688, 49.82196], [15.174723, 49.82152], [15.17293, 49.818398], [15.172742, 49.816771], [15.163844, 49.817428], [15.163678, 49.818139], [15.160172, 49.817321], [15.157394, 49.813743], [15.149895, 49.812489], [15.149383, 49.812626], [15.148552, 49.812648], [15.147545, 49.812438], [15.146514, 49.81043], [15.146132, 49.809843], [15.145936, 49.809307], [15.145871, 49.808642], [15.145868, 49.808414], [15.141456, 49.80084], [15.139615, 49.800271], [15.139394, 49.800208], [15.139231, 49.797346], [15.133618, 49.791676], [15.133158, 49.791549], [15.132618, 49.791307], [15.131784, 49.790513], [15.128119, 49.786904], [15.127652, 49.786772], [15.122164, 49.793485], [15.123, 49.794592], [15.124443, 49.801805], [15.123137, 49.80516], [15.119776, 49.813471], [15.12032, 49.814065], [15.120769, 49.814897], [15.120797, 49.815128], [15.119518, 49.818191], [15.119216, 49.818122], [15.1189, 49.818017], [15.118749, 49.817958], [15.117986, 49.817379], [15.115894, 49.815858], [15.114849, 49.81524], [15.11403, 49.814757], [15.105132, 49.813603], [15.099879, 49.810488], [15.094682, 49.809394], [15.093551, 49.809172], [15.091743, 49.807433], [15.09095, 49.803921], [15.093552, 49.803334], [15.095403, 49.795172], [15.093215, 49.79411], [15.092814, 49.793784], [15.092371, 49.793481], [15.088947, 49.790206], [15.086149, 49.787115], [15.085498, 49.786603], [15.085378, 49.786476], [15.077231, 49.783219], [15.076611, 49.783318], [15.071041, 49.786905], [15.071657, 49.792188], [15.072709, 49.793669], [15.073011, 49.794722], [15.069551, 49.795716], [15.066739, 49.792795], [15.066199, 49.792144], [15.062283, 49.788947], [15.054987, 49.789637], [15.051968, 49.792361], [15.051536, 49.792815], [15.051061, 49.793166], [15.050634, 49.793369], [15.050194, 49.793514], [15.049761, 49.793624], [15.042814, 49.795535], [15.043901, 49.801606], [15.045903, 49.804598], [15.043632, 49.80642], [15.042367, 49.807162], [15.03841, 49.813925], [15.036963, 49.822015], [15.036853, 49.822143], [15.036523, 49.82246], [15.031893, 49.829947], [15.035059, 49.836062], [15.036656, 49.839288], [15.036879, 49.840864], [15.034217, 49.843288], [15.026421, 49.840974], [15.017476, 49.840048], [15.015021, 49.834148], [15.008682, 49.830016], [15.006102, 49.829934], [15.005385, 49.829866], [15.003029, 49.829461], [15.000672, 49.829057], [15.001281, 49.825509], [15.005341, 49.823539], [15.006599, 49.815634], [15.005962, 49.814374], [15.005725, 49.813665], [15.005434, 49.812387], [14.998515, 49.807168], [14.998422, 49.807156], [14.997089, 49.803812], [14.989746, 49.798993], [14.98776, 49.798883], [14.987205, 49.798876], [14.986734, 49.798878], [14.97916, 49.794394], [14.978537, 49.794532], [14.977739, 49.794669], [14.974287, 49.802828], [14.975816, 49.804594], [14.97635, 49.805099], [14.97656, 49.80535], [14.973797, 49.807657], [14.967017, 49.812829], [14.965725, 49.814346], [14.957368, 49.815492], [14.955397, 49.816414], [14.950383, 49.812042], [14.944064, 49.81784], [14.94395, 49.818716], [14.94363, 49.819405], [14.943148, 49.820048], [14.942597, 49.820554], [14.942099, 49.820886], [14.941606, 49.821144], [14.940897, 49.821428], [14.936908, 49.821463], [14.935927, 49.830249], [14.936492, 49.830721], [14.937039, 49.831483], [14.937203, 49.831958], [14.937263, 49.832661], [14.937128, 49.833381], [14.936907, 49.833935], [14.936732, 49.834269], [14.935732, 49.836042], [14.934844, 49.837286], [14.932403, 49.83703], [14.925908, 49.833897], [14.92184, 49.832078], [14.916098, 49.833879], [14.915629, 49.834184], [14.914587, 49.834424], [14.908785, 49.835049], [14.901349, 49.834891], [14.90046, 49.834778], [14.89445, 49.833626], [14.887523, 49.83712], [14.886765, 49.838037], [14.886195, 49.838748], [14.884512, 49.847077], [14.884188, 49.849764], [14.87955, 49.853369], [14.876168, 49.854389], [14.871846, 49.857673], [14.869919, 49.862374], [14.868458, 49.870683], [14.867859, 49.870675], [14.866981, 49.870576], [14.86652, 49.870481], [14.866111, 49.870361], [14.865252, 49.870058], [14.864847, 49.869892], [14.864428, 49.86967], [14.863809, 49.869121], [14.863424, 49.868397], [14.861687, 49.866281], [14.858472, 49.863887], [14.855386, 49.862034], [14.848447, 49.864646], [14.848489, 49.868174], [14.848179, 49.868187], [14.847579, 49.868142], [14.842684, 49.866991], [14.841534, 49.86685], [14.840896, 49.866787], [14.840088, 49.866584], [14.839422, 49.866249], [14.830693, 49.865227], [14.827603, 49.867074], [14.82579, 49.866733], [14.819007, 49.866731], [14.818013, 49.873266], [14.818057, 49.873911], [14.817435, 49.876282], [14.814207, 49.877876], [14.811632, 49.874396], [14.803968, 49.874342], [14.802957, 49.874579], [14.802463, 49.87458], [14.800553, 49.87305], [14.797574, 49.867581], [14.795292, 49.866302], [14.794596, 49.865896], [14.788987, 49.865739], [14.786422, 49.871524], [14.786448, 49.871647], [14.786418, 49.871694], [14.785872, 49.872025], [14.785791, 49.872056], [14.785703, 49.872062], [14.78509, 49.872055], [14.777033, 49.874542], [14.776159, 49.874487], [14.774228, 49.87447], [14.773674, 49.874367], [14.764719, 49.875182], [14.763527, 49.875873], [14.75891, 49.881659], [14.758301, 49.88484], [14.758084, 49.885651], [14.757892, 49.886224], [14.75748, 49.887187], [14.75715, 49.887788], [14.756606, 49.888615], [14.756054, 49.88931], [14.75558, 49.889826], [14.754933, 49.890454], [14.752687, 49.892182], [14.750962, 49.893381], [14.745303, 49.897787], [14.743926, 49.899088], [14.742548, 49.900388], [14.740541, 49.902282], [14.739007, 49.903728], [14.73747, 49.905178], [14.73607, 49.906488], [14.735179, 49.90729], [14.734717, 49.907678], [14.733879, 49.908312], [14.732902, 49.909002], [14.731604, 49.909773], [14.730748, 49.910232], [14.729472, 49.910836], [14.728982, 49.911054], [14.728066, 49.911417], [14.725189, 49.912337], [14.724116, 49.912609], [14.722712, 49.912915], [14.72077, 49.913296], [14.712855, 49.9167], [14.712228, 49.917202], [14.707923, 49.920463], [14.705178, 49.918134], [14.706369, 49.916731]]], "type": "Polygon"}}], "metadata": {"attribution": "openrouteservice.org | OpenStreetMap contributors", "service": "isochrones", "timestamp": 1785652349446, "query": {"profile": "driving-car", "profileName": "driving-car", "locations": [[15.592, 49.3961]], "range": [3600.0], "range_type": "time"}, "engine": {"version": "9.9.0", "build_date": "2026-06-12T10:08:58Z", "graph_date": "2026-07-26T12:04:00Z", "osm_date": "2026-07-20T00:00:00Z"}}}