{"type": "FeatureCollection", "bbox": [14.757029, 49.590617, 16.368105, 50.517064], "features": [{"type": "Feature", "properties": {"group_index": 0, "value": 3600.0, "center": [15.78115108302309, 50.03429769620953]}, "geometry": {"coordinates": [[[14.760406, 50.130095], [14.763143, 50.13052], [14.766321, 50.130942], [14.771857, 50.131463], [14.778948, 50.131708], [14.782113, 50.131672], [14.783856, 50.131626], [14.787615, 50.131483], [14.790981, 50.13135], [14.793671, 50.131246], [14.795163, 50.131205], [14.797916, 50.131163], [14.800487, 50.131176], [14.803091, 50.131251], [14.804411, 50.131314], [14.806535, 50.131439], [14.80876, 50.131626], [14.809858, 50.131734], [14.812247, 50.132004], [14.814947, 50.132379], [14.816339, 50.1326], [14.819475, 50.133151], [14.823514, 50.133916], [14.83094, 50.132779], [14.833049, 50.132793], [14.839535, 50.131571], [14.845828, 50.127201], [14.846317, 50.126711], [14.846999, 50.126129], [14.849394, 50.124357], [14.852241, 50.122144], [14.856982, 50.116215], [14.85745, 50.115394], [14.858045, 50.11487], [14.858443, 50.114648], [14.859693, 50.114063], [14.860351, 50.113757], [14.863157, 50.113892], [14.864412, 50.115705], [14.861452, 50.117753], [14.859955, 50.119533], [14.859589, 50.120123], [14.85805, 50.121701], [14.85746, 50.129042], [14.863451, 50.130197], [14.864745, 50.129802], [14.865952, 50.129453], [14.867113, 50.129139], [14.868639, 50.128766], [14.869492, 50.128568], [14.87114, 50.128223], [14.872221, 50.128014], [14.87345, 50.127802], [14.874342, 50.127658], [14.87624, 50.127395], [14.878351, 50.127158], [14.879767, 50.127027], [14.881015, 50.126931], [14.882285, 50.126846], [14.884692, 50.126722], [14.890004, 50.120753], [14.891937, 50.119175], [14.887069, 50.111672], [14.885741, 50.111853], [14.885496, 50.111902], [14.883859, 50.112337], [14.883424, 50.112408], [14.882889, 50.112426], [14.882454, 50.112373], [14.882072, 50.112272], [14.881524, 50.112069], [14.880857, 50.111866], [14.881905, 50.108422], [14.884997, 50.108331], [14.886569, 50.108106], [14.887141, 50.107999], [14.887569, 50.107902], [14.888036, 50.10778], [14.889017, 50.107439], [14.889492, 50.107302], [14.890036, 50.10718], [14.890704, 50.107071], [14.891708, 50.106989], [14.893287, 50.106984], [14.893804, 50.10701], [14.894605, 50.107016], [14.895151, 50.107042], [14.896751, 50.10682], [14.89839, 50.106587], [14.902554, 50.099182], [14.898934, 50.09652], [14.897163, 50.096188], [14.894023, 50.096079], [14.889552, 50.089262], [14.886288, 50.08784], [14.887726, 50.084539], [14.89099, 50.085962], [14.894254, 50.087384], [14.898083, 50.089052], [14.901911, 50.09072], [14.908364, 50.090461], [14.908884, 50.090548], [14.909539, 50.090774], [14.913043, 50.09325], [14.913339, 50.093489], [14.913679, 50.094103], [14.913642, 50.094323], [14.913926, 50.10137], [14.916879, 50.102793], [14.917613, 50.103047], [14.918153, 50.103191], [14.918509, 50.103321], [14.920272, 50.103765], [14.923129, 50.104059], [14.923404, 50.104043], [14.930953, 50.100248], [14.932503, 50.099776], [14.935111, 50.099107], [14.936985, 50.09874], [14.944931, 50.094568], [14.945304, 50.094606], [14.945692, 50.094684], [14.946269, 50.09494], [14.948208, 50.096019], [14.948842, 50.099562], [14.95181, 50.104903], [14.952616, 50.108411], [14.958329, 50.114495], [14.959671, 50.114399], [14.961036, 50.114333], [14.962412, 50.114285], [14.964726, 50.114258], [14.965998, 50.114265], [14.972891, 50.11236], [14.975671, 50.112579], [14.975951, 50.112576], [14.979694, 50.115527], [14.981421, 50.11583], [14.983105, 50.116148], [14.987471, 50.108682], [14.987362, 50.108332], [14.987021, 50.104753], [14.986525, 50.102512], [14.985799, 50.097501], [14.988626, 50.096849], [14.991453, 50.096196], [14.991816, 50.096089], [14.992849, 50.095835], [14.998507, 50.089074], [14.997258, 50.085698], [15.000481, 50.084506], [15.003137, 50.083557], [15.004545, 50.083112], [15.005623, 50.082801], [15.008694, 50.074381], [15.008552, 50.073368], [15.009031, 50.070603], [15.009072, 50.070582], [15.011549, 50.069801], [15.011713, 50.069805], [15.014535, 50.070285], [15.0172, 50.073691], [15.019762, 50.076068], [15.028209, 50.077704], [15.03376, 50.077349], [15.033854, 50.077811], [15.034077, 50.079248], [15.034089, 50.079365], [15.0398, 50.086162], [15.041344, 50.086421], [15.041472, 50.086436], [15.041862, 50.086592], [15.050611, 50.085201], [15.0512, 50.085185], [15.051645, 50.085253], [15.054039, 50.086428], [15.054508, 50.086739], [15.063205, 50.085885], [15.063954, 50.084956], [15.064319, 50.084553], [15.065917, 50.082851], [15.06634, 50.082501], [15.066782, 50.082206], [15.067495, 50.081809], [15.066734, 50.07288], [15.064638, 50.072657], [15.063445, 50.072943], [15.06254, 50.073175], [15.061732, 50.073259], [15.061121, 50.073222], [15.06022, 50.073056], [15.059998, 50.073032], [15.05774, 50.072924], [15.055995, 50.073002], [15.055834, 50.069406], [15.061746, 50.066992], [15.064676, 50.059648], [15.068153, 50.058717], [15.072877, 50.063623], [15.07909, 50.06914], [15.079549, 50.069332], [15.079991, 50.06965], [15.080318, 50.069972], [15.080716, 50.070424], [15.081035, 50.070858], [15.082009, 50.072163], [15.082537, 50.072919], [15.088468, 50.078374], [15.088917, 50.07846], [15.089666, 50.078723], [15.090519, 50.079152], [15.091295, 50.079643], [15.094854, 50.080908], [15.095599, 50.081133], [15.096106, 50.081418], [15.097111, 50.082511], [15.09987, 50.0844], [15.102571, 50.085103], [15.103013, 50.085242], [15.103546, 50.085505], [15.107204, 50.085897], [15.110599, 50.084698], [15.111504, 50.087259], [15.118781, 50.091794], [15.123185, 50.087375], [15.123517, 50.084969], [15.126988, 50.085924], [15.132324, 50.090173], [15.133124, 50.090267], [15.140057, 50.086172], [15.136784, 50.078161], [15.133455, 50.075145], [15.133023, 50.074905], [15.132554, 50.074567], [15.132256, 50.07429], [15.124617, 50.070014], [15.123285, 50.070249], [15.120997, 50.071132], [15.120484, 50.071192], [15.119978, 50.07114], [15.117531, 50.071243], [15.115422, 50.071886], [15.113047, 50.07297], [15.11016, 50.073904], [15.107843, 50.074737], [15.107379, 50.074922], [15.10517, 50.072168], [15.105833, 50.071671], [15.107736, 50.06812], [15.10241, 50.062647], [15.099967, 50.063458], [15.098976, 50.064278], [15.09874, 50.064469], [15.097941, 50.065027], [15.097616, 50.065197], [15.09324, 50.06305], [15.089753, 50.063109], [15.089693, 50.059509], [15.09409, 50.051795], [15.09231, 50.049786], [15.090958, 50.048284], [15.089703, 50.046881], [15.089455, 50.046632], [15.086965, 50.044688], [15.08918, 50.041851], [15.09167, 50.043795], [15.092186, 50.044274], [15.093634, 50.045876], [15.094986, 50.047379], [15.096784, 50.049407], [15.098573, 50.051425], [15.099795, 50.053073], [15.101303, 50.055082], [15.101611, 50.055373], [15.106362, 50.058091], [15.11344, 50.05351], [15.114963, 50.052472], [15.115354, 50.052265], [15.118528, 50.046831], [15.118584, 50.046528], [15.114701, 50.040675], [15.111303, 50.041192], [15.10946, 50.041477], [15.107604, 50.041764], [15.106936, 50.041862], [15.105627, 50.039438], [15.105642, 50.039394], [15.105686, 50.039265], [15.105838, 50.039073], [15.106413, 50.0383], [15.10934, 50.036133], [15.112938, 50.036042], [15.12157, 50.036109], [15.129961, 50.034027], [15.130526, 50.034052], [15.132326, 50.034906], [15.132238, 50.035995], [15.131481, 50.037202], [15.130362, 50.037649], [15.12848, 50.039194], [15.130729, 50.047489], [15.134099, 50.04696], [15.135677, 50.04599], [15.13574, 50.045971], [15.137341, 50.045395], [15.138634, 50.046302], [15.140987, 50.048203], [15.149251, 50.046737], [15.153285, 50.046039], [15.154257, 50.045336], [15.151839, 50.036983], [15.147853, 50.036406], [15.144266, 50.033012], [15.14372, 50.032655], [15.142597, 50.03171], [15.140835, 50.030426], [15.14077, 50.030378], [15.140337, 50.027918], [15.140774, 50.027568], [15.142896, 50.027474], [15.142962, 50.027522], [15.144806, 50.028867], [15.147981, 50.030977], [15.156466, 50.032395], [15.157496, 50.032235], [15.158145, 50.032151], [15.161147, 50.031659], [15.167077, 50.025763], [15.167382, 50.025068], [15.1678, 50.024398], [15.168292, 50.0238], [15.169824, 50.022561], [15.174119, 50.019519], [15.175819, 50.018112], [15.177525, 50.016699], [15.178596, 50.015823], [15.179005, 50.015514], [15.179738, 50.015006], [15.180698, 50.014423], [15.182926, 50.013205], [15.184653, 50.016363], [15.190071, 50.020654], [15.194021, 50.018455], [15.195694, 50.016425], [15.196457, 50.012261], [15.196622, 50.011936], [15.196699, 50.01177], [15.196831, 50.011591], [15.197493, 50.011053], [15.202537, 50.010584], [15.21132, 50.00971], [15.213356, 50.009072], [15.215452, 50.008416], [15.21984, 50.00703], [15.221743, 50.006429], [15.22632, 50.004989], [15.232494, 50.001506], [15.232862, 49.997925], [15.23416, 49.998059], [15.235532, 49.998139], [15.241514, 49.997426], [15.242587, 49.996713], [15.244709, 49.995377], [15.24548, 49.994957], [15.246487, 49.994525], [15.249208, 49.99349], [15.249243, 49.985058], [15.246306, 49.984527], [15.244723, 49.984535], [15.244309, 49.984597], [15.243884, 49.984599], [15.243463, 49.984553], [15.241476, 49.984189], [15.240107, 49.983916], [15.237184, 49.983961], [15.234493, 49.984347], [15.234171, 49.984413], [15.232625, 49.984819], [15.231712, 49.981336], [15.233257, 49.980931], [15.236215, 49.980026], [15.242633, 49.979309], [15.246168, 49.978627], [15.252352, 49.974611], [15.253665, 49.971148], [15.253906, 49.970447], [15.254335, 49.969738], [15.255297, 49.968293], [15.255948, 49.967504], [15.256799, 49.967124], [15.257468, 49.967104], [15.258043, 49.967263], [15.258475, 49.967511], [15.258997, 49.968066], [15.259111, 49.968302], [15.259261, 49.968584], [15.263122, 49.971534], [15.266506, 49.971391], [15.26764, 49.963632], [15.266498, 49.961566], [15.266503, 49.961486], [15.266389, 49.957476], [15.266299, 49.956923], [15.265965, 49.953168], [15.265912, 49.951972], [15.267155, 49.945267], [15.270919, 49.941262], [15.273084, 49.932983], [15.270385, 49.928042], [15.261518, 49.926538], [15.256161, 49.922485], [15.255476, 49.922116], [15.255042, 49.921846], [15.255269, 49.919209], [15.256839, 49.917889], [15.259385, 49.919851], [15.266314, 49.918673], [15.269949, 49.910809], [15.269227, 49.907282], [15.269792, 49.907167], [15.273713, 49.907415], [15.275579, 49.907129], [15.281179, 49.903458], [15.281688, 49.899894], [15.287292, 49.898762], [15.288077, 49.900341], [15.296865, 49.898973], [15.295861, 49.895515], [15.301178, 49.889462], [15.301051, 49.885889], [15.301468, 49.885579], [15.302267, 49.885161], [15.304166, 49.886486], [15.305032, 49.887175], [15.305405, 49.888903], [15.306444, 49.892149], [15.307053, 49.893534], [15.307672, 49.895836], [15.308691, 49.89806], [15.310101, 49.899835], [15.316668, 49.893794], [15.316681, 49.890113], [15.316859, 49.88843], [15.312538, 49.882194], [15.311977, 49.881185], [15.311735, 49.879558], [15.3118, 49.879123], [15.31145, 49.873528], [15.311331, 49.873194], [15.311282, 49.872202], [15.311436, 49.867618], [15.308026, 49.860683], [15.306091, 49.859654], [15.303289, 49.858167], [15.299509, 49.857063], [15.29884, 49.856964], [15.295771, 49.856929], [15.291264, 49.863746], [15.291293, 49.864112], [15.287704, 49.864397], [15.286194, 49.862415], [15.285516, 49.861634], [15.285246, 49.861255], [15.285008, 49.860776], [15.284764, 49.860202], [15.279098, 49.853422], [15.274753, 49.846791], [15.272224, 49.846057], [15.271664, 49.845876], [15.270624, 49.845494], [15.271867, 49.842115], [15.273318, 49.842627], [15.275756, 49.843333], [15.276707, 49.843537], [15.279532, 49.844047], [15.281978, 49.844573], [15.288933, 49.842864], [15.289553, 49.842487], [15.289779, 49.8424], [15.291075, 49.845758], [15.299192, 49.843952], [15.299583, 49.841025], [15.299867, 49.840094], [15.300025, 49.839847], [15.30291, 49.840256], [15.303529, 49.840432], [15.303692, 49.840597], [15.30437, 49.841274], [15.307284, 49.846098], [15.30604, 49.850078], [15.306194, 49.852159], [15.312976, 49.85745], [15.313613, 49.857314], [15.314281, 49.857287], [15.317017, 49.856789], [15.317858, 49.856783], [15.324506, 49.851204], [15.324981, 49.847635], [15.329807, 49.845765], [15.335648, 49.847552], [15.337527, 49.848175], [15.338817, 49.849261], [15.338916, 49.851497], [15.337751, 49.855073], [15.336549, 49.858466], [15.331239, 49.860328], [15.329451, 49.863193], [15.33636, 49.868877], [15.337308, 49.868871], [15.338724, 49.868585], [15.339246, 49.868519], [15.34034, 49.868312], [15.341596, 49.868238], [15.347841, 49.864647], [15.35239, 49.858189], [15.35689, 49.850955], [15.356469, 49.849473], [15.350587, 49.84282], [15.348536, 49.842722], [15.347094, 49.842081], [15.346583, 49.841352], [15.348409, 49.838406], [15.348673, 49.838537], [15.350711, 49.839202], [15.351184, 49.839269], [15.352094, 49.839353], [15.353605, 49.839578], [15.354595, 49.839705], [15.355692, 49.84025], [15.358238, 49.840745], [15.363902, 49.834408], [15.362245, 49.829354], [15.361898, 49.828874], [15.361693, 49.828338], [15.359853, 49.825509], [15.353488, 49.824536], [15.351639, 49.825073], [15.351632, 49.825071], [15.350754, 49.822194], [15.352018, 49.814809], [15.35215, 49.814288], [15.35338, 49.814366], [15.357269, 49.815411], [15.362366, 49.817319], [15.363754, 49.817681], [15.371389, 49.818019], [15.37487, 49.815415], [15.376192, 49.813732], [15.379023, 49.815955], [15.378948, 49.821995], [15.377545, 49.82531], [15.372277, 49.828133], [15.374471, 49.834984], [15.374742, 49.835182], [15.37514, 49.835554], [15.376112, 49.836883], [15.376404, 49.837415], [15.376605, 49.837933], [15.377455, 49.840443], [15.377964, 49.841908], [15.379323, 49.844239], [15.37988, 49.845378], [15.387867, 49.848467], [15.388533, 49.848337], [15.389225, 49.848255], [15.393712, 49.849647], [15.394008, 49.849654], [15.394288, 49.849761], [15.401412, 49.851786], [15.406611, 49.84488], [15.405438, 49.842827], [15.405412, 49.842761], [15.404447, 49.840458], [15.403319, 49.838195], [15.395962, 49.833399], [15.39373, 49.832757], [15.392847, 49.832365], [15.392519, 49.832144], [15.392163, 49.83183], [15.391986, 49.829025], [15.392217, 49.828806], [15.394786, 49.829245], [15.397762, 49.829353], [15.39844, 49.829269], [15.399777, 49.828976], [15.404936, 49.822007], [15.406747, 49.818895], [15.409184, 49.814757], [15.40941, 49.814283], [15.412646, 49.815254], [15.415318, 49.818649], [15.412057, 49.823634], [15.411767, 49.824376], [15.409522, 49.826678], [15.407648, 49.828472], [15.407088, 49.83339], [15.412138, 49.836945], [15.418391, 49.839063], [15.422941, 49.836133], [15.425774, 49.833912], [15.431071, 49.829258], [15.431023, 49.825393], [15.430965, 49.82501], [15.430911, 49.824229], [15.432504, 49.823256], [15.43823, 49.820783], [15.441626, 49.819588], [15.44652, 49.817282], [15.445942, 49.808588], [15.441131, 49.80561], [15.438732, 49.802887], [15.44101, 49.800099], [15.439758, 49.793484], [15.442125, 49.790772], [15.447597, 49.792058], [15.45393, 49.789326], [15.457151, 49.787719], [15.462341, 49.789636], [15.469549, 49.793939], [15.472792, 49.795501], [15.479818, 49.790844], [15.480954, 49.788395], [15.481907, 49.786344], [15.482419, 49.785427], [15.484617, 49.779218], [15.484711, 49.77907], [15.486134, 49.778236], [15.490175, 49.776588], [15.490389, 49.776785], [15.490886, 49.777382], [15.490781, 49.778948], [15.491021, 49.78254], [15.489237, 49.784035], [15.488868, 49.784486], [15.488453, 49.784902], [15.488157, 49.785165], [15.487569, 49.785617], [15.486569, 49.786312], [15.485077, 49.788052], [15.484222, 49.789907], [15.483083, 49.79236], [15.481886, 49.794935], [15.480395, 49.802261], [15.48637, 49.805399], [15.490509, 49.800893], [15.490711, 49.800483], [15.490849, 49.800305], [15.492342, 49.798848], [15.492629, 49.798427], [15.493265, 49.797187], [15.49353, 49.79688], [15.493771, 49.796667], [15.494697, 49.795983], [15.495064, 49.795786], [15.495622, 49.795566], [15.497498, 49.795049], [15.499158, 49.794607], [15.499406, 49.794506], [15.505071, 49.78758], [15.505218, 49.786321], [15.505411, 49.785629], [15.506365, 49.784316], [15.506896, 49.783855], [15.510253, 49.775917], [15.508779, 49.77258], [15.508483, 49.772094], [15.505669, 49.769338], [15.505243, 49.769068], [15.503777, 49.767949], [15.502988, 49.767452], [15.500193, 49.765929], [15.499841, 49.765747], [15.49743, 49.76493], [15.496894, 49.76474], [15.496485, 49.764502], [15.495354, 49.763687], [15.495326, 49.762838], [15.495765, 49.760111], [15.496397, 49.760125], [15.496833, 49.760169], [15.497602, 49.760316], [15.497921, 49.760538], [15.501245, 49.762433], [15.501809, 49.762711], [15.50471, 49.76429], [15.513118, 49.761105], [15.513566, 49.761322], [15.514247, 49.761629], [15.514983, 49.761962], [15.522982, 49.761968], [15.526534, 49.762221], [15.529585, 49.768483], [15.531794, 49.770043], [15.532309, 49.770402], [15.532878, 49.771483], [15.532728, 49.772768], [15.532281, 49.775129], [15.5342, 49.783519], [15.533376, 49.787023], [15.533245, 49.787405], [15.531526, 49.789263], [15.529611, 49.793855], [15.528001, 49.79776], [15.530396, 49.804202], [15.530652, 49.804476], [15.530948, 49.80488], [15.539087, 49.806221], [15.540271, 49.804903], [15.542613, 49.801085], [15.542895, 49.797825], [15.543055, 49.797443], [15.543754, 49.794096], [15.546162, 49.790153], [15.547646, 49.788293], [15.548701, 49.78613], [15.549341, 49.785439], [15.549399, 49.78537], [15.552501, 49.783733], [15.555419, 49.781499], [15.554652, 49.77431], [15.553717, 49.772042], [15.55647, 49.76985], [15.565194, 49.770767], [15.568664, 49.76627], [15.569899, 49.762888], [15.570116, 49.762721], [15.571993, 49.761989], [15.575093, 49.754623], [15.574329, 49.753146], [15.573613, 49.752093], [15.572742, 49.751225], [15.564759, 49.749351], [15.559926, 49.753051], [15.55911, 49.75498], [15.558631, 49.755766], [15.55839, 49.756073], [15.55824, 49.756278], [15.557311, 49.757817], [15.555002, 49.757851], [15.551519, 49.755552], [15.548656, 49.753369], [15.542931, 49.748526], [15.541151, 49.745605], [15.540431, 49.744825], [15.531854, 49.742606], [15.528447, 49.744062], [15.528046, 49.74429], [15.526492, 49.74501], [15.525688, 49.743108], [15.524979, 49.741744], [15.526603, 49.74097], [15.52933, 49.739319], [15.53135, 49.73323], [15.531548, 49.732323], [15.532161, 49.731809], [15.534399, 49.731316], [15.540937, 49.735342], [15.542594, 49.735337], [15.543139, 49.735384], [15.544415, 49.735652], [15.545691, 49.735977], [15.54614, 49.736104], [15.546686, 49.736294], [15.547484, 49.736659], [15.548742, 49.737324], [15.550153, 49.738117], [15.551573, 49.739077], [15.551886, 49.739304], [15.552311, 49.739664], [15.557769, 49.741675], [15.559538, 49.741207], [15.561713, 49.732758], [15.560969, 49.731944], [15.560398, 49.731227], [15.560134, 49.730725], [15.559981, 49.730017], [15.560086, 49.72868], [15.560352, 49.72787], [15.561416, 49.726484], [15.561437, 49.726464], [15.563388, 49.719532], [15.560774, 49.717057], [15.558436, 49.708963], [15.558053, 49.706122], [15.558286, 49.705952], [15.560041, 49.705741], [15.568133, 49.706173], [15.57439, 49.707769], [15.581924, 49.708462], [15.585498, 49.703768], [15.587625, 49.704012], [15.588913, 49.704907], [15.594156, 49.711111], [15.595599, 49.711038], [15.59607, 49.711022], [15.597843, 49.711005], [15.599933, 49.710943], [15.602556, 49.71094], [15.603407, 49.710913], [15.608042, 49.703277], [15.601737, 49.701435], [15.599153, 49.701013], [15.599003, 49.700561], [15.599397, 49.698756], [15.603333, 49.69363], [15.605119, 49.690505], [15.609927, 49.687705], [15.612683, 49.688307], [15.619176, 49.684969], [15.617446, 49.676207], [15.617209, 49.675984], [15.616677, 49.674935], [15.617041, 49.673458], [15.613564, 49.666115], [15.609301, 49.665896], [15.608546, 49.665868], [15.60809, 49.665734], [15.607481, 49.665482], [15.604998, 49.66476], [15.604221, 49.662795], [15.604168, 49.662566], [15.603858, 49.661346], [15.605653, 49.66042], [15.606656, 49.66067], [15.614144, 49.662562], [15.620729, 49.662887], [15.624046, 49.664359], [15.631004, 49.663906], [15.637559, 49.663762], [15.642707, 49.66254], [15.649906, 49.661458], [15.651771, 49.660735], [15.656473, 49.65915], [15.658993, 49.661721], [15.658061, 49.662635], [15.657559, 49.66303], [15.6572, 49.663245], [15.657093, 49.663302], [15.651634, 49.669237], [15.655455, 49.675418], [15.655483, 49.681266], [15.656698, 49.683004], [15.657442, 49.683886], [15.658297, 49.685014], [15.66022, 49.688134], [15.663541, 49.689525], [15.670803, 49.688356], [15.673006, 49.679807], [15.670784, 49.679353], [15.668068, 49.679056], [15.667381, 49.679091], [15.665643, 49.679059], [15.665376, 49.679003], [15.666112, 49.675479], [15.667539, 49.673763], [15.670869, 49.675132], [15.676825, 49.676194], [15.677947, 49.676062], [15.684601, 49.670418], [15.685427, 49.668064], [15.687393, 49.664594], [15.685511, 49.658167], [15.684112, 49.65485], [15.679036, 49.647635], [15.677966, 49.643053], [15.679481, 49.639788], [15.681718, 49.640416], [15.685845, 49.633369], [15.685621, 49.632949], [15.684521, 49.630412], [15.684439, 49.630255], [15.683248, 49.628249], [15.683194, 49.62792], [15.686745, 49.627332], [15.687531, 49.628232], [15.692182, 49.632965], [15.694742, 49.635496], [15.700776, 49.635997], [15.701283, 49.635808], [15.701564, 49.635733], [15.706434, 49.640074], [15.709592, 49.63991], [15.710538, 49.639784], [15.711874, 49.639514], [15.712821, 49.639263], [15.714201, 49.638966], [15.715138, 49.63891], [15.715997, 49.638988], [15.720232, 49.638591], [15.72109, 49.638449], [15.721904, 49.638385], [15.722788, 49.638345], [15.723883, 49.638409], [15.725868, 49.638667], [15.727741, 49.638913], [15.729673, 49.639168], [15.735139, 49.632253], [15.733823, 49.629754], [15.733178, 49.629039], [15.732999, 49.628692], [15.732812, 49.628245], [15.732385, 49.626989], [15.724762, 49.622919], [15.724009, 49.619398], [15.728948, 49.617182], [15.735727, 49.611899], [15.736105, 49.611474], [15.737338, 49.611753], [15.738957, 49.613488], [15.738556, 49.614303], [15.737273, 49.619924], [15.73691, 49.621647], [15.737209, 49.627667], [15.737882, 49.628753], [15.7454, 49.631357], [15.746967, 49.629366], [15.74783, 49.628096], [15.748313, 49.627237], [15.748897, 49.62653], [15.749619, 49.625918], [15.751495, 49.624536], [15.751823, 49.624301], [15.752568, 49.623692], [15.752971, 49.623497], [15.754539, 49.626738], [15.753226, 49.627898], [15.75102, 49.629764], [15.752175, 49.638627], [15.752777, 49.639039], [15.753366, 49.639546], [15.753811, 49.640012], [15.760383, 49.642597], [15.762976, 49.641374], [15.763963, 49.640905], [15.764583, 49.640667], [15.768445, 49.639593], [15.771984, 49.633823], [15.769839, 49.625711], [15.769206, 49.624685], [15.768799, 49.624047], [15.768047, 49.622623], [15.765909, 49.619963], [15.759547, 49.615478], [15.7591, 49.61546], [15.75879, 49.615418], [15.758221, 49.615318], [15.757406, 49.615082], [15.756578, 49.614714], [15.758038, 49.611424], [15.764068, 49.604745], [15.762252, 49.602363], [15.761667, 49.601269], [15.761154, 49.599991], [15.760747, 49.598705], [15.760709, 49.597644], [15.759956, 49.592289], [15.760707, 49.590963], [15.763145, 49.590617], [15.764898, 49.593118], [15.765184, 49.593494], [15.764655, 49.596776], [15.766914, 49.60254], [15.775342, 49.603151], [15.779055, 49.604822], [15.779341, 49.60841], [15.780501, 49.615487], [15.780755, 49.615858], [15.781069, 49.616979], [15.781026, 49.617709], [15.780523, 49.621046], [15.780463, 49.622281], [15.780638, 49.624871], [15.788778, 49.628117], [15.791688, 49.627177], [15.794557, 49.626212], [15.797427, 49.625247], [15.800296, 49.624282], [15.803162, 49.623318], [15.803867, 49.615439], [15.802053, 49.61403], [15.801131, 49.613188], [15.800679, 49.612618], [15.796172, 49.608216], [15.796552, 49.604636], [15.798383, 49.604831], [15.799737, 49.605111], [15.800321, 49.605323], [15.800747, 49.605554], [15.801419, 49.606147], [15.802381, 49.607326], [15.802741, 49.607941], [15.804446, 49.611341], [15.811837, 49.612063], [15.812514, 49.611623], [15.812995, 49.611418], [15.813906, 49.61102], [15.815281, 49.610258], [15.815998, 49.610019], [15.816888, 49.60987], [15.821237, 49.61064], [15.827234, 49.608706], [15.827532, 49.608631], [15.829603, 49.609613], [15.830817, 49.610178], [15.8313, 49.610851], [15.833427, 49.614058], [15.831277, 49.616946], [15.82465, 49.616336], [15.818835, 49.618047], [15.818371, 49.618248], [15.816893, 49.618817], [15.815844, 49.619285], [15.815538, 49.619406], [15.809937, 49.622785], [15.807689, 49.624936], [15.807161, 49.625362], [15.806537, 49.625792], [15.805935, 49.626115], [15.805412, 49.626349], [15.804316, 49.626728], [15.801444, 49.627694], [15.798574, 49.628659], [15.800328, 49.637059], [15.801421, 49.637304], [15.802468, 49.637994], [15.802886, 49.639876], [15.801708, 49.642815], [15.80415, 49.650168], [15.806022, 49.653244], [15.804765, 49.654265], [15.80416, 49.654632], [15.802577, 49.655453], [15.801872, 49.655784], [15.800404, 49.656255], [15.799802, 49.656407], [15.799438, 49.656466], [15.79883, 49.656447], [15.790526, 49.659799], [15.789841, 49.660562], [15.788603, 49.661296], [15.787106, 49.662095], [15.785122, 49.662958], [15.782407, 49.663841], [15.779068, 49.67164], [15.779006, 49.680402], [15.781309, 49.681647], [15.783556, 49.682862], [15.785803, 49.684077], [15.788485, 49.685464], [15.791017, 49.686336], [15.791519, 49.686528], [15.794067, 49.687725], [15.796493, 49.688871], [15.80436, 49.691108], [15.810312, 49.688461], [15.81291, 49.684107], [15.813212, 49.684056], [15.820347, 49.681959], [15.827742, 49.680943], [15.830673, 49.679021], [15.83206, 49.678093], [15.832569, 49.677772], [15.835066, 49.676541], [15.837567, 49.675404], [15.83809, 49.675255], [15.840708, 49.674983], [15.844973, 49.675556], [15.845584, 49.675725], [15.846056, 49.675832], [15.846992, 49.675966], [15.847576, 49.676114], [15.85399, 49.671838], [15.847288, 49.666253], [15.844716, 49.663734], [15.839834, 49.659228], [15.839049, 49.658841], [15.838655, 49.65856], [15.838513, 49.658423], [15.840303, 49.655299], [15.843479, 49.655462], [15.844229, 49.655519], [15.845465, 49.65571], [15.847306, 49.655881], [15.847903, 49.655981], [15.848653, 49.656148], [15.849159, 49.656233], [15.849655, 49.656381], [15.850263, 49.65669], [15.850691, 49.656962], [15.857778, 49.65163], [15.857321, 49.649659], [15.857286, 49.64885], [15.860881, 49.649042], [15.862724, 49.652811], [15.864161, 49.653982], [15.873081, 49.654927], [15.873388, 49.653128], [15.874057, 49.6512], [15.874885, 49.651148], [15.875161, 49.651171], [15.882191, 49.651787], [15.888444, 49.656265], [15.89101, 49.655112], [15.891356, 49.65507], [15.892756, 49.65487], [15.893496, 49.65477], [15.896913, 49.653725], [15.897309, 49.653546], [15.898504, 49.653408], [15.905641, 49.65141], [15.908074, 49.648814], [15.911289, 49.645099], [15.911581, 49.64042], [15.906255, 49.633875], [15.905285, 49.633887], [15.901271, 49.633546], [15.900604, 49.633437], [15.898512, 49.633207], [15.898827, 49.63007], [15.899953, 49.625879], [15.900214, 49.625039], [15.901131, 49.624804], [15.903754, 49.625695], [15.911719, 49.627521], [15.912086, 49.627465], [15.912864, 49.627457], [15.915653, 49.627477], [15.917891, 49.627406], [15.918396, 49.627413], [15.918762, 49.627439], [15.919248, 49.627522], [15.926474, 49.623235], [15.926864, 49.621348], [15.927651, 49.617647], [15.923118, 49.612927], [15.92254, 49.612834], [15.921713, 49.612576], [15.921598, 49.612524], [15.921553, 49.612504], [15.921059, 49.612148], [15.921051, 49.612139], [15.92085, 49.611892], [15.920837, 49.611872], [15.923041, 49.609226], [15.924592, 49.609052], [15.925055, 49.60904], [15.925704, 49.609134], [15.93316, 49.604768], [15.936458, 49.60621], [15.936798, 49.613767], [15.940611, 49.615161], [15.941716, 49.615054], [15.942062, 49.618638], [15.93831, 49.621624], [15.940639, 49.628189], [15.943018, 49.630891], [15.942674, 49.634006], [15.940402, 49.636798], [15.933193, 49.638453], [15.931433, 49.642986], [15.929684, 49.646914], [15.927115, 49.649436], [15.926486, 49.648915], [15.918097, 49.647915], [15.913745, 49.651504], [15.913431, 49.651553], [15.912971, 49.651592], [15.908267, 49.653872], [15.906777, 49.65546], [15.906027, 49.6567], [15.910861, 49.663878], [15.911681, 49.664119], [15.911848, 49.664201], [15.912769, 49.664906], [15.91462, 49.666919], [15.916527, 49.670599], [15.915525, 49.673142], [15.914591, 49.673419], [15.913701, 49.673376], [15.913198, 49.673284], [15.911743, 49.671684], [15.906159, 49.66682], [15.900058, 49.668561], [15.899289, 49.669315], [15.898424, 49.670038], [15.897635, 49.670606], [15.896837, 49.671124], [15.896307, 49.671431], [15.895656, 49.671784], [15.893563, 49.67287], [15.891497, 49.673943], [15.886538, 49.679099], [15.886822, 49.683148], [15.886927, 49.686126], [15.886457, 49.687381], [15.886591, 49.694301], [15.889323, 49.696342], [15.889439, 49.69672], [15.889452, 49.697724], [15.888877, 49.699669], [15.889574, 49.708424], [15.890361, 49.709876], [15.894902, 49.71744], [15.895753, 49.717296], [15.897865, 49.716895], [15.900537, 49.715042], [15.900933, 49.714706], [15.903009, 49.713237], [15.903611, 49.712858], [15.904888, 49.712342], [15.906974, 49.711727], [15.907829, 49.711529], [15.909138, 49.711202], [15.910153, 49.714656], [15.908704, 49.715021], [15.907885, 49.715275], [15.905059, 49.716197], [15.902975, 49.718316], [15.908078, 49.725522], [15.909732, 49.725246], [15.910521, 49.725467], [15.910996, 49.72574], [15.911219, 49.725909], [15.90933, 49.730549], [15.913569, 49.737567], [15.915177, 49.738264], [15.916558, 49.738758], [15.923318, 49.738272], [15.928356, 49.734358], [15.928938, 49.733438], [15.929723, 49.732309], [15.931565, 49.72992], [15.932922, 49.728368], [15.934106, 49.724816], [15.934265, 49.721395], [15.934026, 49.720498], [15.928028, 49.716149], [15.924789, 49.71769], [15.924082, 49.717379], [15.923247, 49.715674], [15.923892, 49.714063], [15.924239, 49.713025], [15.924416, 49.712266], [15.928751, 49.711562], [15.936162, 49.707533], [15.938293, 49.705497], [15.940607, 49.703307], [15.942772, 49.701728], [15.944951, 49.70014], [15.947109, 49.698597], [15.949254, 49.697063], [15.951498, 49.695428], [15.954031, 49.693621], [15.958574, 49.688458], [15.959006, 49.685974], [15.959584, 49.682888], [15.961773, 49.679995], [15.961931, 49.680133], [15.963122, 49.68355], [15.962544, 49.686637], [15.967835, 49.693056], [15.972583, 49.693029], [15.976136, 49.693001], [15.979573, 49.692978], [15.979803, 49.692965], [15.986828, 49.687919], [15.986257, 49.684869], [15.98637, 49.68338], [15.986251, 49.6792], [15.987019, 49.673954], [15.988496, 49.671565], [15.988678, 49.671541], [15.99021, 49.672316], [15.99028, 49.672435], [15.992413, 49.675111], [16.001038, 49.673825], [16.003856, 49.676066], [16.002949, 49.677206], [15.999744, 49.685162], [15.999489, 49.68914], [15.997577, 49.695212], [15.999652, 49.699935], [16.000051, 49.700408], [16.000256, 49.700696], [16.000424, 49.701006], [16.00546, 49.706486], [16.008762, 49.707029], [16.011424, 49.706906], [16.014416, 49.705885], [16.01494, 49.705787], [16.01856, 49.706579], [16.022773, 49.708039], [16.028444, 49.704024], [16.030313, 49.703758], [16.033739, 49.704316], [16.038133, 49.706392], [16.040415, 49.70888], [16.048403, 49.707678], [16.049125, 49.707333], [16.050677, 49.710582], [16.051843, 49.717706], [16.053157, 49.721058], [16.052848, 49.723666], [16.052825, 49.725347], [16.052591, 49.725715], [16.052306, 49.726069], [16.04924, 49.730053], [16.055832, 49.735991], [16.056653, 49.735332], [16.057277, 49.734964], [16.058094, 49.734546], [16.059421, 49.734051], [16.060678, 49.737425], [16.066949, 49.740846], [16.075372, 49.741501], [16.077109, 49.740607], [16.077746, 49.740334], [16.078245, 49.740276], [16.078678, 49.740305], [16.07991, 49.740662], [16.080571, 49.741226], [16.080886, 49.74178], [16.080986, 49.742061], [16.0795, 49.743266], [16.079075, 49.743776], [16.078625, 49.744128], [16.077862, 49.744443], [16.076293, 49.7455], [16.075533, 49.745909], [16.074905, 49.746192], [16.074521, 49.746278], [16.071205, 49.747607], [16.064809, 49.752938], [16.071714, 49.758231], [16.074316, 49.757728], [16.074764, 49.757693], [16.079185, 49.754598], [16.082127, 49.753044], [16.086455, 49.753539], [16.08809, 49.752975], [16.088838, 49.75266], [16.09166, 49.750793], [16.093196, 49.750118], [16.098882, 49.745027], [16.097772, 49.740504], [16.097752, 49.74001], [16.097634, 49.738837], [16.101181, 49.73822], [16.107531, 49.736348], [16.108339, 49.736282], [16.108805, 49.736328], [16.10935, 49.736449], [16.110735, 49.736928], [16.110073, 49.740315], [16.111103, 49.743764], [16.113017, 49.745881], [16.114943, 49.747559], [16.120271, 49.752205], [16.124407, 49.745271], [16.121166, 49.73722], [16.119699, 49.733932], [16.124551, 49.730878], [16.127361, 49.730481], [16.13423, 49.734187], [16.136181, 49.733329], [16.138421, 49.732237], [16.139448, 49.731836], [16.140766, 49.731246], [16.141398, 49.73215], [16.142238, 49.734531], [16.143339, 49.736733], [16.151082, 49.739333], [16.152591, 49.737286], [16.155938, 49.735961], [16.163841, 49.737375], [16.168176, 49.737991], [16.173207, 49.738447], [16.175178, 49.738736], [16.174655, 49.742298], [16.167602, 49.747509], [16.162182, 49.749948], [16.16022, 49.756329], [16.160141, 49.756429], [16.159673, 49.756896], [16.155521, 49.760286], [16.15189, 49.759372], [16.144948, 49.754839], [16.140145, 49.758628], [16.141649, 49.766911], [16.141543, 49.77051], [16.138811, 49.777464], [16.141984, 49.780945], [16.142758, 49.783132], [16.147455, 49.789903], [16.147754, 49.79349], [16.155715, 49.795174], [16.157264, 49.793247], [16.158309, 49.790095], [16.15978, 49.789071], [16.160168, 49.788834], [16.160727, 49.789097], [16.163106, 49.790448], [16.170477, 49.793125], [16.177031, 49.790894], [16.177687, 49.791031], [16.178683, 49.79159], [16.183545, 49.793966], [16.188618, 49.793745], [16.195754, 49.792869], [16.198678, 49.793064], [16.199345, 49.793114], [16.199394, 49.793965], [16.203994, 49.800982], [16.204516, 49.803893], [16.204356, 49.804023], [16.202943, 49.804425], [16.202109, 49.804636], [16.197993, 49.803202], [16.197805, 49.803151], [16.197758, 49.803131], [16.19591, 49.802586], [16.19581, 49.802522], [16.194193, 49.801731], [16.192687, 49.800971], [16.186724, 49.799462], [16.185349, 49.799398], [16.182571, 49.799851], [16.183072, 49.808822], [16.185781, 49.811194], [16.189007, 49.81869], [16.193584, 49.818438], [16.194441, 49.817923], [16.196158, 49.816524], [16.197876, 49.815398], [16.199849, 49.818409], [16.206597, 49.822713], [16.208843, 49.821531], [16.21052, 49.824716], [16.213636, 49.831604], [16.215552, 49.832745], [16.221079, 49.833239], [16.224292, 49.827408], [16.2243, 49.826819], [16.224138, 49.825263], [16.224568, 49.823751], [16.225431, 49.820183], [16.227889, 49.817552], [16.228837, 49.818438], [16.229636, 49.820117], [16.229807, 49.820893], [16.229304, 49.822636], [16.235595, 49.827862], [16.237561, 49.827134], [16.238219, 49.827022], [16.238806, 49.827032], [16.245168, 49.824538], [16.245943, 49.823777], [16.248084, 49.820029], [16.249208, 49.819257], [16.251664, 49.820408], [16.252003, 49.821329], [16.253743, 49.825416], [16.259877, 49.829994], [16.260886, 49.83268], [16.260812, 49.832781], [16.260825, 49.841485], [16.265216, 49.843437], [16.27217, 49.845295], [16.274545, 49.843651], [16.278063, 49.837535], [16.278228, 49.837406], [16.278973, 49.83682], [16.279338, 49.836915], [16.279962, 49.837136], [16.281491, 49.837891], [16.281619, 49.837993], [16.281956, 49.838315], [16.286669, 49.842278], [16.28754, 49.843088], [16.288083, 49.844501], [16.285111, 49.846533], [16.28238, 49.850621], [16.282707, 49.857506], [16.28506, 49.860231], [16.284091, 49.861067], [16.282522, 49.862472], [16.281795, 49.87006], [16.282098, 49.873647], [16.287574, 49.880599], [16.289435, 49.880055], [16.292385, 49.87338], [16.294721, 49.872655], [16.296129, 49.872352], [16.296581, 49.872282], [16.296967, 49.872259], [16.301488, 49.869478], [16.298923, 49.862571], [16.296534, 49.860315], [16.293539, 49.855854], [16.294756, 49.852466], [16.294773, 49.852472], [16.295771, 49.852812], [16.296432, 49.853135], [16.297992, 49.853953], [16.298377, 49.854341], [16.299015, 49.855313], [16.301273, 49.857435], [16.301494, 49.857572], [16.302841, 49.858232], [16.303625, 49.858655], [16.30528, 49.859753], [16.31296, 49.855093], [16.312787, 49.854281], [16.312702, 49.853992], [16.314412, 49.851928], [16.314825, 49.852001], [16.316155, 49.852977], [16.31624, 49.853266], [16.316477, 49.854322], [16.322094, 49.861078], [16.322291, 49.861198], [16.323772, 49.863396], [16.324811, 49.867947], [16.322522, 49.874022], [16.322901, 49.882151], [16.320261, 49.884599], [16.319124, 49.883599], [16.310495, 49.881858], [16.308354, 49.882289], [16.307791, 49.882539], [16.307312, 49.882674], [16.304331, 49.890692], [16.306952, 49.891775], [16.307017, 49.892362], [16.306905, 49.89507], [16.308412, 49.900417], [16.308183, 49.901277], [16.30762, 49.902048], [16.306969, 49.902537], [16.302976, 49.907445], [16.302266, 49.907454], [16.300851, 49.907543], [16.299441, 49.907766], [16.298876, 49.90781], [16.297676, 49.907849], [16.295558, 49.907891], [16.291152, 49.914202], [16.292835, 49.917834], [16.300866, 49.92123], [16.302156, 49.920448], [16.303099, 49.92001], [16.306377, 49.918491], [16.30865, 49.917821], [16.308963, 49.917827], [16.310309, 49.917744], [16.310919, 49.91779], [16.311499, 49.917902], [16.312485, 49.918196], [16.312845, 49.918362], [16.319831, 49.919054], [16.323199, 49.916284], [16.326788, 49.916004], [16.334456, 49.919684], [16.338164, 49.919636], [16.338919, 49.923156], [16.337315, 49.9235], [16.336493, 49.923623], [16.335948, 49.923629], [16.334069, 49.923759], [16.333415, 49.923648], [16.332787, 49.923458], [16.331909, 49.92321], [16.328976, 49.922829], [16.326785, 49.922778], [16.323331, 49.922036], [16.320515, 49.922588], [16.317204, 49.929426], [16.31855, 49.931635], [16.321339, 49.933883], [16.3267, 49.940798], [16.328018, 49.940874], [16.333121, 49.948221], [16.334594, 49.948318], [16.336408, 49.949075], [16.337191, 49.952588], [16.336581, 49.952724], [16.335819, 49.952779], [16.334197, 49.952221], [16.331434, 49.952335], [16.328871, 49.960733], [16.333605, 49.963335], [16.334092, 49.963353], [16.33549, 49.963986], [16.335755, 49.964122], [16.33611, 49.96435], [16.340712, 49.965942], [16.341101, 49.969521], [16.340678, 49.97031], [16.340496, 49.970651], [16.337407, 49.972037], [16.336963, 49.972304], [16.335117, 49.971434], [16.335005, 49.971214], [16.33494, 49.971071], [16.334856, 49.970862], [16.330074, 49.967369], [16.329264, 49.967223], [16.32532, 49.96747], [16.322658, 49.96899], [16.32388, 49.977478], [16.326792, 49.977597], [16.328131, 49.98161], [16.330484, 49.984334], [16.327465, 49.989874], [16.326887, 49.990559], [16.326115, 49.990918], [16.325608, 49.990984], [16.324909, 49.990935], [16.32438, 49.990817], [16.322869, 49.990439], [16.315959, 49.990361], [16.315587, 49.990499], [16.31216, 49.998661], [16.315708, 50.001943], [16.316707, 50.002377], [16.317533, 50.002773], [16.318083, 50.003168], [16.316888, 50.004514], [16.315977, 50.006019], [16.311587, 50.009825], [16.311001, 50.011232], [16.31525, 50.018474], [16.318966, 50.016362], [16.321905, 50.016798], [16.324843, 50.017235], [16.326002, 50.017427], [16.326726, 50.017585], [16.32873, 50.017669], [16.33408, 50.011189], [16.334702, 50.007643], [16.340264, 50.005272], [16.342468, 50.005088], [16.342592, 50.005185], [16.343117, 50.005844], [16.343188, 50.005972], [16.342904, 50.00772], [16.345594, 50.015419], [16.348829, 50.016999], [16.35276, 50.018157], [16.353575, 50.018224], [16.3544, 50.018431], [16.355094, 50.01881], [16.36198, 50.022318], [16.364018, 50.022661], [16.364636, 50.022814], [16.365143, 50.023017], [16.368105, 50.02437], [16.366943, 50.027777], [16.366351, 50.027575], [16.360871, 50.025768], [16.358346, 50.025076], [16.356925, 50.024709], [16.356438, 50.02455], [16.35567, 50.024141], [16.355246, 50.023858], [16.351044, 50.021737], [16.349875, 50.021574], [16.349433, 50.021487], [16.341964, 50.02589], [16.338569, 50.028174], [16.334973, 50.028355], [16.329583, 50.031064], [16.328298, 50.034427], [16.327451, 50.034241], [16.325958, 50.034056], [16.324842, 50.033997], [16.323471, 50.033787], [16.316555, 50.037577], [16.31578, 50.041093], [16.313083, 50.040498], [16.310387, 50.039903], [16.307387, 50.039927], [16.300288, 50.045256], [16.300878, 50.048807], [16.301961, 50.053365], [16.302406, 50.054133], [16.302538, 50.054555], [16.299327, 50.05579], [16.299256, 50.055795], [16.298814, 50.055608], [16.296874, 50.054422], [16.29655, 50.054219], [16.289706, 50.052149], [16.285432, 50.05955], [16.28683, 50.067258], [16.289204, 50.068984], [16.28959, 50.073256], [16.290771, 50.079732], [16.294739, 50.081517], [16.295423, 50.081736], [16.303532, 50.078505], [16.303659, 50.077462], [16.307233, 50.077896], [16.309756, 50.079227], [16.311387, 50.081171], [16.311963, 50.082247], [16.311972, 50.082409], [16.314256, 50.090965], [16.314555, 50.094552], [16.312957, 50.094685], [16.310958, 50.094933], [16.310326, 50.094953], [16.309737, 50.094967], [16.308791, 50.094867], [16.303601, 50.101864], [16.300993, 50.104346], [16.295384, 50.10631], [16.295037, 50.106794], [16.294622, 50.112039], [16.299187, 50.115365], [16.304339, 50.117333], [16.305393, 50.117294], [16.307412, 50.117332], [16.308869, 50.117061], [16.309379, 50.116895], [16.309725, 50.116829], [16.313791, 50.119159], [16.314306, 50.119344], [16.314754, 50.119542], [16.316125, 50.120216], [16.314538, 50.123447], [16.309236, 50.122477], [16.308466, 50.12244], [16.303774, 50.120995], [16.299007, 50.122582], [16.296044, 50.124432], [16.292923, 50.131324], [16.293158, 50.134916], [16.287481, 50.138604], [16.287272, 50.145164], [16.287481, 50.145587], [16.289445, 50.149025], [16.290664, 50.152412], [16.291561, 50.160958], [16.292155, 50.161389], [16.293545, 50.162125], [16.294343, 50.162438], [16.295045, 50.162669], [16.295447, 50.16278], [16.295967, 50.162902], [16.296577, 50.163021], [16.295892, 50.166555], [16.295281, 50.166436], [16.294629, 50.166286], [16.290656, 50.165849], [16.290217, 50.165468], [16.288213, 50.163933], [16.282808, 50.16387], [16.279737, 50.170826], [16.279759, 50.17091], [16.279806, 50.171542], [16.279728, 50.171687], [16.278825, 50.172894], [16.278689, 50.172951], [16.278055, 50.172639], [16.276281, 50.171836], [16.27183, 50.171588], [16.268828, 50.178431], [16.267962, 50.183157], [16.267055, 50.1855], [16.266254, 50.186327], [16.264287, 50.187798], [16.255477, 50.188435], [16.25388, 50.191358], [16.253851, 50.196537], [16.253096, 50.20513], [16.25336, 50.207973], [16.253285, 50.208035], [16.248938, 50.210219], [16.248771, 50.210156], [16.245902, 50.209034], [16.242679, 50.20836], [16.23637, 50.208741], [16.236177, 50.20871], [16.233197, 50.207932], [16.232702, 50.204366], [16.228531, 50.199228], [16.227305, 50.198492], [16.226725, 50.198124], [16.225707, 50.197319], [16.217238, 50.196969], [16.212396, 50.202814], [16.212292, 50.208301], [16.212195, 50.211142], [16.211686, 50.211325], [16.206909, 50.212098], [16.205669, 50.21229], [16.203594, 50.212672], [16.201374, 50.213078], [16.1981, 50.213504], [16.190294, 50.212521], [16.189262, 50.212532], [16.188451, 50.212513], [16.18842, 50.212514], [16.187521, 50.212539], [16.186336, 50.212549], [16.181717, 50.219425], [16.183229, 50.222692], [16.181242, 50.223612], [16.180784, 50.223781], [16.180089, 50.223925], [16.176732, 50.224142], [16.176357, 50.224218], [16.173545, 50.225125], [16.169181, 50.229809], [16.169113, 50.22994], [16.168791, 50.230191], [16.167223, 50.230776], [16.166905, 50.230647], [16.165918, 50.228281], [16.165986, 50.22815], [16.165829, 50.221994], [16.159662, 50.221744], [16.156211, 50.222769], [16.154968, 50.220478], [16.154496, 50.219467], [16.154351, 50.218955], [16.154295, 50.218397], [16.149492, 50.21163], [16.146983, 50.212606], [16.144788, 50.213407], [16.14441, 50.213491], [16.14393, 50.21356], [16.138931, 50.216216], [16.136952, 50.221136], [16.136726, 50.221544], [16.136323, 50.222053], [16.134492, 50.224481], [16.137866, 50.232085], [16.143073, 50.237704], [16.143983, 50.238282], [16.144408, 50.238513], [16.148073, 50.239797], [16.148802, 50.239975], [16.152586, 50.240729], [16.153563, 50.24078], [16.155564, 50.241061], [16.155063, 50.244626], [16.150751, 50.244408], [16.149978, 50.244402], [16.149142, 50.244239], [16.148766, 50.244109], [16.148333, 50.243912], [16.147241, 50.243299], [16.143069, 50.241855], [16.135067, 50.244769], [16.133645, 50.245029], [16.132901, 50.245209], [16.129688, 50.253412], [16.12785, 50.256508], [16.126941, 50.255968], [16.126501, 50.255622], [16.126203, 50.255297], [16.125429, 50.253246], [16.125277, 50.252452], [16.12518, 50.251065], [16.122168, 50.244633], [16.122051, 50.244071], [16.11853, 50.238009], [16.116513, 50.237311], [16.113846, 50.23736], [16.110078, 50.244814], [16.110475, 50.245645], [16.110591, 50.246205], [16.110563, 50.246876], [16.110369, 50.247545], [16.110183, 50.247917], [16.109811, 50.248528], [16.108858, 50.249988], [16.108829, 50.250028], [16.10701, 50.251809], [16.104531, 50.260285], [16.104981, 50.260633], [16.105348, 50.260985], [16.108102, 50.262779], [16.108776, 50.263219], [16.109044, 50.26344], [16.114435, 50.267251], [16.115264, 50.267673], [16.118475, 50.268425], [16.125981, 50.268469], [16.127163, 50.268416], [16.128682, 50.268457], [16.129578, 50.269118], [16.1296, 50.269137], [16.135164, 50.274774], [16.137291, 50.27484], [16.140488, 50.275103], [16.141654, 50.275012], [16.144564, 50.276886], [16.142795, 50.280021], [16.137777, 50.282861], [16.134542, 50.28128], [16.129063, 50.278472], [16.125734, 50.277099], [16.121965, 50.27567], [16.120503, 50.275567], [16.113398, 50.279057], [16.115305, 50.287589], [16.114011, 50.290948], [16.113015, 50.299305], [16.116399, 50.300743], [16.11974, 50.300599], [16.123642, 50.300081], [16.124028, 50.299917], [16.125095, 50.299565], [16.126223, 50.302983], [16.124715, 50.303621], [16.123738, 50.303989], [16.12317, 50.304087], [16.12273, 50.304118], [16.119837, 50.304197], [16.116555, 50.30434], [16.115368, 50.304421], [16.114816, 50.304465], [16.114268, 50.304527], [16.11274, 50.304739], [16.106063, 50.307469], [16.105251, 50.308331], [16.104879, 50.308648], [16.104548, 50.308856], [16.104265, 50.308985], [16.103655, 50.309155], [16.101955, 50.309461], [16.100069, 50.309745], [16.097097, 50.310009], [16.091636, 50.313239], [16.092116, 50.322101], [16.096234, 50.324873], [16.097457, 50.325435], [16.097129, 50.327313], [16.105081, 50.330676], [16.106184, 50.329158], [16.107587, 50.327382], [16.108973, 50.325726], [16.110359, 50.32407], [16.11312, 50.32638], [16.111734, 50.328036], [16.110348, 50.329692], [16.10901, 50.331388], [16.107994, 50.33279], [16.106935, 50.33425], [16.106622, 50.334499], [16.102396, 50.33808], [16.101158, 50.339549], [16.100505, 50.339228], [16.095121, 50.338737], [16.094872, 50.338749], [16.094448, 50.338525], [16.090814, 50.33725], [16.089551, 50.337113], [16.089359, 50.337111], [16.088566, 50.337115], [16.086717, 50.336896], [16.085627, 50.336775], [16.084175, 50.336689], [16.083733, 50.336705], [16.082237, 50.336897], [16.080216, 50.337279], [16.077078, 50.342971], [16.082495, 50.347086], [16.08512, 50.347942], [16.089223, 50.352653], [16.091642, 50.353707], [16.092941, 50.353983], [16.096674, 50.354439], [16.100437, 50.354899], [16.102808, 50.35523], [16.103981, 50.355394], [16.105119, 50.355524], [16.107723, 50.355389], [16.114368, 50.35181], [16.115724, 50.351857], [16.115879, 50.351851], [16.118009, 50.351752], [16.119349, 50.351304], [16.11817, 50.342581], [16.117815, 50.342459], [16.117383, 50.342279], [16.117028, 50.342091], [16.123317, 50.340937], [16.123625, 50.340944], [16.124118, 50.341], [16.124618, 50.341107], [16.12495, 50.341209], [16.125419, 50.341413], [16.125824, 50.341642], [16.126146, 50.341873], [16.134554, 50.340776], [16.134988, 50.339819], [16.135206, 50.339445], [16.135914, 50.338414], [16.136517, 50.337661], [16.137215, 50.33671], [16.137623, 50.336251], [16.140312, 50.338646], [16.139903, 50.339105], [16.139437, 50.339767], [16.142058, 50.348156], [16.148475, 50.345549], [16.150074, 50.34447], [16.150218, 50.344457], [16.157399, 50.348691], [16.157113, 50.35228], [16.155246, 50.355476], [16.151303, 50.359637], [16.151239, 50.359797], [16.154576, 50.367292], [16.156065, 50.367631], [16.161903, 50.374385], [16.163133, 50.374011], [16.164376, 50.373671], [16.165327, 50.377143], [16.164084, 50.377483], [16.163121, 50.377795], [16.162679, 50.3779], [16.16173, 50.378168], [16.161285, 50.378278], [16.160546, 50.378415], [16.160008, 50.378572], [16.157433, 50.379278], [16.159644, 50.387888], [16.161946, 50.38806], [16.163299, 50.388455], [16.163745, 50.388625], [16.164484, 50.389097], [16.164949, 50.389584], [16.165323, 50.390428], [16.1654, 50.391129], [16.166325, 50.399805], [16.166866, 50.403498], [16.167483, 50.40869], [16.169501, 50.413665], [16.169606, 50.416168], [16.169393, 50.417851], [16.168946, 50.417897], [16.161574, 50.418347], [16.15634, 50.419216], [16.155, 50.419416], [16.146204, 50.418169], [16.145799, 50.418807], [16.14557, 50.419109], [16.145221, 50.419457], [16.14427, 50.420768], [16.142883, 50.421553], [16.138109, 50.422979], [16.137327, 50.42335], [16.136418, 50.423792], [16.130697, 50.430573], [16.130306, 50.430902], [16.128885, 50.43178], [16.128572, 50.431947], [16.128135, 50.432124], [16.124381, 50.433323], [16.123626, 50.433695], [16.123178, 50.433833], [16.121475, 50.434029], [16.115403, 50.437861], [16.116716, 50.442424], [16.115136, 50.445659], [16.114444, 50.44532], [16.113674, 50.444868], [16.106747, 50.441564], [16.099832, 50.442554], [16.098312, 50.443292], [16.097879, 50.443481], [16.096438, 50.440182], [16.093262, 50.435353], [16.085367, 50.437405], [16.078822, 50.441715], [16.078702, 50.441872], [16.072272, 50.444987], [16.069752, 50.446553], [16.065074, 50.453797], [16.063288, 50.453299], [16.062486, 50.453087], [16.061479, 50.45277], [16.060791, 50.452623], [16.057246, 50.449925], [16.051118, 50.455331], [16.051372, 50.457118], [16.046758, 50.460421], [16.046059, 50.460358], [16.045338, 50.460173], [16.037929, 50.463043], [16.037056, 50.466361], [16.034369, 50.468184], [16.029597, 50.467795], [16.024046, 50.470367], [16.020448, 50.470227], [16.015323, 50.466998], [16.014893, 50.466938], [16.013247, 50.466305], [16.01275, 50.466006], [16.011433, 50.465328], [16.011009, 50.465171], [16.008281, 50.464582], [16.00767, 50.464565], [16.000458, 50.469184], [16.000275, 50.46994], [15.999045, 50.472623], [15.999063, 50.475217], [16.004043, 50.480139], [16.009817, 50.480311], [16.010301, 50.480367], [16.011007, 50.480492], [16.011715, 50.480646], [16.014603, 50.48056], [16.015715, 50.480482], [16.017232, 50.480173], [16.01774, 50.480039], [16.018124, 50.479994], [16.020204, 50.47982], [16.02102, 50.479787], [16.021943, 50.479812], [16.024304, 50.481376], [16.02489, 50.481648], [16.023374, 50.484913], [16.014857, 50.484151], [16.01157, 50.484413], [16.002823, 50.485903], [15.999263, 50.486441], [15.994033, 50.483339], [15.990385, 50.483489], [15.988165, 50.484261], [15.987223, 50.484637], [15.983908, 50.486831], [15.983201, 50.487198], [15.98154, 50.484004], [15.982756, 50.482733], [15.983446, 50.482127], [15.984228, 50.481774], [15.986202, 50.481185], [15.987494, 50.480563], [15.990073, 50.479425], [15.995054, 50.472939], [15.995372, 50.472], [15.995441, 50.466403], [15.995269, 50.465817], [15.995177, 50.465179], [15.995163, 50.464603], [15.98918, 50.45949], [15.986888, 50.460543], [15.986594, 50.460254], [15.986436, 50.460043], [15.986389, 50.459754], [15.981712, 50.454425], [15.981323, 50.454139], [15.977349, 50.452428], [15.976801, 50.452366], [15.974456, 50.460966], [15.974339, 50.462616], [15.974268, 50.464561], [15.973089, 50.464745], [15.9681, 50.471962], [15.967647, 50.473476], [15.967267, 50.473869], [15.966643, 50.474384], [15.964644, 50.47685], [15.964056, 50.477688], [15.962518, 50.478999], [15.961168, 50.479662], [15.960505, 50.480021], [15.953454, 50.483478], [15.952917, 50.487038], [15.944844, 50.489503], [15.944056, 50.48981], [15.943846, 50.489887], [15.940329, 50.490652], [15.932849, 50.49094], [15.930685, 50.491411], [15.930161, 50.491466], [15.926361, 50.491704], [15.923057, 50.492273], [15.919731, 50.493653], [15.915486, 50.490531], [15.909641, 50.489458], [15.906137, 50.490285], [15.901403, 50.488011], [15.89519, 50.494229], [15.896125, 50.496948], [15.896944, 50.498027], [15.898876, 50.499821], [15.899539, 50.500517], [15.899969, 50.501042], [15.900365, 50.501586], [15.90066, 50.502056], [15.901023, 50.502746], [15.90131, 50.503359], [15.908534, 50.50812], [15.909501, 50.508381], [15.912282, 50.509326], [15.91318, 50.509719], [15.914472, 50.510433], [15.915054, 50.51091], [15.916431, 50.514608], [15.916698, 50.515199], [15.916921, 50.515787], [15.913555, 50.517064], [15.910594, 50.514398], [15.903707, 50.511395], [15.902942, 50.511253], [15.902115, 50.511007], [15.901431, 50.510698], [15.900617, 50.510167], [15.89999, 50.509594], [15.899568, 50.509096], [15.899085, 50.508125], [15.898549, 50.506439], [15.898164, 50.505211], [15.896282, 50.502317], [15.894498, 50.500668], [15.893786, 50.499902], [15.89316, 50.499043], [15.892859, 50.498462], [15.889448, 50.493795], [15.888641, 50.493204], [15.888036, 50.492569], [15.882806, 50.490601], [15.882336, 50.4907], [15.88154, 50.490805], [15.880245, 50.49084], [15.879308, 50.490969], [15.876305, 50.498985], [15.879378, 50.500014], [15.880022, 50.499961], [15.880539, 50.49996], [15.880884, 50.5], [15.881359, 50.500121], [15.881966, 50.500401], [15.882797, 50.5011], [15.883152, 50.501885], [15.883191, 50.502687], [15.883087, 50.503113], [15.882956, 50.503463], [15.877916, 50.503941], [15.877267, 50.504025], [15.876744, 50.503998], [15.876114, 50.503839], [15.875422, 50.50352], [15.871527, 50.501511], [15.870503, 50.501051], [15.869797, 50.500768], [15.869374, 50.500557], [15.860532, 50.499766], [15.858632, 50.500116], [15.852358, 50.493687], [15.852073, 50.492713], [15.852353, 50.490427], [15.852786, 50.489664], [15.854719, 50.486873], [15.855185, 50.485957], [15.855856, 50.485292], [15.857795, 50.482618], [15.859136, 50.481518], [15.860313, 50.480339], [15.862297, 50.479715], [15.867003, 50.472226], [15.866606, 50.47092], [15.865184, 50.46843], [15.864829, 50.467893], [15.85905, 50.464128], [15.854269, 50.461064], [15.849081, 50.454915], [15.847638, 50.45445], [15.839649, 50.455662], [15.839212, 50.455914], [15.83469, 50.461569], [15.833703, 50.46503], [15.828042, 50.468682], [15.834094, 50.474698], [15.8362, 50.474658], [15.837299, 50.476341], [15.840481, 50.482788], [15.839691, 50.4863], [15.837463, 50.486021], [15.836703, 50.485896], [15.828587, 50.487985], [15.827793, 50.488456], [15.827053, 50.48862], [15.82375, 50.489457], [15.823001, 50.489641], [15.821854, 50.489821], [15.81529, 50.490911], [15.808891, 50.487639], [15.804524, 50.48956], [15.802299, 50.492554], [15.801916, 50.493134], [15.800391, 50.495021], [15.79957, 50.4953], [15.799085, 50.495388], [15.798413, 50.495487], [15.797354, 50.494425], [15.794273, 50.490061], [15.793244, 50.486156], [15.793048, 50.482561], [15.795366, 50.479486], [15.795565, 50.479178], [15.795946, 50.478635], [15.797028, 50.477783], [15.798899, 50.476388], [15.799317, 50.467949], [15.798085, 50.464567], [15.797804, 50.456551], [15.795338, 50.453176], [15.794669, 50.451159], [15.790145, 50.447707], [15.784448, 50.449389], [15.783892, 50.449703], [15.783491, 50.449826], [15.777438, 50.453744], [15.774852, 50.456562], [15.769844, 50.456991], [15.767672, 50.456529], [15.763272, 50.45565], [15.760902, 50.45497], [15.757538, 50.454079], [15.756466, 50.453756], [15.754037, 50.452956], [15.753111, 50.452672], [15.752497, 50.452447], [15.751151, 50.451811], [15.749607, 50.451036], [15.747731, 50.450057], [15.746642, 50.44951], [15.744257, 50.448328], [15.743372, 50.447906], [15.736518, 50.450788], [15.73685, 50.454927], [15.734602, 50.457739], [15.731378, 50.460442], [15.729486, 50.460716], [15.721224, 50.463676], [15.720053, 50.462854], [15.719524, 50.461491], [15.719406, 50.460569], [15.720757, 50.459554], [15.722903, 50.45152], [15.726262, 50.446823], [15.725537, 50.441212], [15.725486, 50.43814], [15.718, 50.435186], [15.71596, 50.434246], [15.710287, 50.433725], [15.706897, 50.435108], [15.702269, 50.438254], [15.69876, 50.440825], [15.695725, 50.443735], [15.695189, 50.443326], [15.694789, 50.442938], [15.694211, 50.442155], [15.693968, 50.441701], [15.693781, 50.439946], [15.69373, 50.439075], [15.691487, 50.432024], [15.684548, 50.434894], [15.681046, 50.43573], [15.674274, 50.441267], [15.670685, 50.440976], [15.670975, 50.437399], [15.671206, 50.435867], [15.670068, 50.43259], [15.661544, 50.433351], [15.6578, 50.436805], [15.657974, 50.441881], [15.65906, 50.445026], [15.659542, 50.449063], [15.657789, 50.449947], [15.655807, 50.446942], [15.648531, 50.447416], [15.6477, 50.448146], [15.645223, 50.446897], [15.637272, 50.45043], [15.637085, 50.451104], [15.636757, 50.451717], [15.636421, 50.452148], [15.635103, 50.454262], [15.631674, 50.455361], [15.631558, 50.454996], [15.63141, 50.453854], [15.631324, 50.453303], [15.631415, 50.452388], [15.631076, 50.447539], [15.62296, 50.445612], [15.621743, 50.448189], [15.621398, 50.450061], [15.621102, 50.452094], [15.62077, 50.453304], [15.620319, 50.454196], [15.619147, 50.45625], [15.618038, 50.458183], [15.616962, 50.460458], [15.613708, 50.458919], [15.613142, 50.457914], [15.614457, 50.454563], [15.616494, 50.449187], [15.618559, 50.445998], [15.619929, 50.443668], [15.621583, 50.441944], [15.623299, 50.440244], [15.624702, 50.437453], [15.624803, 50.436953], [15.618791, 50.43064], [15.616919, 50.430816], [15.614928, 50.431095], [15.612666, 50.431834], [15.606197, 50.437401], [15.605912, 50.438069], [15.605543, 50.438592], [15.603773, 50.440059], [15.603649, 50.440082], [15.601982, 50.440433], [15.601832, 50.440197], [15.598954, 50.433814], [15.594693, 50.431933], [15.587608, 50.432323], [15.584991, 50.437033], [15.583567, 50.438335], [15.583367, 50.438342], [15.582098, 50.437874], [15.578836, 50.435734], [15.571832, 50.432581], [15.570379, 50.431729], [15.570151, 50.431053], [15.570144, 50.43091], [15.57117, 50.429042], [15.572958, 50.427017], [15.576439, 50.421285], [15.577084, 50.417743], [15.580947, 50.411888], [15.573382, 50.407437], [15.572049, 50.407746], [15.571395, 50.407892], [15.570137, 50.408254], [15.569482, 50.408376], [15.568709, 50.408506], [15.568152, 50.408572], [15.561291, 50.409243], [15.561033, 50.40936], [15.560704, 50.40945], [15.553899, 50.414997], [15.553674, 50.415573], [15.553213, 50.416204], [15.5527, 50.416608], [15.548295, 50.421409], [15.547041, 50.429527], [15.547061, 50.430139], [15.546994, 50.430735], [15.54359, 50.430617], [15.539078, 50.427638], [15.538231, 50.425231], [15.538359, 50.425119], [15.544135, 50.421358], [15.539875, 50.413753], [15.538998, 50.413603], [15.538524, 50.41343], [15.535925, 50.412802], [15.535108, 50.412829], [15.534323, 50.412953], [15.533317, 50.413153], [15.53258, 50.413225], [15.531903, 50.413176], [15.529851, 50.412903], [15.529657, 50.412893], [15.522094, 50.41607], [15.521807, 50.416394], [15.520664, 50.416775], [15.520095, 50.416554], [15.519113, 50.414006], [15.510851, 50.412094], [15.509786, 50.41289], [15.508971, 50.4133], [15.507013, 50.413938], [15.500108, 50.408911], [15.499578, 50.408827], [15.496637, 50.408707], [15.49449, 50.408997], [15.493178, 50.409152], [15.492324, 50.409205], [15.49189, 50.409216], [15.491428, 50.409197], [15.490785, 50.409107], [15.49021, 50.408931], [15.489613, 50.408582], [15.487883, 50.407588], [15.481338, 50.412474], [15.485445, 50.417569], [15.484607, 50.42107], [15.483987, 50.420921], [15.482736, 50.420711], [15.481489, 50.420523], [15.480346, 50.420078], [15.474373, 50.419544], [15.469055, 50.425071], [15.470512, 50.429096], [15.471278, 50.430525], [15.471282, 50.430571], [15.471025, 50.431621], [15.469039, 50.432381], [15.468788, 50.432269], [15.467096, 50.43069], [15.464672, 50.428633], [15.464589, 50.428561], [15.460349, 50.426033], [15.45323, 50.430095], [15.453235, 50.433695], [15.448731, 50.434991], [15.447021, 50.435528], [15.443813, 50.435791], [15.443751, 50.435796], [15.439594, 50.435982], [15.436995, 50.435834], [15.43564, 50.435292], [15.435042, 50.434956], [15.434588, 50.434571], [15.433713, 50.433699], [15.438948, 50.426885], [15.440818, 50.427555], [15.446592, 50.426233], [15.446637, 50.41822], [15.442412, 50.41754], [15.440796, 50.414323], [15.442695, 50.413368], [15.444501, 50.412464], [15.44942, 50.405895], [15.451236, 50.405056], [15.453925, 50.402582], [15.45382, 50.395682], [15.450777, 50.393963], [15.445003, 50.394761], [15.443061, 50.39324], [15.436438, 50.389048], [15.436779, 50.385464], [15.444069, 50.382348], [15.449344, 50.378602], [15.449818, 50.375033], [15.450691, 50.375149], [15.453283, 50.375231], [15.453898, 50.375268], [15.455474, 50.375569], [15.456245, 50.375591], [15.461683, 50.371838], [15.461012, 50.367624], [15.460555, 50.366979], [15.460319, 50.366548], [15.45997, 50.36582], [15.459602, 50.365164], [15.459377, 50.364655], [15.458647, 50.356944], [15.457106, 50.35369], [15.459546, 50.352535], [15.461841, 50.351396], [15.462428, 50.351207], [15.463284, 50.351196], [15.465363, 50.351947], [15.467401, 50.352599], [15.468547, 50.352863], [15.469859, 50.353012], [15.471541, 50.353553], [15.472408, 50.353889], [15.474082, 50.354141], [15.475736, 50.354231], [15.478009, 50.354213], [15.478699, 50.345479], [15.475795, 50.344621], [15.473975, 50.344186], [15.472025, 50.343715], [15.470483, 50.343219], [15.470008, 50.343074], [15.468639, 50.342781], [15.46804, 50.342598], [15.46587, 50.342173], [15.465362, 50.342073], [15.464818, 50.341911], [15.463947, 50.341564], [15.463597, 50.34144], [15.462697, 50.341235], [15.460814, 50.340604], [15.459236, 50.340047], [15.458306, 50.339906], [15.456544, 50.339574], [15.453956, 50.339754], [15.452459, 50.340078], [15.451255, 50.338351], [15.451572, 50.336589], [15.453814, 50.335818], [15.459429, 50.328904], [15.461833, 50.328836], [15.464237, 50.328768], [15.464862, 50.328698], [15.467011, 50.328326], [15.469915, 50.321411], [15.467922, 50.31928], [15.467198, 50.318277], [15.466939, 50.31775], [15.466396, 50.316488], [15.465941, 50.315493], [15.465756, 50.314743], [15.465782, 50.3141], [15.464614, 50.306398], [15.464147, 50.302266], [15.46438, 50.301867], [15.465425, 50.300413], [15.466331, 50.299526], [15.467027, 50.299072], [15.469533, 50.295184], [15.467563, 50.289663], [15.466229, 50.283023], [15.465571, 50.281416], [15.457379, 50.284957], [15.457535, 50.285776], [15.455497, 50.287803], [15.455451, 50.287818], [15.454487, 50.287788], [15.451385, 50.28804], [15.447795, 50.288694], [15.445912, 50.288868], [15.44403, 50.289042], [15.435775, 50.287051], [15.434973, 50.287726], [15.434464, 50.288192], [15.433605, 50.288193], [15.43334, 50.28817], [15.432031, 50.285539], [15.429126, 50.280447], [15.424151, 50.276097], [15.417703, 50.274245], [15.413629, 50.277498], [15.410199, 50.278592], [15.409945, 50.277797], [15.409731, 50.277003], [15.408912, 50.275], [15.408037, 50.272683], [15.402689, 50.267476], [15.394415, 50.269008], [15.393938, 50.269352], [15.392689, 50.270094], [15.391802, 50.270557], [15.390623, 50.271061], [15.38846, 50.271832], [15.385724, 50.273027], [15.385121, 50.273408], [15.38307, 50.281279], [15.385449, 50.283909], [15.387915, 50.29076], [15.388299, 50.291447], [15.388728, 50.292443], [15.385422, 50.293867], [15.380213, 50.29066], [15.374317, 50.284345], [15.3726, 50.282501], [15.37276, 50.281141], [15.371789, 50.276314], [15.372085, 50.274162], [15.364973, 50.270232], [15.364629, 50.270371], [15.363916, 50.270652], [15.363586, 50.270739], [15.362283, 50.27104], [15.357627, 50.277858], [15.357165, 50.279534], [15.356584, 50.284446], [15.356205, 50.288026], [15.348618, 50.291882], [15.345156, 50.292871], [15.341765, 50.290363], [15.339493, 50.286728], [15.337799, 50.283552], [15.334656, 50.279249], [15.333307, 50.278323], [15.325441, 50.27995], [15.321865, 50.279534], [15.315639, 50.279265], [15.310335, 50.273954], [15.308007, 50.273645], [15.306087, 50.27333], [15.30667, 50.269777], [15.308591, 50.270093], [15.310807, 50.270384], [15.319096, 50.267406], [15.32352, 50.269195], [15.325315, 50.269246], [15.332085, 50.264116], [15.32799, 50.257139], [15.325006, 50.25668], [15.323143, 50.256428], [15.323625, 50.252861], [15.325489, 50.253113], [15.330148, 50.252836], [15.33233, 50.245949], [15.331588, 50.244761], [15.329492, 50.238806], [15.329238, 50.238348], [15.328801, 50.237312], [15.324468, 50.232228], [15.31968, 50.229776], [15.316946, 50.229293], [15.314268, 50.22882], [15.311161, 50.228683], [15.308863, 50.228698], [15.306483, 50.228532], [15.307091, 50.224983], [15.309099, 50.225106], [15.31113, 50.225083], [15.313294, 50.225064], [15.314781, 50.225257], [15.319712, 50.218679], [15.31957, 50.218007], [15.31806, 50.213003], [15.311159, 50.21092], [15.305436, 50.210639], [15.304118, 50.210698], [15.300113, 50.210351], [15.294548, 50.216393], [15.295303, 50.218263], [15.295374, 50.218834], [15.295318, 50.219349], [15.29507, 50.220047], [15.29481, 50.220445], [15.294559, 50.220742], [15.294127, 50.221208], [15.29213, 50.224226], [15.288426, 50.229193], [15.287831, 50.232955], [15.290532, 50.238627], [15.290749, 50.238947], [15.294778, 50.243546], [15.298124, 50.246912], [15.299651, 50.247969], [15.298179, 50.249008], [15.29648, 50.250114], [15.296081, 50.250087], [15.294485, 50.249919], [15.293819, 50.249836], [15.286703, 50.251254], [15.286139, 50.255248], [15.286082, 50.255536], [15.286297, 50.259015], [15.282704, 50.259237], [15.282489, 50.255758], [15.282289, 50.253389], [15.275823, 50.247691], [15.271569, 50.247115], [15.268235, 50.247269], [15.266242, 50.246399], [15.265076, 50.245541], [15.265978, 50.243893], [15.266711, 50.24283], [15.267792, 50.242972], [15.272052, 50.243548], [15.276305, 50.244123], [15.278225, 50.244372], [15.280154, 50.244623], [15.285175, 50.237596], [15.284843, 50.236936], [15.284408, 50.235448], [15.277644, 50.230395], [15.276059, 50.230576], [15.27431, 50.231179], [15.273818, 50.231216], [15.27342, 50.231188], [15.272454, 50.231027], [15.272244, 50.230953], [15.270758, 50.230163], [15.270034, 50.229126], [15.269952, 50.226094], [15.269961, 50.225917], [15.264918, 50.219995], [15.262134, 50.220831], [15.258656, 50.221863], [15.255713, 50.22906], [15.253834, 50.229893], [15.251955, 50.230727], [15.249711, 50.231751], [15.247448, 50.232783], [15.244745, 50.232842], [15.241891, 50.232708], [15.23615, 50.23875], [15.238838, 50.24122], [15.244855, 50.244285], [15.247557, 50.243869], [15.2479, 50.243808], [15.24815, 50.243757], [15.250279, 50.243088], [15.251826, 50.242611], [15.253361, 50.242284], [15.253822, 50.242218], [15.254229, 50.242186], [15.255563, 50.242115], [15.255755, 50.24571], [15.25442, 50.245781], [15.247408, 50.249692], [15.241663, 50.251594], [15.238914, 50.252567], [15.237038, 50.252069], [15.23522, 50.248962], [15.234796, 50.247893], [15.232386, 50.242912], [15.232241, 50.242664], [15.224666, 50.239314], [15.220153, 50.245912], [15.22231, 50.253731], [15.222938, 50.254276], [15.224121, 50.25514], [15.225783, 50.256244], [15.227425, 50.257335], [15.229306, 50.258547], [15.231174, 50.259751], [15.233971, 50.261519], [15.236765, 50.263285], [15.238802, 50.264565], [15.239693, 50.265138], [15.240735, 50.265866], [15.242349, 50.267131], [15.244749, 50.269174], [15.245714, 50.270069], [15.246131, 50.270483], [15.243596, 50.273039], [15.242302, 50.271814], [15.240023, 50.269879], [15.236859, 50.267595], [15.23485, 50.266333], [15.232048, 50.264562], [15.224258, 50.263258], [15.221917, 50.263401], [15.215564, 50.261032], [15.214434, 50.260738], [15.212566, 50.258277], [15.204749, 50.25695], [15.203047, 50.260301], [15.202936, 50.260831], [15.2013, 50.261732], [15.198039, 50.261758], [15.198009, 50.258159], [15.200312, 50.254826], [15.194391, 50.2497], [15.192536, 50.248551], [15.192488, 50.248429], [15.193436, 50.246229], [15.19427, 50.243335], [15.194371, 50.243238], [15.19692, 50.241432], [15.200472, 50.24202], [15.208759, 50.239951], [15.205095, 50.233675], [15.204936, 50.23364], [15.203671, 50.231155], [15.200553, 50.228949], [15.197893, 50.228289], [15.197781, 50.224691], [15.194536, 50.217004], [15.191224, 50.213586], [15.188367, 50.212224], [15.18551, 50.210863], [15.178983, 50.213889], [15.178707, 50.213985], [15.177608, 50.214297], [15.176625, 50.210834], [15.168698, 50.208933], [15.167032, 50.215456], [15.163682, 50.218864], [15.161506, 50.221732], [15.157156, 50.220078], [15.149873, 50.220843], [15.149195, 50.220497], [15.146453, 50.219171], [15.145927, 50.218839], [15.13823, 50.216286], [15.135809, 50.21629], [15.134531, 50.216301], [15.133432, 50.216194], [15.132689, 50.21604], [15.129985, 50.21537], [15.130851, 50.211876], [15.133555, 50.212546], [15.135752, 50.212691], [15.138224, 50.212686], [15.142877, 50.206995], [15.142387, 50.203584], [15.142349, 50.203102], [15.142396, 50.202225], [15.14259, 50.20143], [15.142902, 50.200801], [15.143605, 50.192781], [15.142937, 50.191645], [15.142287, 50.188658], [15.141992, 50.187715], [15.142269, 50.185709], [15.142609, 50.184823], [15.142973, 50.184158], [15.145656, 50.181399], [15.140098, 50.174415], [15.138949, 50.174581], [15.137862, 50.174756], [15.135067, 50.175439], [15.131982, 50.1762], [15.12899, 50.176936], [15.127942, 50.17725], [15.125583, 50.178405], [15.123574, 50.17959], [15.122444, 50.180214], [15.12129, 50.180727], [15.119935, 50.181138], [15.11451, 50.186049], [15.114119, 50.188085], [15.113711, 50.190196], [15.11473, 50.197296], [15.115154, 50.198188], [15.115339, 50.199098], [15.116885, 50.203534], [15.117999, 50.208065], [15.118071, 50.208276], [15.118124, 50.208511], [15.117236, 50.210591], [15.116406, 50.210749], [15.1148, 50.210878], [15.113431, 50.204766], [15.112329, 50.202798], [15.111938, 50.202045], [15.108725, 50.198688], [15.10317, 50.195801], [15.101569, 50.195497], [15.094752, 50.20124], [15.09436, 50.204819], [15.088974, 50.207247], [15.086959, 50.210871], [15.086507, 50.21139], [15.08621, 50.211648], [15.084323, 50.213042], [15.082184, 50.210146], [15.084188, 50.208573], [15.085802, 50.205545], [15.08408, 50.19903], [15.081672, 50.19315], [15.073889, 50.19298], [15.073394, 50.193283], [15.072475, 50.193782], [15.071569, 50.194206], [15.068566, 50.195475], [15.065563, 50.196743], [15.06256, 50.198011], [15.059576, 50.199271], [15.057622, 50.200123], [15.05497, 50.201305], [15.052318, 50.202487], [15.049667, 50.203668], [15.046988, 50.204862], [15.046251, 50.205176], [15.045741, 50.205381], [15.04489, 50.205672], [15.044378, 50.205821], [15.043499, 50.206035], [15.035492, 50.209449], [15.033968, 50.209473], [15.033427, 50.209377], [15.032182, 50.208033], [15.032627, 50.206993], [15.034557, 50.202512], [15.034628, 50.202339], [15.040901, 50.202812], [15.041932, 50.202675], [15.042381, 50.202596], [15.042738, 50.202517], [15.043523, 50.202324], [15.043867, 50.20222], [15.044571, 50.201976], [15.04489, 50.201843], [15.045576, 50.20155], [15.048201, 50.20038], [15.047543, 50.192499], [15.046011, 50.191058], [15.043873, 50.190106], [15.040596, 50.190114], [15.040193, 50.189996], [15.039307, 50.189656], [15.040596, 50.186295], [15.03791, 50.179523], [15.037798, 50.177672], [15.038185, 50.169922], [15.037976, 50.166328], [15.041866, 50.159215], [15.04093, 50.156212], [15.040623, 50.155489], [15.040506, 50.155099], [15.033252, 50.151012], [15.029141, 50.154243], [15.028353, 50.154742], [15.026067, 50.155685], [15.023743, 50.156643], [15.022042, 50.157008], [15.0188, 50.157926], [15.011681, 50.153542], [15.012639, 50.150072], [15.014556, 50.150601], [15.016711, 50.150739], [15.019572, 50.150504], [15.022591, 50.150262], [15.023657, 50.150177], [15.025235, 50.149917], [15.025704, 50.149788], [15.026221, 50.149617], [15.026512, 50.149538], [15.02694, 50.149464], [15.036062, 50.149706], [15.038885, 50.142878], [15.038842, 50.141649], [15.042439, 50.141522], [15.050628, 50.138349], [15.053113, 50.136364], [15.055088, 50.134671], [15.056916, 50.133072], [15.060765, 50.131495], [15.05685, 50.123428], [15.054291, 50.123682], [15.051913, 50.123822], [15.051182, 50.124016], [15.049572, 50.12407], [15.048065, 50.12435], [15.047231, 50.124318], [15.044881, 50.124677], [15.041567, 50.124871], [15.040731, 50.125051], [15.034892, 50.130166], [15.03454, 50.13028], [15.033018, 50.130089], [15.029497, 50.130339], [15.027247, 50.131432], [15.024709, 50.131376], [15.021722, 50.131905], [15.021149, 50.131983], [15.018519, 50.131909], [15.013354, 50.132564], [15.011299, 50.132822], [15.009244, 50.133081], [15.005747, 50.133521], [15.00225, 50.133962], [14.999208, 50.13434], [14.991376, 50.138021], [14.986936, 50.140755], [14.985674, 50.141515], [14.985088, 50.141792], [14.985036, 50.141786], [14.979175, 50.138415], [14.970223, 50.137937], [14.970078, 50.137903], [14.963342, 50.134752], [14.959756, 50.134273], [14.956172, 50.133793], [14.9494, 50.133925], [14.947243, 50.134218], [14.945087, 50.134512], [14.940985, 50.135072], [14.936555, 50.138676], [14.933332, 50.139157], [14.92765, 50.140768], [14.922304, 50.140737], [14.916129, 50.138429], [14.912362, 50.139693], [14.908978, 50.140922], [14.906251, 50.142399], [14.905423, 50.142667], [14.9044, 50.142544], [14.898037, 50.140835], [14.897481, 50.139982], [14.897311, 50.139397], [14.897602, 50.137261], [14.892287, 50.130089], [14.89175, 50.130216], [14.888306, 50.130306], [14.884866, 50.130428], [14.882512, 50.130548], [14.879432, 50.130783], [14.877454, 50.130987], [14.875849, 50.131194], [14.874946, 50.131324], [14.873964, 50.131482], [14.872336, 50.131773], [14.871072, 50.132025], [14.869544, 50.132367], [14.868081, 50.132729], [14.866397, 50.133191], [14.864562, 50.133744], [14.862844, 50.13432], [14.861386, 50.134818], [14.860309, 50.135074], [14.855127, 50.141751], [14.855633, 50.145315], [14.850016, 50.152237], [14.850253, 50.152813], [14.850934, 50.154765], [14.851082, 50.155146], [14.849324, 50.157159], [14.848955, 50.157177], [14.848088, 50.157144], [14.84799, 50.156999], [14.847734, 50.156493], [14.847537, 50.155957], [14.846863, 50.154024], [14.846693, 50.153622], [14.846358, 50.15292], [14.845906, 50.152126], [14.837479, 50.149191], [14.833987, 50.150068], [14.826844, 50.149472], [14.822506, 50.149332], [14.822461, 50.145732], [14.822844, 50.137453], [14.818851, 50.136697], [14.815775, 50.136155], [14.81445, 50.135945], [14.811842, 50.135581], [14.809507, 50.135316], [14.808457, 50.135214], [14.806324, 50.135033], [14.804238, 50.13491], [14.802986, 50.134849], [14.800469, 50.134775], [14.797971, 50.134762], [14.795262, 50.134803], [14.79381, 50.134843], [14.791121, 50.134948], [14.787757, 50.13508], [14.78395, 50.135225], [14.782154, 50.135272], [14.778921, 50.135308], [14.777406, 50.135297], [14.776047, 50.135267], [14.77313, 50.135151], [14.771574, 50.135052], [14.768637, 50.134819], [14.765873, 50.134514], [14.764236, 50.134309], [14.76259, 50.134077], [14.75979, 50.133642], [14.757029, 50.133163], [14.757645, 50.129616], [14.760406, 50.130095]]], "type": "Polygon"}}], "metadata": {"attribution": "openrouteservice.org | OpenStreetMap contributors", "service": "isochrones", "timestamp": 1785652341897, "query": {"profile": "driving-car", "profileName": "driving-car", "locations": [[15.7812, 50.0343]], "range": [3600.0], "range_type": "time"}, "engine": {"version": "9.9.0", "build_date": "2026-06-12T10:08:58Z", "graph_date": "2026-07-26T12:04:00Z", "osm_date": "2026-07-20T00:00:00Z"}}}