{"type": "FeatureCollection", "bbox": [18.038395, 49.524934, 18.234712, 49.691067], "features": [{"type": "Feature", "properties": {"group_index": 0, "value": 900.0, "center": [18.135163402420595, 49.588751959846924]}, "geometry": {"coordinates": [[[18.082123, 49.655685], [18.081429, 49.65297], [18.081529, 49.652832], [18.082077, 49.644303], [18.080015, 49.643413], [18.076013, 49.635413], [18.071775, 49.630722], [18.071489, 49.630253], [18.069766, 49.6264], [18.063837, 49.6208], [18.060816, 49.619809], [18.060616, 49.619599], [18.05937, 49.618165], [18.053413, 49.613114], [18.048138, 49.610164], [18.047821, 49.610016], [18.047468, 49.609807], [18.040471, 49.606885], [18.03902, 49.606639], [18.038395, 49.606548], [18.038912, 49.602986], [18.041087, 49.602446], [18.044759, 49.602125], [18.051106, 49.59772], [18.051583, 49.591823], [18.053171, 49.588593], [18.061084, 49.588797], [18.068093, 49.584566], [18.070031, 49.584789], [18.074517, 49.583931], [18.077245, 49.58303], [18.07956, 49.582791], [18.079766, 49.583342], [18.080689, 49.586874], [18.081791, 49.589132], [18.082867, 49.590233], [18.083793, 49.591377], [18.084395, 49.592297], [18.092343, 49.595834], [18.09318, 49.595306], [18.094203, 49.587022], [18.091092, 49.585171], [18.09077, 49.58507], [18.090528, 49.584981], [18.09078, 49.580201], [18.090769, 49.58013], [18.087934, 49.574653], [18.084588, 49.572982], [18.082832, 49.572438], [18.082587, 49.572321], [18.081346, 49.571153], [18.080457, 49.570404], [18.077926, 49.568879], [18.077867, 49.568677], [18.077992, 49.567357], [18.078893, 49.566464], [18.079412, 49.566294], [18.080422, 49.5662], [18.081389, 49.566395], [18.088953, 49.562551], [18.092872, 49.558895], [18.095477, 49.550876], [18.094708, 49.54975], [18.094358, 49.548933], [18.087584, 49.543942], [18.084444, 49.544399], [18.0786, 49.550022], [18.076922, 49.552351], [18.072486, 49.554035], [18.069756, 49.556382], [18.066042, 49.55633], [18.063286, 49.556019], [18.059621, 49.553062], [18.054371, 49.553249], [18.048584, 49.559415], [18.047429, 49.56072], [18.04737, 49.560764], [18.04542, 49.562316], [18.042715, 49.559941], [18.043247, 49.5588], [18.044662, 49.557149], [18.046157, 49.556756], [18.050382, 49.55384], [18.050522, 49.553687], [18.051614, 49.5527], [18.052058, 49.552257], [18.052325, 49.552062], [18.052628, 49.551933], [18.052939, 49.551841], [18.053249, 49.551763], [18.053821, 49.551575], [18.056786, 49.549254], [18.057233, 49.548833], [18.057513, 49.548656], [18.060093, 49.54285], [18.054263, 49.539657], [18.051901, 49.539886], [18.051046, 49.539949], [18.050397, 49.539976], [18.049681, 49.539963], [18.048878, 49.539916], [18.045821, 49.540454], [18.042269, 49.53987], [18.039563, 49.537938], [18.038951, 49.535996], [18.039001, 49.535565], [18.039474, 49.534339], [18.04391, 49.533966], [18.048088, 49.53617], [18.056265, 49.532651], [18.056939, 49.532505], [18.05741, 49.532439], [18.060665, 49.532228], [18.065432, 49.53386], [18.065643, 49.533948], [18.065654, 49.5371], [18.071291, 49.543498], [18.073203, 49.543459], [18.076696, 49.541677], [18.077318, 49.54156], [18.077866, 49.541493], [18.080347, 49.541347], [18.080835, 49.541287], [18.083926, 49.540836], [18.087066, 49.540379], [18.087484, 49.5403], [18.089753, 49.539796], [18.091531, 49.539241], [18.09362, 49.539428], [18.099976, 49.533333], [18.100172, 49.532618], [18.101236, 49.525457], [18.104798, 49.524934], [18.104934, 49.525861], [18.105066, 49.527275], [18.112543, 49.530925], [18.113605, 49.530402], [18.114105, 49.530093], [18.122466, 49.531451], [18.127157, 49.530542], [18.132935, 49.530775], [18.135732, 49.532553], [18.136284, 49.533726], [18.143189, 49.539468], [18.144078, 49.539518], [18.144993, 49.540119], [18.147336, 49.541662], [18.146538, 49.542726], [18.145446, 49.544726], [18.142503, 49.543995], [18.139219, 49.543025], [18.138656, 49.542942], [18.1362, 49.542689], [18.133743, 49.543256], [18.133639, 49.543181], [18.128532, 49.542144], [18.122824, 49.545907], [18.119858, 49.547946], [18.113681, 49.547306], [18.11318, 49.547356], [18.112466, 49.547338], [18.112757, 49.543898], [18.107578, 49.539419], [18.104089, 49.539364], [18.097805, 49.543592], [18.097605, 49.545664], [18.098986, 49.549421], [18.09998, 49.55047], [18.100269, 49.550843], [18.100588, 49.551573], [18.10558, 49.55615], [18.105935, 49.556456], [18.106272, 49.556863], [18.106899, 49.558012], [18.109933, 49.562167], [18.116521, 49.564288], [18.119364, 49.563683], [18.120201, 49.56349], [18.125524, 49.556781], [18.125808, 49.556448], [18.126129, 49.556109], [18.127168, 49.554696], [18.133976, 49.55298], [18.134922, 49.553592], [18.135458, 49.553905], [18.138208, 49.555786], [18.138818, 49.5561], [18.141886, 49.557175], [18.142762, 49.557411], [18.143616, 49.558265], [18.144161, 49.558901], [18.152495, 49.561367], [18.153856, 49.561051], [18.154434, 49.560939], [18.156002, 49.560488], [18.156569, 49.56039], [18.158706, 49.559878], [18.16011, 49.55949], [18.162553, 49.558632], [18.166132, 49.557205], [18.16627, 49.557324], [18.170038, 49.562334], [18.175443, 49.562647], [18.177204, 49.565787], [18.185636, 49.566262], [18.186824, 49.564625], [18.187757, 49.563374], [18.188193, 49.562968], [18.188598, 49.562675], [18.190193, 49.561631], [18.192165, 49.564642], [18.196271, 49.572376], [18.19705, 49.57318], [18.197345, 49.573544], [18.198573, 49.575144], [18.197472, 49.5827], [18.195183, 49.585479], [18.195465, 49.59209], [18.200326, 49.59536], [18.202751, 49.595747], [18.203427, 49.595785], [18.204332, 49.595747], [18.205283, 49.598306], [18.206782, 49.603645], [18.209873, 49.607479], [18.210068, 49.607681], [18.214404, 49.613581], [18.215166, 49.614801], [18.216468, 49.62276], [18.217481, 49.623925], [18.217653, 49.62429], [18.217077, 49.626308], [18.213268, 49.627723], [18.210233, 49.628401], [18.209751, 49.62846], [18.20918, 49.628454], [18.208353, 49.628329], [18.20602, 49.628316], [18.204307, 49.628313], [18.20074, 49.628276], [18.198036, 49.635799], [18.195362, 49.638209], [18.197687, 49.646456], [18.199942, 49.646634], [18.202472, 49.646836], [18.204902, 49.647026], [18.207332, 49.647215], [18.209763, 49.647404], [18.218292, 49.646936], [18.219037, 49.646855], [18.21954, 49.646838], [18.220208, 49.646912], [18.220701, 49.647043], [18.221158, 49.64724], [18.225278, 49.648619], [18.227781, 49.648873], [18.229744, 49.649121], [18.231313, 49.649359], [18.23287, 49.64963], [18.233786, 49.649806], [18.234712, 49.649995], [18.233992, 49.653523], [18.227329, 49.652444], [18.224916, 49.652201], [18.221587, 49.651944], [18.218679, 49.650515], [18.215643, 49.649698], [18.209483, 49.650994], [18.207053, 49.650804], [18.204622, 49.650615], [18.202192, 49.650425], [18.199659, 49.650223], [18.197404, 49.650045], [18.195149, 49.649867], [18.192895, 49.64969], [18.186578, 49.653013], [18.181141, 49.655411], [18.181001, 49.655386], [18.179632, 49.65372], [18.17967, 49.653417], [18.17503, 49.646345], [18.174096, 49.646154], [18.170878, 49.645272], [18.169369, 49.645044], [18.163515, 49.645817], [18.157417, 49.65029], [18.156276, 49.651176], [18.151854, 49.651671], [18.151429, 49.65158], [18.144292, 49.649261], [18.143929, 49.649207], [18.143709, 49.649081], [18.139824, 49.647704], [18.138439, 49.647528], [18.137557, 49.647376], [18.136638, 49.647194], [18.135528, 49.646822], [18.134242, 49.646457], [18.132222, 49.645866], [18.125091, 49.651243], [18.125163, 49.652613], [18.12534, 49.65347], [18.125491, 49.654005], [18.126149, 49.655814], [18.127275, 49.658747], [18.128304, 49.66154], [18.128513, 49.662258], [18.128766, 49.663444], [18.128969, 49.665268], [18.128965, 49.666362], [18.128896, 49.667311], [18.128831, 49.667881], [18.128728, 49.668456], [18.128411, 49.672064], [18.127991, 49.674906], [18.12757, 49.677749], [18.127292, 49.679265], [18.126741, 49.681882], [18.125808, 49.688596], [18.123189, 49.691067], [18.121893, 49.689692], [18.120221, 49.687918], [18.118856, 49.68647], [18.118135, 49.68564], [18.117703, 49.685039], [18.117252, 49.684224], [18.116941, 49.683428], [18.116773, 49.682773], [18.111849, 49.675262], [18.11266, 49.671755], [18.112948, 49.671822], [18.113284, 49.671908], [18.116469, 49.672203], [18.116802, 49.672352], [18.124851, 49.669069], [18.125073, 49.668318], [18.125216, 49.667662], [18.125316, 49.666928], [18.125374, 49.666105], [18.125369, 49.66527], [18.1252, 49.663937], [18.124995, 49.663025], [18.124854, 49.662567], [18.123905, 49.660012], [18.122785, 49.657097], [18.122107, 49.655232], [18.115751, 49.651058], [18.110615, 49.64601], [18.106001, 49.647085], [18.10508, 49.647298], [18.103111, 49.64809], [18.102481, 49.648301], [18.101114, 49.648482], [18.100322, 49.648365], [18.097381, 49.647818], [18.09207, 49.653261], [18.092585, 49.655555], [18.092708, 49.65734], [18.092169, 49.657938], [18.091092, 49.658831], [18.087396, 49.663298], [18.085577, 49.664425], [18.085116, 49.664691], [18.084971, 49.664668], [18.083493, 49.663386], [18.082123, 49.655685]]], "type": "Polygon"}}], "metadata": {"attribution": "openrouteservice.org | OpenStreetMap contributors", "service": "isochrones", "timestamp": 1785691409903, "query": {"profile": "driving-car", "profileName": "driving-car", "locations": [[18.1351564, 49.5887553]], "range": [900.0], "range_type": "time"}, "engine": {"version": "9.9.0", "build_date": "2026-06-12T10:08:58Z", "graph_date": "2026-07-26T12:04:00Z", "osm_date": "2026-07-20T00:00:00Z"}}}