{"type": "FeatureCollection", "bbox": [14.583782, 49.69734, 16.454255, 50.615421], "features": [{"type": "Feature", "properties": {"group_index": 0, "value": 3600.0, "center": [15.832584440379184, 50.20927874838626]}, "geometry": {"coordinates": [[[14.586244, 50.112984], [14.586194, 50.111621], [14.586298, 50.109726], [14.583782, 50.101963], [14.584021, 50.100996], [14.58434, 50.100542], [14.584493, 50.10038], [14.590223, 50.096834], [14.592423, 50.093823], [14.595937, 50.094604], [14.604536, 50.097259], [14.605426, 50.097391], [14.60649, 50.09758], [14.607679, 50.09784], [14.608488, 50.098047], [14.610055, 50.098502], [14.610836, 50.098766], [14.611963, 50.099177], [14.613106, 50.099627], [14.615336, 50.100574], [14.617522, 50.101503], [14.624922, 50.104029], [14.627663, 50.104713], [14.629667, 50.105165], [14.632392, 50.10575], [14.635974, 50.106525], [14.639117, 50.107203], [14.642248, 50.107879], [14.645093, 50.108499], [14.648203, 50.109176], [14.649712, 50.109525], [14.652284, 50.110159], [14.654834, 50.110862], [14.656569, 50.111391], [14.65818, 50.111911], [14.659856, 50.112481], [14.661435, 50.113042], [14.663428, 50.113776], [14.6654, 50.114503], [14.667568, 50.115285], [14.674585, 50.113028], [14.677528, 50.108914], [14.680585, 50.106585], [14.681211, 50.106453], [14.686004, 50.106316], [14.68956, 50.107691], [14.695593, 50.108166], [14.696698, 50.108364], [14.702068, 50.107646], [14.706423, 50.103687], [14.706606, 50.103497], [14.708332, 50.103243], [14.708428, 50.103284], [14.709194, 50.106], [14.708266, 50.108449], [14.709173, 50.115011], [14.714292, 50.121175], [14.717731, 50.12159], [14.719859, 50.121893], [14.72195, 50.122191], [14.724362, 50.122588], [14.732047, 50.118101], [14.732756, 50.117328], [14.734729, 50.114996], [14.73766, 50.113293], [14.740098, 50.115942], [14.739171, 50.116795], [14.737527, 50.119806], [14.741022, 50.126192], [14.743465, 50.126712], [14.745902, 50.127231], [14.750914, 50.125995], [14.752279, 50.125212], [14.754017, 50.124192], [14.755201, 50.123826], [14.755754, 50.12369], [14.756608, 50.123506], [14.761707, 50.119945], [14.762133, 50.116371], [14.763224, 50.114664], [14.765902, 50.112258], [14.766596, 50.113031], [14.771675, 50.11545], [14.776221, 50.114036], [14.777391, 50.113187], [14.779875, 50.113899], [14.783935, 50.114616], [14.784519, 50.114786], [14.787744, 50.115253], [14.788574, 50.115417], [14.792713, 50.115863], [14.793462, 50.11587], [14.794647, 50.116375], [14.799738, 50.117974], [14.800792, 50.118107], [14.801394, 50.118153], [14.803048, 50.11814], [14.804854, 50.118132], [14.805818, 50.118226], [14.808386, 50.11869], [14.815751, 50.115585], [14.819345, 50.115791], [14.823554, 50.11583], [14.824751, 50.115825], [14.826795, 50.115668], [14.827718, 50.115676], [14.832404, 50.115337], [14.832127, 50.106345], [14.830668, 50.106075], [14.829884, 50.105901], [14.828751, 50.105617], [14.827006, 50.105245], [14.826024, 50.10511], [14.82511, 50.10501], [14.824348, 50.104978], [14.82358, 50.104972], [14.822881, 50.104933], [14.822175, 50.104823], [14.817617, 50.105269], [14.816964, 50.105064], [14.816551, 50.104893], [14.816177, 50.104695], [14.814607, 50.103703], [14.814322, 50.103451], [14.814087, 50.103202], [14.808414, 50.100391], [14.804772, 50.09964], [14.803992, 50.099385], [14.803472, 50.099077], [14.803034, 50.098654], [14.800781, 50.095827], [14.797796, 50.092991], [14.797648, 50.092862], [14.79702, 50.092346], [14.797423, 50.090379], [14.797515, 50.090264], [14.799165, 50.089456], [14.805387, 50.088404], [14.805621, 50.088365], [14.806925, 50.088678], [14.807275, 50.089338], [14.807695, 50.090477], [14.81265, 50.097584], [14.813183, 50.097712], [14.813484, 50.097804], [14.814046, 50.098079], [14.814851, 50.098724], [14.823035, 50.096661], [14.823332, 50.096242], [14.823777, 50.095754], [14.824372, 50.095301], [14.824872, 50.095035], [14.826022, 50.094524], [14.828172, 50.093439], [14.829005, 50.093057], [14.834442, 50.088385], [14.836308, 50.085306], [14.840573, 50.081861], [14.835843, 50.075345], [14.834139, 50.075167], [14.832451, 50.074941], [14.829913, 50.074645], [14.821815, 50.07294], [14.821614, 50.072924], [14.82139, 50.072889], [14.818021, 50.072381], [14.817767, 50.06879], [14.8187, 50.068724], [14.81967, 50.068633], [14.822517, 50.067521], [14.825192, 50.061412], [14.8262, 50.057956], [14.828891, 50.058741], [14.831664, 50.059669], [14.835208, 50.060551], [14.835975, 50.06067], [14.836523, 50.060826], [14.844701, 50.057349], [14.84585, 50.055718], [14.850567, 50.050424], [14.852644, 50.047483], [14.856354, 50.048447], [14.857072, 50.048744], [14.858134, 50.049138], [14.859539, 50.049601], [14.863747, 50.050647], [14.864746, 50.050778], [14.873038, 50.049182], [14.875993, 50.047127], [14.877752, 50.040241], [14.879958, 50.037396], [14.880675, 50.037952], [14.88299, 50.039961], [14.884931, 50.041664], [14.886865, 50.043362], [14.894153, 50.043904], [14.894631, 50.043713], [14.899585, 50.041339], [14.901063, 50.041036], [14.904663, 50.041059], [14.913624, 50.040336], [14.914248, 50.037351], [14.915327, 50.036577], [14.915769, 50.036463], [14.916739, 50.036464], [14.917089, 50.039562], [14.917197, 50.040776], [14.916939, 50.042875], [14.916604, 50.045442], [14.917143, 50.050605], [14.917373, 50.051445], [14.917464, 50.052356], [14.915353, 50.054313], [14.912476, 50.062235], [14.91585, 50.066469], [14.919967, 50.069637], [14.922164, 50.069899], [14.927575, 50.064889], [14.92712, 50.062327], [14.927654, 50.059607], [14.928419, 50.057666], [14.930091, 50.055382], [14.931343, 50.054009], [14.933225, 50.051473], [14.934678, 50.049746], [14.935753, 50.048747], [14.937625, 50.046526], [14.938457, 50.045131], [14.939572, 50.043832], [14.941946, 50.042633], [14.942459, 50.043223], [14.942819, 50.043843], [14.942953, 50.044819], [14.942468, 50.04597], [14.940472, 50.04909], [14.939999, 50.04981], [14.939006, 50.050829], [14.935992, 50.053776], [14.934236, 50.056152], [14.933065, 50.063961], [14.933855, 50.072406], [14.933157, 50.075938], [14.939998, 50.081225], [14.942794, 50.082403], [14.943245, 50.082768], [14.945111, 50.085217], [14.952695, 50.086223], [14.95465, 50.0804], [14.956206, 50.074354], [14.954253, 50.069924], [14.953867, 50.068603], [14.954101, 50.067695], [14.957203, 50.066133], [14.958685, 50.064866], [14.960421, 50.06484], [14.961442, 50.065068], [14.962281, 50.06553], [14.963109, 50.067669], [14.963074, 50.06772], [14.959768, 50.073836], [14.960485, 50.077215], [14.961183, 50.079239], [14.961305, 50.079938], [14.961333, 50.080537], [14.961317, 50.080947], [14.961541, 50.084624], [14.959632, 50.086626], [14.958972, 50.087464], [14.963803, 50.095012], [14.964915, 50.094872], [14.96581, 50.094635], [14.967669, 50.093849], [14.968435, 50.093495], [14.971628, 50.088491], [14.972618, 50.085593], [14.973029, 50.084586], [14.973187, 50.077252], [14.970412, 50.075261], [14.970581, 50.074879], [14.971384, 50.07408], [14.972352, 50.07375], [14.973592, 50.065221], [14.972996, 50.063779], [14.972782, 50.062906], [14.972607, 50.061353], [14.973618, 50.05839], [14.971597, 50.050265], [14.9679, 50.05054], [14.965242, 50.050738], [14.962583, 50.050936], [14.959924, 50.051134], [14.955337, 50.049394], [14.955432, 50.048756], [14.956396, 50.045624], [14.957147, 50.043281], [14.957868, 50.041575], [14.96036, 50.034567], [14.963926, 50.034078], [14.96424, 50.036366], [14.963979, 50.037757], [14.963114, 50.039711], [14.968493, 50.045593], [14.975026, 50.0464], [14.978836, 50.046139], [14.982635, 50.045879], [14.988119, 50.041537], [14.987165, 50.037527], [14.986934, 50.037008], [14.986811, 50.036567], [14.983783, 50.03077], [14.983484, 50.030448], [14.9831, 50.029956], [14.982554, 50.029243], [14.981696, 50.028308], [14.981347, 50.027578], [14.981076, 50.026599], [14.984434, 50.025302], [14.98687, 50.028582], [14.994474, 50.031164], [14.997273, 50.031997], [14.999557, 50.037179], [15.006745, 50.032874], [15.006623, 50.031464], [15.006724, 50.031257], [15.006989, 50.030812], [15.007381, 50.030332], [15.008074, 50.029807], [15.008906, 50.02945], [15.010271, 50.029057], [15.013448, 50.02064], [15.016537, 50.018791], [15.019566, 50.020786], [15.025849, 50.02338], [15.02672, 50.023487], [15.033734, 50.022266], [15.037762, 50.0153], [15.03683, 50.011823], [15.042561, 50.005532], [15.045691, 50.003753], [15.045945, 50.004199], [15.053067, 50.008291], [15.055104, 50.00801], [15.05725, 50.007718], [15.061417, 50.006836], [15.064134, 50.006226], [15.064708, 50.006117], [15.065477, 50.006071], [15.066303, 50.006152], [15.068298, 50.006505], [15.075756, 50.005465], [15.077688, 50.004903], [15.079453, 50.00423], [15.083018, 50.002851], [15.086861, 49.994796], [15.092336, 49.992038], [15.092782, 49.991802], [15.093253, 49.991607], [15.095289, 49.991099], [15.096043, 49.990972], [15.096239, 49.990962], [15.096929, 49.991139], [15.099338, 49.991995], [15.099874, 49.994528], [15.099968, 49.99554], [15.098038, 49.995883], [15.096574, 50.004076], [15.101047, 50.010131], [15.101931, 50.011033], [15.102175, 50.011542], [15.106892, 50.016977], [15.110811, 50.018226], [15.112676, 50.021034], [15.113384, 50.02237], [15.113716, 50.023603], [15.114809, 50.025644], [15.115679, 50.026829], [15.116382, 50.028081], [15.116635, 50.029465], [15.121594, 50.036106], [15.123031, 50.035964], [15.12718, 50.029157], [15.124996, 50.024839], [15.126769, 50.020705], [15.127527, 50.018213], [15.127668, 50.017733], [15.127815, 50.01739], [15.128179, 50.0167], [15.131201, 50.018656], [15.137465, 50.015647], [15.135038, 50.008872], [15.133687, 50.008154], [15.132965, 50.007727], [15.131625, 50.006846], [15.130043, 50.005913], [15.128295, 50.00487], [15.122072, 50.001015], [15.119746, 50.000698], [15.117915, 49.998136], [15.117682, 49.997748], [15.118634, 49.997083], [15.122906, 49.992739], [15.124449, 49.990271], [15.125236, 49.989516], [15.128642, 49.9886], [15.133761, 49.989837], [15.135414, 49.989367], [15.136839, 49.988906], [15.138943, 49.988351], [15.143048, 49.983923], [15.13818, 49.97866], [15.134835, 49.977537], [15.13124, 49.975496], [15.127417, 49.973302], [15.125888, 49.972399], [15.127029, 49.968985], [15.127891, 49.969273], [15.128426, 49.969512], [15.129019, 49.969911], [15.136485, 49.972524], [15.142622, 49.971119], [15.145722, 49.972949], [15.146533, 49.977423], [15.154732, 49.977005], [15.155147, 49.976562], [15.160655, 49.971971], [15.161164, 49.971943], [15.163869, 49.973594], [15.164209, 49.973864], [15.172711, 49.971063], [15.172763, 49.967463], [15.174201, 49.967484], [15.17498, 49.967635], [15.175669, 49.967952], [15.176089, 49.968238], [15.176604, 49.968779], [15.182749, 49.97315], [15.184131, 49.973321], [15.189612, 49.966791], [15.188702, 49.965261], [15.186793, 49.963007], [15.186421, 49.962632], [15.185577, 49.961557], [15.188408, 49.959333], [15.1958, 49.963961], [15.197925, 49.964761], [15.205534, 49.967358], [15.209184, 49.96762], [15.216462, 49.968765], [15.219959, 49.968625], [15.220061, 49.968676], [15.222058, 49.969947], [15.230026, 49.971896], [15.23558, 49.967465], [15.242922, 49.967235], [15.244059, 49.970651], [15.246203, 49.976573], [15.252352, 49.974611], [15.2536, 49.971797], [15.253665, 49.971148], [15.253906, 49.970447], [15.254335, 49.969738], [15.255297, 49.968293], [15.255948, 49.967504], [15.259626, 49.962689], [15.259989, 49.962013], [15.263217, 49.963607], [15.268937, 49.960579], [15.271248, 49.954221], [15.272107, 49.950314], [15.27266, 49.949617], [15.281003, 49.946769], [15.284639, 49.945085], [15.286654, 49.945623], [15.290067, 49.947181], [15.291091, 49.948295], [15.299457, 49.947376], [15.298928, 49.943815], [15.302302, 49.935809], [15.309278, 49.933306], [15.309308, 49.933303], [15.312581, 49.933152], [15.3141, 49.934377], [15.320203, 49.938495], [15.324062, 49.939584], [15.332084, 49.937327], [15.333014, 49.936615], [15.333518, 49.936261], [15.333945, 49.935993], [15.334743, 49.935544], [15.335521, 49.935172], [15.335895, 49.935017], [15.336412, 49.934822], [15.343869, 49.930774], [15.347376, 49.930935], [15.353572, 49.931648], [15.3559, 49.927828], [15.356004, 49.927111], [15.356091, 49.926626], [15.35697, 49.925433], [15.357779, 49.925411], [15.366017, 49.925952], [15.367844, 49.925173], [15.369231, 49.924559], [15.371466, 49.923602], [15.373701, 49.922646], [15.376306, 49.921531], [15.383203, 49.925744], [15.387095, 49.924564], [15.389351, 49.923376], [15.391028, 49.926561], [15.388773, 49.927749], [15.386293, 49.930552], [15.382194, 49.93118], [15.381534, 49.931475], [15.381051, 49.931671], [15.380274, 49.931951], [15.379246, 49.932267], [15.378467, 49.932465], [15.377449, 49.932675], [15.376416, 49.932833], [15.375341, 49.932945], [15.37449, 49.932997], [15.373218, 49.933012], [15.372278, 49.932978], [15.371365, 49.932905], [15.370693, 49.932829], [15.368739, 49.932544], [15.366839, 49.932267], [15.358918, 49.932905], [15.355055, 49.934929], [15.35432, 49.935475], [15.352637, 49.936217], [15.350955, 49.936958], [15.34737, 49.945049], [15.346748, 49.948595], [15.349647, 49.956851], [15.351197, 49.956777], [15.352475, 49.956682], [15.352848, 49.956686], [15.353539, 49.956735], [15.354454, 49.956717], [15.354991, 49.956674], [15.356508, 49.956461], [15.357358, 49.956332], [15.358884, 49.955955], [15.35935, 49.955869], [15.361486, 49.955572], [15.363145, 49.955288], [15.363716, 49.955237], [15.370793, 49.960348], [15.371695, 49.960187], [15.374688, 49.962604], [15.37428, 49.963159], [15.374177, 49.963261], [15.373088, 49.97148], [15.374936, 49.972639], [15.379279, 49.973414], [15.383543, 49.969348], [15.383748, 49.968946], [15.385215, 49.968908], [15.386583, 49.970669], [15.393853, 49.971727], [15.399755, 49.971728], [15.40185, 49.963081], [15.401147, 49.962464], [15.400227, 49.961471], [15.396425, 49.955152], [15.393506, 49.954452], [15.389695, 49.955503], [15.387086, 49.957709], [15.385854, 49.958841], [15.383055, 49.956655], [15.381781, 49.955113], [15.382208, 49.953156], [15.384457, 49.952675], [15.386658, 49.952204], [15.391833, 49.945597], [15.391329, 49.942608], [15.393528, 49.941176], [15.394065, 49.940748], [15.396973, 49.939445], [15.398595, 49.939727], [15.40018, 49.939727], [15.401171, 49.940525], [15.401396, 49.940758], [15.40148, 49.943083], [15.409869, 49.94444], [15.412498, 49.941839], [15.413708, 49.933185], [15.412067, 49.932054], [15.411349, 49.931679], [15.410587, 49.93081], [15.408818, 49.929132], [15.411295, 49.92652], [15.413064, 49.928198], [15.413471, 49.928584], [15.413824, 49.92887], [15.414244, 49.929187], [15.415747, 49.930218], [15.41994, 49.931776], [15.421211, 49.931898], [15.422344, 49.935426], [15.422022, 49.93617], [15.421494, 49.937174], [15.42118, 49.937693], [15.420836, 49.938194], [15.420333, 49.938864], [15.419794, 49.939535], [15.418957, 49.940457], [15.418278, 49.949311], [15.415774, 49.957443], [15.421624, 49.964236], [15.422089, 49.965048], [15.422234, 49.965829], [15.422188, 49.966511], [15.421802, 49.96746], [15.421542, 49.968129], [15.421264, 49.976562], [15.422515, 49.977903], [15.42415, 49.978989], [15.424636, 49.979598], [15.433166, 49.979559], [15.43759, 49.974792], [15.434649, 49.970077], [15.434368, 49.969491], [15.434164, 49.968961], [15.434048, 49.968481], [15.434014, 49.968029], [15.434063, 49.967524], [15.434192, 49.967066], [15.433407, 49.959948], [15.432935, 49.959258], [15.432679, 49.958679], [15.432371, 49.95733], [15.432457, 49.956521], [15.431583, 49.951666], [15.431142, 49.950848], [15.436211, 49.944219], [15.43646, 49.941476], [15.436579, 49.940976], [15.436654, 49.940841], [15.439022, 49.933582], [15.441303, 49.930797], [15.438368, 49.922653], [15.434158, 49.921663], [15.43152, 49.921042], [15.428882, 49.920421], [15.426244, 49.9198], [15.422139, 49.918823], [15.420524, 49.918422], [15.418172, 49.917864], [15.415821, 49.917307], [15.416651, 49.913804], [15.419003, 49.914361], [15.421354, 49.914919], [15.428891, 49.91277], [15.429093, 49.912803], [15.429607, 49.912918], [15.430295, 49.913513], [15.430591, 49.914003], [15.434982, 49.918158], [15.439193, 49.919149], [15.443403, 49.92014], [15.445432, 49.922467], [15.44654, 49.923925], [15.447161, 49.924711], [15.455598, 49.926149], [15.456668, 49.925565], [15.457773, 49.924872], [15.460616, 49.921773], [15.464924, 49.916526], [15.463643, 49.913264], [15.463365, 49.912918], [15.461006, 49.911321], [15.462543, 49.908065], [15.464023, 49.908764], [15.46469, 49.909107], [15.465055, 49.909314], [15.46536, 49.90952], [15.465627, 49.909741], [15.465917, 49.910047], [15.472785, 49.915138], [15.475542, 49.915953], [15.481652, 49.918033], [15.482075, 49.917965], [15.486527, 49.910242], [15.488469, 49.907211], [15.488868, 49.898956], [15.488705, 49.898471], [15.488535, 49.897601], [15.487866, 49.894901], [15.487545, 49.893969], [15.487395, 49.893275], [15.487829, 49.893081], [15.488436, 49.892868], [15.489008, 49.89272], [15.489044, 49.892718], [15.49095, 49.892798], [15.495852, 49.899791], [15.497179, 49.901141], [15.498819, 49.902916], [15.500419, 49.904651], [15.500865, 49.905124], [15.50172, 49.905971], [15.502456, 49.906791], [15.504275, 49.908636], [15.506109, 49.910239], [15.50702, 49.911267], [15.509963, 49.915756], [15.512114, 49.918104], [15.512592, 49.918787], [15.512867, 49.919295], [15.513072, 49.919781], [15.513267, 49.920525], [15.519727, 49.92601], [15.521851, 49.927846], [15.523338, 49.928951], [15.525073, 49.930328], [15.53359, 49.92815], [15.533848, 49.927603], [15.533981, 49.927383], [15.53505, 49.921784], [15.535159, 49.920654], [15.535713, 49.919828], [15.536313, 49.919415], [15.539927, 49.913509], [15.535903, 49.907694], [15.535283, 49.907423], [15.530771, 49.905994], [15.528588, 49.903131], [15.525051, 49.90026], [15.524389, 49.89969], [15.523081, 49.891185], [15.521458, 49.890283], [15.521406, 49.890146], [15.521286, 49.889618], [15.522604, 49.887616], [15.52682, 49.884698], [15.527403, 49.884263], [15.530164, 49.881952], [15.53468, 49.877562], [15.534959, 49.876889], [15.53512, 49.876578], [15.535419, 49.876174], [15.535927, 49.875744], [15.537142, 49.875076], [15.535692, 49.866384], [15.535289, 49.866249], [15.535233, 49.86623], [15.532143, 49.865968], [15.530671, 49.866091], [15.530211, 49.86252], [15.531323, 49.862377], [15.531958, 49.862359], [15.532301, 49.862372], [15.535535, 49.862642], [15.535944, 49.862709], [15.537736, 49.863033], [15.540687, 49.863325], [15.546798, 49.86291], [15.548434, 49.862819], [15.551497, 49.863579], [15.554293, 49.865847], [15.557004, 49.871817], [15.558991, 49.87294], [15.559471, 49.873173], [15.561248, 49.874272], [15.568111, 49.873588], [15.567021, 49.866445], [15.56641, 49.86604], [15.566385, 49.865989], [15.565925, 49.862775], [15.566309, 49.862648], [15.567051, 49.862552], [15.567683, 49.862649], [15.568943, 49.863061], [15.569413, 49.863587], [15.575071, 49.86597], [15.580159, 49.861975], [15.580852, 49.85988], [15.581663, 49.855072], [15.581686, 49.853569], [15.581764, 49.852975], [15.581964, 49.852389], [15.582228, 49.851912], [15.58362, 49.849871], [15.582654, 49.842675], [15.582473, 49.841648], [15.583787, 49.839745], [15.5839, 49.839744], [15.584687, 49.839915], [15.5906, 49.838989], [15.593281, 49.836079], [15.595704, 49.835178], [15.595712, 49.835179], [15.596485, 49.835395], [15.596597, 49.835467], [15.597403, 49.837566], [15.605072, 49.841612], [15.60594, 49.840521], [15.606281, 49.840361], [15.606784, 49.840331], [15.60709, 49.840401], [15.608638, 49.841055], [15.609439, 49.841416], [15.610259, 49.842453], [15.610352, 49.843839], [15.610642, 49.845323], [15.614368, 49.84997], [15.621665, 49.846501], [15.621882, 49.845913], [15.622257, 49.845386], [15.620633, 49.836607], [15.62034, 49.836399], [15.619868, 49.835838], [15.619631, 49.83465], [15.617542, 49.829256], [15.615472, 49.82336], [15.610443, 49.823675], [15.607648, 49.825608], [15.605603, 49.827244], [15.603354, 49.824432], [15.6054, 49.822796], [15.608392, 49.820716], [15.613767, 49.814945], [15.618296, 49.813875], [15.620942, 49.816316], [15.627178, 49.817739], [15.633704, 49.821841], [15.636008, 49.820842], [15.640456, 49.814909], [15.640462, 49.811309], [15.641755, 49.81039], [15.645415, 49.808988], [15.647341, 49.808443], [15.648923, 49.808181], [15.649374, 49.809748], [15.649324, 49.811448], [15.649305, 49.813348], [15.648646, 49.813824], [15.646787, 49.816907], [15.652428, 49.822507], [15.654933, 49.821684], [15.657447, 49.819024], [15.657778, 49.81892], [15.657997, 49.818916], [15.65826, 49.818906], [15.663796, 49.817523], [15.664164, 49.817297], [15.664525, 49.817127], [15.664976, 49.816958], [15.672086, 49.822434], [15.672631, 49.822511], [15.673245, 49.822765], [15.677413, 49.824009], [15.680562, 49.824018], [15.68095, 49.830056], [15.681192, 49.831111], [15.681363, 49.835092], [15.681291, 49.836006], [15.681438, 49.839136], [15.681596, 49.839903], [15.681534, 49.840494], [15.681292, 49.841187], [15.681022, 49.841663], [15.680777, 49.842042], [15.68047, 49.842282], [15.676259, 49.848524], [15.678566, 49.851312], [15.680516, 49.852136], [15.682492, 49.852866], [15.685678, 49.853536], [15.691328, 49.851581], [15.691632, 49.851354], [15.692267, 49.850949], [15.692788, 49.850579], [15.694414, 49.849135], [15.6948, 49.848844], [15.698143, 49.841161], [15.696014, 49.837457], [15.695195, 49.83669], [15.694702, 49.835874], [15.694454, 49.834908], [15.694089, 49.83385], [15.69394, 49.833138], [15.694219, 49.832023], [15.694802, 49.827335], [15.694772, 49.826857], [15.693559, 49.822467], [15.688378, 49.815675], [15.685275, 49.815853], [15.683217, 49.814818], [15.683135, 49.811219], [15.684058, 49.811171], [15.684463, 49.811164], [15.688649, 49.809827], [15.687689, 49.801089], [15.687272, 49.80074], [15.680443, 49.800018], [15.676868, 49.80338], [15.67532, 49.804559], [15.672809, 49.805792], [15.671844, 49.805692], [15.671484, 49.805412], [15.670995, 49.804884], [15.670525, 49.80301], [15.666517, 49.796176], [15.66604, 49.795637], [15.666162, 49.795121], [15.667142, 49.793904], [15.667999, 49.793664], [15.671024, 49.792452], [15.671648, 49.79221], [15.672396, 49.792051], [15.67289, 49.792006], [15.673443, 49.792012], [15.679893, 49.787073], [15.680107, 49.786486], [15.676172, 49.778489], [15.675767, 49.77848], [15.672966, 49.778265], [15.672225, 49.778123], [15.671818, 49.777982], [15.66961, 49.777024], [15.671044, 49.773721], [15.673538, 49.774711], [15.681057, 49.771067], [15.68186, 49.768758], [15.682074, 49.768677], [15.686338, 49.767917], [15.692948, 49.765922], [15.694326, 49.765942], [15.694612, 49.766947], [15.694697, 49.76802], [15.69794, 49.776122], [15.700582, 49.776711], [15.709214, 49.778528], [15.71241, 49.776511], [15.713044, 49.776283], [15.714367, 49.779631], [15.719312, 49.782916], [15.725465, 49.781653], [15.727835, 49.774873], [15.72832, 49.774192], [15.729784, 49.77265], [15.732575, 49.765578], [15.731829, 49.76382], [15.731758, 49.76289], [15.731862, 49.762816], [15.732835, 49.76218], [15.734037, 49.761875], [15.734611, 49.762494], [15.735514, 49.763304], [15.736807, 49.764486], [15.737711, 49.76522], [15.740233, 49.766714], [15.746538, 49.760447], [15.746957, 49.759931], [15.747747, 49.758765], [15.748543, 49.758425], [15.74962, 49.758219], [15.752524, 49.758995], [15.76133, 49.759684], [15.763016, 49.758159], [15.763982, 49.757578], [15.769641, 49.751629], [15.77001, 49.750773], [15.771064, 49.749357], [15.771529, 49.748834], [15.772918, 49.747613], [15.774307, 49.746393], [15.778475, 49.739637], [15.778655, 49.739515], [15.786276, 49.734864], [15.786951, 49.734799], [15.788798, 49.7344], [15.79446, 49.7289], [15.79769, 49.724159], [15.794985, 49.717323], [15.794984, 49.717298], [15.79592, 49.715668], [15.796084, 49.715599], [15.800931, 49.710832], [15.800237, 49.7073], [15.807203, 49.702011], [15.813491, 49.697822], [15.815084, 49.69734], [15.81524, 49.697376], [15.816134, 49.700266], [15.813904, 49.706854], [15.813575, 49.710166], [15.813883, 49.714318], [15.81977, 49.720742], [15.822208, 49.720892], [15.822322, 49.721282], [15.821668, 49.723801], [15.821651, 49.723863], [15.821164, 49.724225], [15.820455, 49.732017], [15.824807, 49.733918], [15.825934, 49.733801], [15.826722, 49.73362], [15.828554, 49.733113], [15.830571, 49.731895], [15.830939, 49.731562], [15.831094, 49.731459], [15.831873, 49.730835], [15.83266, 49.72997], [15.8329, 49.729711], [15.8345, 49.726167], [15.834737, 49.724263], [15.837951, 49.722509], [15.838322, 49.726388], [15.838436, 49.728299], [15.842792, 49.736151], [15.845665, 49.736845], [15.85106, 49.738956], [15.856235, 49.739839], [15.85724, 49.740267], [15.857802, 49.740556], [15.86058, 49.742518], [15.86092, 49.746102], [15.865501, 49.750299], [15.865949, 49.750442], [15.87431, 49.750356], [15.87439, 49.750329], [15.874891, 49.75206], [15.88317, 49.752485], [15.886372, 49.750839], [15.890857, 49.749527], [15.897499, 49.753072], [15.898535, 49.755818], [15.904299, 49.759488], [15.906073, 49.759712], [15.908988, 49.759422], [15.909068, 49.75941], [15.909968, 49.759628], [15.912216, 49.761253], [15.91246, 49.761443], [15.911941, 49.764271], [15.911829, 49.764329], [15.90931, 49.76618], [15.909001, 49.766303], [15.907273, 49.767304], [15.902865, 49.769656], [15.899632, 49.771225], [15.896235, 49.772416], [15.889209, 49.772686], [15.884778, 49.778375], [15.884301, 49.779081], [15.887397, 49.787508], [15.892044, 49.788489], [15.895424, 49.78973], [15.896819, 49.793512], [15.89618, 49.797054], [15.891294, 49.79993], [15.890331, 49.801987], [15.894723, 49.809579], [15.895269, 49.809535], [15.90047, 49.807918], [15.90067, 49.807725], [15.901712, 49.808649], [15.906043, 49.815969], [15.907445, 49.815932], [15.907473, 49.815943], [15.913207, 49.816216], [15.915728, 49.807611], [15.913687, 49.806617], [15.912334, 49.806194], [15.91073, 49.806073], [15.909842, 49.804535], [15.909768, 49.80261], [15.910718, 49.802473], [15.912595, 49.802604], [15.91467, 49.803154], [15.917269, 49.804358], [15.92306, 49.80293], [15.921581, 49.795611], [15.921456, 49.795534], [15.919387, 49.794574], [15.917704, 49.793639], [15.915008, 49.792766], [15.913894, 49.79269], [15.914137, 49.789099], [15.915252, 49.789174], [15.920028, 49.78208], [15.919893, 49.78132], [15.919942, 49.780495], [15.920354, 49.77873], [15.920069, 49.773938], [15.92313, 49.772044], [15.923611, 49.77282], [15.924031, 49.773487], [15.924214, 49.773816], [15.924385, 49.774211], [15.924564, 49.774828], [15.924645, 49.775675], [15.924594, 49.776274], [15.924279, 49.777755], [15.930988, 49.783626], [15.933292, 49.786393], [15.936318, 49.791367], [15.936174, 49.794964], [15.930891, 49.801691], [15.930804, 49.802351], [15.930636, 49.802825], [15.930043, 49.803999], [15.933253, 49.812285], [15.931547, 49.815455], [15.931333, 49.815451], [15.928751, 49.814709], [15.927944, 49.814666], [15.919925, 49.817329], [15.918709, 49.821814], [15.925104, 49.827605], [15.925449, 49.827614], [15.925879, 49.827654], [15.92925, 49.828148], [15.929784, 49.828228], [15.930355, 49.828358], [15.930793, 49.828494], [15.933555, 49.828939], [15.933981, 49.828971], [15.938736, 49.82751], [15.939076, 49.82751], [15.943914, 49.829413], [15.946119, 49.829684], [15.953213, 49.824157], [15.953258, 49.822949], [15.953287, 49.822327], [15.953492, 49.821002], [15.952574, 49.814617], [15.952132, 49.810286], [15.952029, 49.809639], [15.952078, 49.809151], [15.952502, 49.808154], [15.95341, 49.807073], [15.954316, 49.806222], [15.958638, 49.809346], [15.958651, 49.80938], [15.960142, 49.812331], [15.960476, 49.813233], [15.963103, 49.816759], [15.963215, 49.817287], [15.96602, 49.821138], [15.970336, 49.823114], [15.971879, 49.823324], [15.977978, 49.822891], [15.977898, 49.815613], [15.975538, 49.814132], [15.975087, 49.813336], [15.974848, 49.812502], [15.973966, 49.810489], [15.970033, 49.80342], [15.968722, 49.802835], [15.967103, 49.802165], [15.966657, 49.801954], [15.966419, 49.801805], [15.965119, 49.800856], [15.961527, 49.797448], [15.961585, 49.793484], [15.962164, 49.791457], [15.963002, 49.787956], [15.968138, 49.787497], [15.968584, 49.787442], [15.971287, 49.787892], [15.979549, 49.790256], [15.98143, 49.790915], [15.989448, 49.789697], [15.991959, 49.787568], [15.994287, 49.790314], [15.994645, 49.79441], [15.994763, 49.798008], [15.993125, 49.800601], [15.991006, 49.803512], [15.994895, 49.809431], [15.99598, 49.81126], [15.99878, 49.813426], [15.999607, 49.813824], [16.007344, 49.809814], [16.007225, 49.806668], [16.008655, 49.805781], [16.016616, 49.805505], [16.02188, 49.800848], [16.022612, 49.800567], [16.025241, 49.792101], [16.023054, 49.789242], [16.024171, 49.784345], [16.025905, 49.778558], [16.024113, 49.774469], [16.024074, 49.774121], [16.024158, 49.773984], [16.024665, 49.773288], [16.02533, 49.773097], [16.027058, 49.773619], [16.030822, 49.775148], [16.031564, 49.775742], [16.035184, 49.779638], [16.037261, 49.782578], [16.041202, 49.787262], [16.049942, 49.786344], [16.050207, 49.786175], [16.052137, 49.789214], [16.053365, 49.794216], [16.053622, 49.795351], [16.053318, 49.796292], [16.06087, 49.801048], [16.063463, 49.799485], [16.064015, 49.799163], [16.064457, 49.799025], [16.064937, 49.798946], [16.065411, 49.798919], [16.071519, 49.798333], [16.074184, 49.797627], [16.074562, 49.797576], [16.074722, 49.797569], [16.075355, 49.797926], [16.076284, 49.799533], [16.076142, 49.800057], [16.076056, 49.800206], [16.07489, 49.801165], [16.07206, 49.809291], [16.071864, 49.80946], [16.070336, 49.810153], [16.067121, 49.813216], [16.068876, 49.821298], [16.070847, 49.82287], [16.071666, 49.823582], [16.07211, 49.823998], [16.074328, 49.825884], [16.082378, 49.825715], [16.082837, 49.825515], [16.083362, 49.82529], [16.087006, 49.823547], [16.093424, 49.818642], [16.094023, 49.817918], [16.094703, 49.81744], [16.096019, 49.816772], [16.098303, 49.815282], [16.099184, 49.81452], [16.097066, 49.806173], [16.098239, 49.802769], [16.100013, 49.80338], [16.106951, 49.799048], [16.107873, 49.795568], [16.116125, 49.792764], [16.116448, 49.792457], [16.116855, 49.792153], [16.117242, 49.791924], [16.118679, 49.7927], [16.11877, 49.792829], [16.119043, 49.793403], [16.119077, 49.795021], [16.12291, 49.801873], [16.130919, 49.801525], [16.131446, 49.801251], [16.131925, 49.80106], [16.132818, 49.80083], [16.133172, 49.800727], [16.133892, 49.800539], [16.134187, 49.800521], [16.135418, 49.801336], [16.135532, 49.802929], [16.135469, 49.804931], [16.135469, 49.804936], [16.132068, 49.808792], [16.128729, 49.817075], [16.129837, 49.817965], [16.130085, 49.818204], [16.1336, 49.82144], [16.13413, 49.821679], [16.134451, 49.821963], [16.13473, 49.82227], [16.134568, 49.829984], [16.135127, 49.831022], [16.135385, 49.831631], [16.136064, 49.833324], [16.13642, 49.833929], [16.143486, 49.837646], [16.148942, 49.83156], [16.148936, 49.827901], [16.148942, 49.827832], [16.15013, 49.825938], [16.153637, 49.821564], [16.1557, 49.817935], [16.155996, 49.817101], [16.156301, 49.816455], [16.153076, 49.80826], [16.150993, 49.806437], [16.151064, 49.806083], [16.151863, 49.804871], [16.152222, 49.804742], [16.153563, 49.804262], [16.15425, 49.804065], [16.156749, 49.803358], [16.16286, 49.800631], [16.163209, 49.800589], [16.163286, 49.800586], [16.163439, 49.80058], [16.164579, 49.8007], [16.172702, 49.799534], [16.17348, 49.799317], [16.173967, 49.799198], [16.17503, 49.802637], [16.173853, 49.803896], [16.173075, 49.804347], [16.171942, 49.805014], [16.170787, 49.805748], [16.170696, 49.805768], [16.170319, 49.805812], [16.165706, 49.812006], [16.17316, 49.814693], [16.1765, 49.816038], [16.179667, 49.816763], [16.182709, 49.818689], [16.187951, 49.821183], [16.188534, 49.821366], [16.1896, 49.821858], [16.192133, 49.824744], [16.19293, 49.82561], [16.193228, 49.826693], [16.195428, 49.831297], [16.203301, 49.834166], [16.210313, 49.829769], [16.211975, 49.830686], [16.213636, 49.831604], [16.215552, 49.832745], [16.222827, 49.832183], [16.224505, 49.830158], [16.228707, 49.830153], [16.229513, 49.833661], [16.227346, 49.839765], [16.225771, 49.843002], [16.219242, 49.843617], [16.216735, 49.849617], [16.216992, 49.857684], [16.218761, 49.858586], [16.219955, 49.858871], [16.220418, 49.858914], [16.221073, 49.859013], [16.221539, 49.859112], [16.222084, 49.85927], [16.222528, 49.85944], [16.225294, 49.861118], [16.23199, 49.859129], [16.234529, 49.856576], [16.237034, 49.853177], [16.237983, 49.850807], [16.239194, 49.847417], [16.246605, 49.84589], [16.247457, 49.845613], [16.248171, 49.845533], [16.250365, 49.845515], [16.251474, 49.850696], [16.251926, 49.851935], [16.256217, 49.85532], [16.260803, 49.85396], [16.261744, 49.853041], [16.262219, 49.852665], [16.264941, 49.850767], [16.265706, 49.850161], [16.265976, 49.849933], [16.266841, 49.849122], [16.269222, 49.85088], [16.269304, 49.851747], [16.267447, 49.854013], [16.264278, 49.855617], [16.263338, 49.856516], [16.262202, 49.85778], [16.26146, 49.858998], [16.261125, 49.859446], [16.260473, 49.867382], [16.263086, 49.869831], [16.267956, 49.870973], [16.274785, 49.865793], [16.278385, 49.865769], [16.281795, 49.87006], [16.282098, 49.873647], [16.287574, 49.880599], [16.289435, 49.880055], [16.292385, 49.87338], [16.294721, 49.872655], [16.296129, 49.872352], [16.304141, 49.869001], [16.306009, 49.867441], [16.308686, 49.865935], [16.311346, 49.868361], [16.311773, 49.869403], [16.312514, 49.874241], [16.312483, 49.874386], [16.312122, 49.874871], [16.310886, 49.875819], [16.309547, 49.876591], [16.309085, 49.876868], [16.306922, 49.877788], [16.304444, 49.878248], [16.300309, 49.882341], [16.30018, 49.887474], [16.304331, 49.890692], [16.306952, 49.891775], [16.307017, 49.892362], [16.308412, 49.900417], [16.308183, 49.901277], [16.30762, 49.902048], [16.306969, 49.902537], [16.302976, 49.907445], [16.307377, 49.913329], [16.312205, 49.918107], [16.31395, 49.91987], [16.314823, 49.921185], [16.314017, 49.923127], [16.312124, 49.923871], [16.30445, 49.926395], [16.30272, 49.92767], [16.301889, 49.928009], [16.301439, 49.928217], [16.301061, 49.928342], [16.298163, 49.929401], [16.297751, 49.929519], [16.297303, 49.929615], [16.296535, 49.929721], [16.295328, 49.929841], [16.293907, 49.929953], [16.292484, 49.930015], [16.291047, 49.930183], [16.287195, 49.930795], [16.282488, 49.932176], [16.280559, 49.933604], [16.278607, 49.935048], [16.276718, 49.936345], [16.278397, 49.944455], [16.281981, 49.944863], [16.283017, 49.945374], [16.288615, 49.946682], [16.289542, 49.946578], [16.290411, 49.946565], [16.292951, 49.946452], [16.295656, 49.946439], [16.297033, 49.946659], [16.29871, 49.947062], [16.29977, 49.947552], [16.300545, 49.948161], [16.308905, 49.947523], [16.311904, 49.948212], [16.320121, 49.950551], [16.321399, 49.950487], [16.323875, 49.950091], [16.324622, 49.950134], [16.32512, 49.953228], [16.325049, 49.953709], [16.323166, 49.953934], [16.321651, 49.95419], [16.320307, 49.954146], [16.317245, 49.95415], [16.314275, 49.954151], [16.310668, 49.954057], [16.305393, 49.953664], [16.301298, 49.957353], [16.303103, 49.966034], [16.306684, 49.965669], [16.31246, 49.968849], [16.316713, 49.968033], [16.318269, 49.96735], [16.320288, 49.966198], [16.322072, 49.969324], [16.31868, 49.971737], [16.318328, 49.972002], [16.315504, 49.973834], [16.311713, 49.981314], [16.310577, 49.984411], [16.30659, 49.988477], [16.305631, 49.987912], [16.305238, 49.985486], [16.305055, 49.983023], [16.304887, 49.980586], [16.304603, 49.976431], [16.298459, 49.971829], [16.292005, 49.97759], [16.292048, 49.978491], [16.292156, 49.98015], [16.292183, 49.981261], [16.292132, 49.981789], [16.291512, 49.982916], [16.289313, 49.987406], [16.289245, 49.987484], [16.285658, 49.990884], [16.28718, 49.997351], [16.291399, 49.997986], [16.292358, 49.997983], [16.294916, 49.998175], [16.297084, 49.998485], [16.298482, 49.99882], [16.300548, 49.99942], [16.299544, 50.002877], [16.297478, 50.002277], [16.29205, 50.003157], [16.289599, 50.006228], [16.288958, 50.007122], [16.288602, 50.007393], [16.28786, 50.016061], [16.296281, 50.015384], [16.297244, 50.014776], [16.297777, 50.014445], [16.299582, 50.013336], [16.301468, 50.016403], [16.307612, 50.019853], [16.311101, 50.018941], [16.311675, 50.018834], [16.312743, 50.018701], [16.313675, 50.018653], [16.31525, 50.018474], [16.315953, 50.018427], [16.316506, 50.018456], [16.320427, 50.018329], [16.326878, 50.019328], [16.332554, 50.019461], [16.333298, 50.022983], [16.332973, 50.023052], [16.328004, 50.030471], [16.32771, 50.034059], [16.32727, 50.034037], [16.322017, 50.040892], [16.322494, 50.042017], [16.33046, 50.045839], [16.333166, 50.041245], [16.336074, 50.039122], [16.336259, 50.03921], [16.337085, 50.039633], [16.338041, 50.040026], [16.345485, 50.039047], [16.347916, 50.036392], [16.348844, 50.037161], [16.349289, 50.037506], [16.349878, 50.038525], [16.350746, 50.039439], [16.359046, 50.036067], [16.358718, 50.034893], [16.35928, 50.032474], [16.35609, 50.024391], [16.35558, 50.024084], [16.355074, 50.023726], [16.354501, 50.02322], [16.352545, 50.021751], [16.352771, 50.018158], [16.353342, 50.018194], [16.35402, 50.018311], [16.354676, 50.018553], [16.355666, 50.019281], [16.359276, 50.021599], [16.36746, 50.020056], [16.372102, 50.017916], [16.372657, 50.017952], [16.373505, 50.018102], [16.373831, 50.01827], [16.374157, 50.020135], [16.374161, 50.020869], [16.376021, 50.028792], [16.376297, 50.029653], [16.382776, 50.035737], [16.384185, 50.038999], [16.384444, 50.04259], [16.38, 50.044299], [16.374876, 50.0468], [16.373576, 50.047232], [16.372298, 50.047946], [16.372198, 50.056486], [16.372904, 50.057543], [16.373, 50.058017], [16.37281, 50.059244], [16.372402, 50.059861], [16.371831, 50.060452], [16.370361, 50.062073], [16.367694, 50.059655], [16.361936, 50.056682], [16.358059, 50.061438], [16.358043, 50.061549], [16.357942, 50.061622], [16.356833, 50.062573], [16.354897, 50.063226], [16.353796, 50.063315], [16.352646, 50.063232], [16.351281, 50.063242], [16.350398, 50.063337], [16.349471, 50.063326], [16.347539, 50.062957], [16.34343, 50.064334], [16.341895, 50.071427], [16.344692, 50.07797], [16.345115, 50.079122], [16.35137, 50.085008], [16.35476, 50.084326], [16.355607, 50.084626], [16.35572, 50.084672], [16.355824, 50.084733], [16.358103, 50.086161], [16.358471, 50.086319], [16.363911, 50.087421], [16.364658, 50.087436], [16.365359, 50.087542], [16.366135, 50.087836], [16.366682, 50.088205], [16.370184, 50.089224], [16.374105, 50.090153], [16.37432, 50.090158], [16.374796, 50.090209], [16.374994, 50.090249], [16.37514, 50.090287], [16.376419, 50.09063], [16.380907, 50.082868], [16.38045, 50.082387], [16.379465, 50.081453], [16.377064, 50.078771], [16.375903, 50.078038], [16.373477, 50.077344], [16.372433, 50.075626], [16.371618, 50.073722], [16.37165, 50.073566], [16.373902, 50.072339], [16.376224, 50.070264], [16.378202, 50.069225], [16.37855, 50.069001], [16.379146, 50.068695], [16.379799, 50.068501], [16.38043, 50.068432], [16.381031, 50.068463], [16.383368, 50.068868], [16.383936, 50.069011], [16.384345, 50.069147], [16.384137, 50.070096], [16.383815, 50.072587], [16.383934, 50.076185], [16.384345, 50.078424], [16.391364, 50.083701], [16.39184, 50.083637], [16.393322, 50.083551], [16.393813, 50.083606], [16.395817, 50.083676], [16.400859, 50.091115], [16.407647, 50.096204], [16.409162, 50.095702], [16.409846, 50.095511], [16.411272, 50.095183], [16.412412, 50.094953], [16.419679, 50.090394], [16.420017, 50.090068], [16.420647, 50.089585], [16.421455, 50.089073], [16.42201, 50.088808], [16.4227, 50.088621], [16.42325, 50.088559], [16.423927, 50.08854], [16.426618, 50.089688], [16.435133, 50.091194], [16.44296, 50.089528], [16.44424, 50.089966], [16.451573, 50.091104], [16.453545, 50.090858], [16.453586, 50.090878], [16.454255, 50.093506], [16.4541, 50.093678], [16.450028, 50.099902], [16.44999, 50.102347], [16.449886, 50.102446], [16.449147, 50.102899], [16.447985, 50.102867], [16.447628, 50.102621], [16.439167, 50.099921], [16.43827, 50.099904], [16.436288, 50.099688], [16.43009, 50.103102], [16.430504, 50.107165], [16.428028, 50.10755], [16.427524, 50.107572], [16.426287, 50.107089], [16.425536, 50.104777], [16.425557, 50.104157], [16.42571, 50.10335], [16.425815, 50.102959], [16.426044, 50.102435], [16.426556, 50.100606], [16.418062, 50.097896], [16.415045, 50.102451], [16.4145, 50.105938], [16.414986, 50.107838], [16.414857, 50.108517], [16.414739, 50.111123], [16.412234, 50.112531], [16.409819, 50.109862], [16.40153, 50.106793], [16.401021, 50.107012], [16.400169, 50.107249], [16.399725, 50.107332], [16.397354, 50.107652], [16.395054, 50.107961], [16.390989, 50.10941], [16.389276, 50.110412], [16.387326, 50.118686], [16.387862, 50.119316], [16.3881, 50.120663], [16.387492, 50.122955], [16.386862, 50.125478], [16.386816, 50.125671], [16.386669, 50.127051], [16.386523, 50.127731], [16.392252, 50.134164], [16.398509, 50.128928], [16.398786, 50.127987], [16.399196, 50.127415], [16.399683, 50.126754], [16.40192, 50.127997], [16.408049, 50.128687], [16.408531, 50.12861], [16.409448, 50.128527], [16.410257, 50.128424], [16.410571, 50.128428], [16.416362, 50.125929], [16.41687, 50.12584], [16.418716, 50.125663], [16.41906, 50.129247], [16.414426, 50.134258], [16.411404, 50.139468], [16.409694, 50.142637], [16.41257, 50.148395], [16.415742, 50.150097], [16.422706, 50.153153], [16.425187, 50.153144], [16.425253, 50.153212], [16.425476, 50.154042], [16.425556, 50.155353], [16.423281, 50.163528], [16.422191, 50.166959], [16.419429, 50.171929], [16.41547, 50.171477], [16.409025, 50.170397], [16.407144, 50.167348], [16.398395, 50.169415], [16.399081, 50.176532], [16.399026, 50.177646], [16.398712, 50.178253], [16.398316, 50.178668], [16.398042, 50.178866], [16.394603, 50.181863], [16.39413, 50.182332], [16.393457, 50.183077], [16.393192, 50.183306], [16.390841, 50.18058], [16.384181, 50.181083], [16.38251, 50.185317], [16.382878, 50.187073], [16.380925, 50.187296], [16.380251, 50.187368], [16.377417, 50.188159], [16.376077, 50.188004], [16.375528, 50.18792], [16.371711, 50.18815], [16.370133, 50.188949], [16.372538, 50.197167], [16.373686, 50.197521], [16.374107, 50.19767], [16.374678, 50.197877], [16.375339, 50.198169], [16.376792, 50.198749], [16.377741, 50.19892], [16.378494, 50.199095], [16.37936, 50.199408], [16.37975, 50.199637], [16.38665, 50.199613], [16.388007, 50.198611], [16.388369, 50.198323], [16.389385, 50.197648], [16.389769, 50.197349], [16.390859, 50.196324], [16.391043, 50.196098], [16.39431, 50.19761], [16.398813, 50.200536], [16.401497, 50.202936], [16.399853, 50.205646], [16.399396, 50.206298], [16.398618, 50.207176], [16.393646, 50.208521], [16.391142, 50.215967], [16.390272, 50.218689], [16.389677, 50.222239], [16.38897, 50.222121], [16.388363, 50.221931], [16.387642, 50.221508], [16.387072, 50.220974], [16.386655, 50.220336], [16.384274, 50.215382], [16.377055, 50.211473], [16.376239, 50.211403], [16.375522, 50.21126], [16.375042, 50.211076], [16.374462, 50.210717], [16.37377, 50.210152], [16.366872, 50.20474], [16.366494, 50.204611], [16.365771, 50.204372], [16.358507, 50.203588], [16.358096, 50.203593], [16.357234, 50.203576], [16.356812, 50.203539], [16.355994, 50.20339], [16.354943, 50.20327], [16.354532, 50.203253], [16.353646, 50.20319], [16.346893, 50.208556], [16.34686, 50.208624], [16.346747, 50.217393], [16.345681, 50.220832], [16.34362, 50.220193], [16.337864, 50.22016], [16.330593, 50.223515], [16.329298, 50.226427], [16.329089, 50.226966], [16.328844, 50.22755], [16.328018, 50.232564], [16.328482, 50.235971], [16.32655, 50.241624], [16.326105, 50.243319], [16.326015, 50.243476], [16.324856, 50.251967], [16.325182, 50.252874], [16.328465, 50.257289], [16.33023, 50.259326], [16.330642, 50.259753], [16.330972, 50.260338], [16.331106, 50.260912], [16.331096, 50.261458], [16.33094, 50.262132], [16.330842, 50.262297], [16.327633, 50.263416], [16.320126, 50.267654], [16.319173, 50.266747], [16.317215, 50.265536], [16.315837, 50.263988], [16.314953, 50.263294], [16.306039, 50.263181], [16.302694, 50.264511], [16.295183, 50.267194], [16.298773, 50.274371], [16.299575, 50.274547], [16.30054, 50.27488], [16.301175, 50.275169], [16.302862, 50.275598], [16.303541, 50.275857], [16.30423, 50.276239], [16.307161, 50.277359], [16.308241, 50.279106], [16.315356, 50.282723], [16.318209, 50.286289], [16.321696, 50.294199], [16.327133, 50.296688], [16.327731, 50.296773], [16.329054, 50.29713], [16.328117, 50.300605], [16.327206, 50.302292], [16.326759, 50.303205], [16.325795, 50.303948], [16.32619, 50.312163], [16.332533, 50.310207], [16.33392, 50.309032], [16.335307, 50.307858], [16.344182, 50.306945], [16.346457, 50.304691], [16.347784, 50.302706], [16.349248, 50.30131], [16.349335, 50.301264], [16.350427, 50.301067], [16.352296, 50.301153], [16.352466, 50.301269], [16.352764, 50.301522], [16.353222, 50.302244], [16.353624, 50.303621], [16.353533, 50.304605], [16.353444, 50.305009], [16.352807, 50.3073], [16.349247, 50.310658], [16.349111, 50.31916], [16.349824, 50.322688], [16.348018, 50.324394], [16.34726, 50.325188], [16.3425, 50.331393], [16.340029, 50.331953], [16.337375, 50.340193], [16.338654, 50.343558], [16.338605, 50.348639], [16.336074, 50.350098], [16.335033, 50.350482], [16.334167, 50.350872], [16.328115, 50.355749], [16.329226, 50.359173], [16.330289, 50.361283], [16.329596, 50.361696], [16.325897, 50.361917], [16.324153, 50.361241], [16.32372, 50.360977], [16.320077, 50.359836], [16.319425, 50.359375], [16.318633, 50.358793], [16.317211, 50.357686], [16.316333, 50.355033], [16.315427, 50.35354], [16.306857, 50.355043], [16.306744, 50.355909], [16.306662, 50.356972], [16.306569, 50.357521], [16.306504, 50.358546], [16.309052, 50.364936], [16.309319, 50.365553], [16.314962, 50.370267], [16.315272, 50.370289], [16.316635, 50.371939], [16.316636, 50.372032], [16.314361, 50.374737], [16.310245, 50.376276], [16.309718, 50.376234], [16.308566, 50.376083], [16.306449, 50.375112], [16.299135, 50.374757], [16.298589, 50.374805], [16.297491, 50.374855], [16.295698, 50.374957], [16.291937, 50.371961], [16.291498, 50.371738], [16.290134, 50.370656], [16.289505, 50.370276], [16.286666, 50.369222], [16.279423, 50.372346], [16.278581, 50.373838], [16.275016, 50.374335], [16.271164, 50.373583], [16.26925, 50.373574], [16.266154, 50.374459], [16.262148, 50.381892], [16.262365, 50.38705], [16.260657, 50.387475], [16.260292, 50.387549], [16.259275, 50.387679], [16.258891, 50.387706], [16.253341, 50.388346], [16.249302, 50.391297], [16.248553, 50.391926], [16.247334, 50.392657], [16.246796, 50.392922], [16.245735, 50.393345], [16.244163, 50.393878], [16.241725, 50.402294], [16.24334, 50.403342], [16.245196, 50.404007], [16.24297, 50.406922], [16.236299, 50.407823], [16.235431, 50.408208], [16.234906, 50.408311], [16.234615, 50.408341], [16.234166, 50.408337], [16.232192, 50.408194], [16.231805, 50.408185], [16.227855, 50.408775], [16.22202, 50.415207], [16.222166, 50.415905], [16.221588, 50.42435], [16.229674, 50.426682], [16.231047, 50.426188], [16.231779, 50.42595], [16.233423, 50.425443], [16.235532, 50.427461], [16.242573, 50.427578], [16.245553, 50.42741], [16.24979, 50.426342], [16.251428, 50.425983], [16.251526, 50.426015], [16.25247, 50.428746], [16.251823, 50.432098], [16.251673, 50.432268], [16.250688, 50.432775], [16.24438, 50.437837], [16.243886, 50.44218], [16.2444, 50.444184], [16.24364, 50.444426], [16.242471, 50.444684], [16.242198, 50.444707], [16.2402, 50.444665], [16.232086, 50.445612], [16.226639, 50.444204], [16.225306, 50.444133], [16.221873, 50.442804], [16.220284, 50.441774], [16.219652, 50.44145], [16.218446, 50.44068], [16.211862, 50.439235], [16.208477, 50.445941], [16.211528, 50.44998], [16.210813, 50.453508], [16.210478, 50.45347], [16.210021, 50.453386], [16.205832, 50.453371], [16.203256, 50.453175], [16.19706, 50.457748], [16.198659, 50.466284], [16.199901, 50.466597], [16.199019, 50.470088], [16.196029, 50.477216], [16.196092, 50.480238], [16.194476, 50.480953], [16.19269, 50.481859], [16.186778, 50.488113], [16.184637, 50.490306], [16.184452, 50.490458], [16.184192, 50.490617], [16.181062, 50.488345], [16.180537, 50.487862], [16.174088, 50.484556], [16.171261, 50.483058], [16.164562, 50.482889], [16.164436, 50.482913], [16.163238, 50.483105], [16.162575, 50.483034], [16.156419, 50.482581], [16.156068, 50.482635], [16.152288, 50.484377], [16.151571, 50.484913], [16.150897, 50.485306], [16.150379, 50.485555], [16.149295, 50.48586], [16.148562, 50.485979], [16.145846, 50.48624], [16.143092, 50.486745], [16.140732, 50.487553], [16.139016, 50.488158], [16.135359, 50.49515], [16.138361, 50.497187], [16.139139, 50.497332], [16.139999, 50.497447], [16.14071, 50.49751], [16.140749, 50.497525], [16.141841, 50.498207], [16.143598, 50.499186], [16.150192, 50.499534], [16.150676, 50.499318], [16.151178, 50.49917], [16.151657, 50.499015], [16.154908, 50.498814], [16.156032, 50.498421], [16.15722, 50.50182], [16.155319, 50.502543], [16.154936, 50.502685], [16.153461, 50.50322], [16.152528, 50.503591], [16.151918, 50.503766], [16.151227, 50.503886], [16.150539, 50.504043], [16.148977, 50.504564], [16.148119, 50.5048], [16.145934, 50.505589], [16.143675, 50.506179], [16.140368, 50.508006], [16.139597, 50.508374], [16.140897, 50.516899], [16.144034, 50.516446], [16.14518, 50.518166], [16.144195, 50.521628], [16.143762, 50.521505], [16.143099, 50.521257], [16.142107, 50.520691], [16.141392, 50.520003], [16.135202, 50.515991], [16.127795, 50.516549], [16.127246, 50.516754], [16.123923, 50.516682], [16.122703, 50.516495], [16.122285, 50.516428], [16.121006, 50.516091], [16.119325, 50.515739], [16.119161, 50.515656], [16.118969, 50.515514], [16.118849, 50.515392], [16.11308, 50.50872], [16.111616, 50.509679], [16.111496, 50.50979], [16.108836, 50.507271], [16.103265, 50.505977], [16.09714, 50.507987], [16.097331, 50.515582], [16.099312, 50.518588], [16.098851, 50.518892], [16.09833, 50.519142], [16.092853, 50.526052], [16.092252, 50.528602], [16.092202, 50.528637], [16.091511, 50.528903], [16.090884, 50.529066], [16.085821, 50.529437], [16.085334, 50.529441], [16.084022, 50.527384], [16.076033, 50.528377], [16.074406, 50.531467], [16.074381, 50.531576], [16.073605, 50.531851], [16.073016, 50.531598], [16.072474, 50.531288], [16.067955, 50.527556], [16.062016, 50.527361], [16.059548, 50.52801], [16.057917, 50.5259], [16.050682, 50.530907], [16.051049, 50.532565], [16.050959, 50.532728], [16.050695, 50.533118], [16.049896, 50.533895], [16.049727, 50.533909], [16.049291, 50.533904], [16.048772, 50.533806], [16.040422, 50.532449], [16.040192, 50.532417], [16.03769, 50.531514], [16.0296, 50.534653], [16.029357, 50.535045], [16.02925, 50.535179], [16.028338, 50.53527], [16.027965, 50.535241], [16.027192, 50.5351], [16.026305, 50.533976], [16.026264, 50.53333], [16.026229, 50.531631], [16.017975, 50.529017], [16.01558, 50.532187], [16.014423, 50.532272], [16.010137, 50.533231], [16.003041, 50.537624], [16.002585, 50.538201], [16.001463, 50.539479], [16.00088, 50.539784], [16.000108, 50.540044], [15.999289, 50.540219], [15.998432, 50.540365], [15.997504, 50.540428], [15.9965, 50.540334], [15.995838, 50.540104], [15.994858, 50.539617], [15.994118, 50.53933], [15.992551, 50.538787], [15.984248, 50.540407], [15.984398, 50.546596], [15.984467, 50.546699], [15.979868, 50.550567], [15.978364, 50.551612], [15.978218, 50.551611], [15.970842, 50.550284], [15.969447, 50.550218], [15.968441, 50.550117], [15.96571, 50.549853], [15.96524, 50.549814], [15.964579, 50.549653], [15.963475, 50.548999], [15.962955, 50.54856], [15.962507, 50.548057], [15.961459, 50.546797], [15.953308, 50.548044], [15.952686, 50.550474], [15.951724, 50.55087], [15.950473, 50.551068], [15.949816, 50.551115], [15.949225, 50.551159], [15.948015, 50.551353], [15.94687, 50.5514], [15.944412, 50.550597], [15.944318, 50.549758], [15.94221, 50.541222], [15.940443, 50.540194], [15.940447, 50.540102], [15.940329, 50.538153], [15.935957, 50.531322], [15.934201, 50.531004], [15.933095, 50.530745], [15.93109, 50.530175], [15.929481, 50.529791], [15.927959, 50.529407], [15.926512, 50.529078], [15.924683, 50.528817], [15.922932, 50.528499], [15.918445, 50.529577], [15.916874, 50.53108], [15.914386, 50.53572], [15.921968, 50.540418], [15.923574, 50.540716], [15.924006, 50.540738], [15.924612, 50.540851], [15.925248, 50.541056], [15.92947, 50.542002], [15.930394, 50.542069], [15.931545, 50.543389], [15.930873, 50.546329], [15.930474, 50.547963], [15.932123, 50.554042], [15.936577, 50.558829], [15.938068, 50.562104], [15.944216, 50.568617], [15.944951, 50.568635], [15.945445, 50.568694], [15.950802, 50.571335], [15.95203, 50.571584], [15.952506, 50.571876], [15.954238, 50.573327], [15.954496, 50.575938], [15.954187, 50.576926], [15.948368, 50.582883], [15.946406, 50.583546], [15.944961, 50.584045], [15.941914, 50.581566], [15.93395, 50.579298], [15.931564, 50.578489], [15.930712, 50.577724], [15.927836, 50.575762], [15.926725, 50.574764], [15.918468, 50.571234], [15.917549, 50.572026], [15.915819, 50.573801], [15.915432, 50.574373], [15.914749, 50.574986], [15.914578, 50.575034], [15.914187, 50.575107], [15.906713, 50.576702], [15.902086, 50.582192], [15.895025, 50.586023], [15.893523, 50.586875], [15.892342, 50.587585], [15.886681, 50.587602], [15.883778, 50.594148], [15.884028, 50.5952], [15.88412, 50.596001], [15.884101, 50.604656], [15.887366, 50.609717], [15.891621, 50.61194], [15.890704, 50.615421], [15.883047, 50.613556], [15.880934, 50.610476], [15.880483, 50.609969], [15.871918, 50.610105], [15.871249, 50.611051], [15.87082, 50.610998], [15.869929, 50.610664], [15.869197, 50.610016], [15.868677, 50.608536], [15.860252, 50.607376], [15.859031, 50.607789], [15.857591, 50.608413], [15.850218, 50.607265], [15.847901, 50.607636], [15.842685, 50.609507], [15.842253, 50.609601], [15.842026, 50.609527], [15.841547, 50.609294], [15.840817, 50.60876], [15.840088, 50.607304], [15.840256, 50.605204], [15.840696, 50.605135], [15.84304, 50.605244], [15.847331, 50.604082], [15.849649, 50.60371], [15.854695, 50.600348], [15.85543, 50.600234], [15.856708, 50.600329], [15.860284, 50.599678], [15.861072, 50.599413], [15.866515, 50.594153], [15.86114, 50.588608], [15.859271, 50.588348], [15.85168, 50.587773], [15.850452, 50.588103], [15.850071, 50.588103], [15.844069, 50.585583], [15.841323, 50.583586], [15.839957, 50.582861], [15.834634, 50.580237], [15.830397, 50.582093], [15.829789, 50.582713], [15.82942, 50.582913], [15.829078, 50.583049], [15.827161, 50.583804], [15.823061, 50.58267], [15.822212, 50.579171], [15.816334, 50.575149], [15.815931, 50.574778], [15.813914, 50.572483], [15.813121, 50.568343], [15.806807, 50.562153], [15.806402, 50.562079], [15.80569, 50.561969], [15.804061, 50.558094], [15.804469, 50.554517], [15.807498, 50.554862], [15.809719, 50.554983], [15.810989, 50.555092], [15.813741, 50.555689], [15.816439, 50.556354], [15.817774, 50.556667], [15.821251, 50.556899], [15.824944, 50.554555], [15.824226, 50.547736], [15.821122, 50.545782], [15.821072, 50.545742], [15.816751, 50.538031], [15.81149, 50.535882], [15.80979, 50.534598], [15.809042, 50.534045], [15.806959, 50.532652], [15.799273, 50.529371], [15.792845, 50.528492], [15.792173, 50.52823], [15.791652, 50.527922], [15.787169, 50.526479], [15.786686, 50.526394], [15.778942, 50.529566], [15.778703, 50.530993], [15.778469, 50.531652], [15.778184, 50.532264], [15.777202, 50.533703], [15.775727, 50.535194], [15.774918, 50.536247], [15.774041, 50.537185], [15.772915, 50.539153], [15.771623, 50.540742], [15.775491, 50.548194], [15.777246, 50.548101], [15.77801, 50.548114], [15.778833, 50.548194], [15.779846, 50.548349], [15.780228, 50.54845], [15.77931, 50.551931], [15.777216, 50.551701], [15.775687, 50.551788], [15.775278, 50.551845], [15.773303, 50.552234], [15.772284, 50.552328], [15.768342, 50.553868], [15.767156, 50.554527], [15.765303, 50.555789], [15.767235, 50.563971], [15.766514, 50.567498], [15.765765, 50.567345], [15.765195, 50.567205], [15.764621, 50.567], [15.764124, 50.566754], [15.760226, 50.564513], [15.759819, 50.564264], [15.759194, 50.563572], [15.758205, 50.561855], [15.757684, 50.560695], [15.757634, 50.560095], [15.757762, 50.559307], [15.758326, 50.558339], [15.760495, 50.555522], [15.75504, 50.549626], [15.753894, 50.549619], [15.750174, 50.550756], [15.747545, 50.548817], [15.739784, 50.547915], [15.739513, 50.547767], [15.738285, 50.547101], [15.737749, 50.546799], [15.737089, 50.546066], [15.728806, 50.54354], [15.724238, 50.550876], [15.724763, 50.555507], [15.721733, 50.557453], [15.717678, 50.55336], [15.716401, 50.552249], [15.708964, 50.547759], [15.70818, 50.548487], [15.707936, 50.548606], [15.706886, 50.548044], [15.706801, 50.547995], [15.705666, 50.546438], [15.705139, 50.545373], [15.700427, 50.539453], [15.699668, 50.535934], [15.701364, 50.535568], [15.699665, 50.52691], [15.699274, 50.52688], [15.692265, 50.527702], [15.685344, 50.531821], [15.684816, 50.532118], [15.683956, 50.532475], [15.677103, 50.537286], [15.676151, 50.537898], [15.674467, 50.53863], [15.673482, 50.538931], [15.666414, 50.54294], [15.663687, 50.542773], [15.662205, 50.542244], [15.660815, 50.541704], [15.656181, 50.539985], [15.648998, 50.541734], [15.647502, 50.54312], [15.64721, 50.54326], [15.641124, 50.540711], [15.640069, 50.538267], [15.640077, 50.538249], [15.641621, 50.537145], [15.647706, 50.535223], [15.6483, 50.535223], [15.650102, 50.536671], [15.656771, 50.531959], [15.655123, 50.528758], [15.653439, 50.52624], [15.653395, 50.526176], [15.656817, 50.521393], [15.656726, 50.517794], [15.659714, 50.515573], [15.66356, 50.516885], [15.665035, 50.517175], [15.665722, 50.517411], [15.667122, 50.517904], [15.668034, 50.518202], [15.668625, 50.518534], [15.669179, 50.519156], [15.6704, 50.520233], [15.671495, 50.520953], [15.672433, 50.521628], [15.675842, 50.523295], [15.67665, 50.523629], [15.681789, 50.523617], [15.682698, 50.523256], [15.683334, 50.523192], [15.685063, 50.523323], [15.690328, 50.524048], [15.691368, 50.524034], [15.692509, 50.52411], [15.698804, 50.523311], [15.699374, 50.523289], [15.69991, 50.523319], [15.701861, 50.523481], [15.706794, 50.516168], [15.706551, 50.515309], [15.70605, 50.513205], [15.703123, 50.507024], [15.702534, 50.506478], [15.700403, 50.503285], [15.699715, 50.502303], [15.691902, 50.501875], [15.690453, 50.505058], [15.688056, 50.507248], [15.686917, 50.508909], [15.68566, 50.510087], [15.684635, 50.510212], [15.683857, 50.510095], [15.682332, 50.509722], [15.680782, 50.508984], [15.681343, 50.507025], [15.675167, 50.500749], [15.673309, 50.501193], [15.672275, 50.501472], [15.671238, 50.501817], [15.669042, 50.502331], [15.667489, 50.502629], [15.665858, 50.502884], [15.665448, 50.502936], [15.663481, 50.503279], [15.662314, 50.503517], [15.659198, 50.504073], [15.657626, 50.504614], [15.656963, 50.504878], [15.656389, 50.505015], [15.655143, 50.505302], [15.654435, 50.505529], [15.653521, 50.505842], [15.651631, 50.50674], [15.650292, 50.507455], [15.649952, 50.50756], [15.649387, 50.507697], [15.642219, 50.511089], [15.64252, 50.513604], [15.641288, 50.514487], [15.640746, 50.514572], [15.636856, 50.515703], [15.633625, 50.518089], [15.631898, 50.517363], [15.630969, 50.516508], [15.622791, 50.515177], [15.619819, 50.517151], [15.614184, 50.518666], [15.611025, 50.516938], [15.602457, 50.517535], [15.601327, 50.518754], [15.600335, 50.519321], [15.597864, 50.520182], [15.597115, 50.52047], [15.58935, 50.517093], [15.587829, 50.517594], [15.585827, 50.51869], [15.58491, 50.519215], [15.583957, 50.519619], [15.577747, 50.522121], [15.575445, 50.523143], [15.572761, 50.520743], [15.565791, 50.515795], [15.562889, 50.517925], [15.562856, 50.517966], [15.555823, 50.517195], [15.552873, 50.515132], [15.551013, 50.513852], [15.552785, 50.510719], [15.556398, 50.510684], [15.562708, 50.511133], [15.567641, 50.504075], [15.566984, 50.500535], [15.570446, 50.499893], [15.571331, 50.499717], [15.572288, 50.499642], [15.578503, 50.493415], [15.577687, 50.486965], [15.577274, 50.486005], [15.577207, 50.485431], [15.577205, 50.481037], [15.568658, 50.479966], [15.568017, 50.480549], [15.567115, 50.481154], [15.566473, 50.481466], [15.565898, 50.481698], [15.564715, 50.482314], [15.564208, 50.482536], [15.563866, 50.482644], [15.563336, 50.482757], [15.561698, 50.483049], [15.560219, 50.483514], [15.558785, 50.483998], [15.558219, 50.484113], [15.557556, 50.484191], [15.556777, 50.493128], [15.557269, 50.493377], [15.557692, 50.493627], [15.55817, 50.493947], [15.558629, 50.49431], [15.559174, 50.494828], [15.559508, 50.495216], [15.556606, 50.497346], [15.551764, 50.495673], [15.551365, 50.495679], [15.550846, 50.495708], [15.548064, 50.495892], [15.545257, 50.496078], [15.544303, 50.496107], [15.543312, 50.49609], [15.542236, 50.496008], [15.54132, 50.495887], [15.540347, 50.495705], [15.539498, 50.495498], [15.533836, 50.502008], [15.53295, 50.50384], [15.532276, 50.504297], [15.53177, 50.5045], [15.52514, 50.504085], [15.524454, 50.504101], [15.523115, 50.504059], [15.522763, 50.503988], [15.515759, 50.499478], [15.50987, 50.500517], [15.509584, 50.500476], [15.505382, 50.497969], [15.50455, 50.497293], [15.503984, 50.496649], [15.503434, 50.496055], [15.496718, 50.490624], [15.495872, 50.490398], [15.492034, 50.488166], [15.491493, 50.487985], [15.490904, 50.487593], [15.489749, 50.486873], [15.489319, 50.486614], [15.48815, 50.48599], [15.480015, 50.487341], [15.478816, 50.488808], [15.474863, 50.496231], [15.475583, 50.499045], [15.475056, 50.499212], [15.473392, 50.499517], [15.46617, 50.500795], [15.457408, 50.50263], [15.454127, 50.504027], [15.452944, 50.50462], [15.451331, 50.501402], [15.447435, 50.498422], [15.445579, 50.498285], [15.441224, 50.505453], [15.440572, 50.507071], [15.440173, 50.507378], [15.438706, 50.508026], [15.436447, 50.50767], [15.435536, 50.507415], [15.434853, 50.507105], [15.432628, 50.505959], [15.431512, 50.505409], [15.431106, 50.505179], [15.430256, 50.504693], [15.421911, 50.505576], [15.418533, 50.505703], [15.410644, 50.501372], [15.402533, 50.505079], [15.399052, 50.506475], [15.391265, 50.5105], [15.391132, 50.510907], [15.390782, 50.511553], [15.389853, 50.513503], [15.38866, 50.514573], [15.38837, 50.514827], [15.387833, 50.515227], [15.38611, 50.514008], [15.385911, 50.513735], [15.385738, 50.512988], [15.385683, 50.512339], [15.385537, 50.509468], [15.385727, 50.50652], [15.385699, 50.506081], [15.38445, 50.501842], [15.378026, 50.500471], [15.374954, 50.502348], [15.374091, 50.501206], [15.370896, 50.497534], [15.368371, 50.495628], [15.367873, 50.495255], [15.367345, 50.494684], [15.362559, 50.492196], [15.355544, 50.494664], [15.352665, 50.4967], [15.352019, 50.496982], [15.350558, 50.497491], [15.343831, 50.496713], [15.343623, 50.496221], [15.343493, 50.495221], [15.343822, 50.491549], [15.336921, 50.488599], [15.334204, 50.490961], [15.326176, 50.492442], [15.324418, 50.489301], [15.325756, 50.487977], [15.325845, 50.479544], [15.322642, 50.477699], [15.323089, 50.474127], [15.320357, 50.46669], [15.314325, 50.470118], [15.313843, 50.473686], [15.308784, 50.475729], [15.308533, 50.475498], [15.308075, 50.474834], [15.305435, 50.472213], [15.296743, 50.473177], [15.296299, 50.473475], [15.295843, 50.473674], [15.295233, 50.473857], [15.294566, 50.474036], [15.292782, 50.469426], [15.292802, 50.469321], [15.292802, 50.467392], [15.284619, 50.463707], [15.283635, 50.464228], [15.28289, 50.464497], [15.282436, 50.464558], [15.281833, 50.464596], [15.273528, 50.461749], [15.269906, 50.466764], [15.265717, 50.47305], [15.259773, 50.472406], [15.2592, 50.468852], [15.262808, 50.466523], [15.263384, 50.465972], [15.263972, 50.465629], [15.266856, 50.462558], [15.262026, 50.456194], [15.259391, 50.45611], [15.253175, 50.459119], [15.252806, 50.459402], [15.252377, 50.459629], [15.25014, 50.461148], [15.24987, 50.460804], [15.249538, 50.460258], [15.244506, 50.455785], [15.239787, 50.455516], [15.233538, 50.455738], [15.231414, 50.456191], [15.229873, 50.45648], [15.229208, 50.452942], [15.23075, 50.452653], [15.232786, 50.452217], [15.234862, 50.451745], [15.238243, 50.45091], [15.2409, 50.45142], [15.242126, 50.451605], [15.24525, 50.452263], [15.246038, 50.452395], [15.246867, 50.452516], [15.247663, 50.452607], [15.248438, 50.452676], [15.25616, 50.449011], [15.25961, 50.447982], [15.266666, 50.452474], [15.269568, 50.451274], [15.27043, 50.450738], [15.275125, 50.448314], [15.27552, 50.447964], [15.276083, 50.44759], [15.276371, 50.447478], [15.28155, 50.443201], [15.282851, 50.435411], [15.285585, 50.428092], [15.282715, 50.422297], [15.281714, 50.418839], [15.282437, 50.41863], [15.283215, 50.418526], [15.283772, 50.418521], [15.288764, 50.411268], [15.287366, 50.409639], [15.282631, 50.407363], [15.279093, 50.40651], [15.276304, 50.406664], [15.275913, 50.406522], [15.275477, 50.406285], [15.275211, 50.406099], [15.275452, 50.403774], [15.275524, 50.403699], [15.277279, 50.403152], [15.278599, 50.402725], [15.279146, 50.402814], [15.279542, 50.402938], [15.283465, 50.403861], [15.287195, 50.40475], [15.28779, 50.404979], [15.29648, 50.404295], [15.299787, 50.402873], [15.299921, 50.39513], [15.297958, 50.39403], [15.299718, 50.39089], [15.301681, 50.39199], [15.303644, 50.39309], [15.309698, 50.387365], [15.307334, 50.383274], [15.305293, 50.380308], [15.307529, 50.378769], [15.307222, 50.369974], [15.302216, 50.3681], [15.30128, 50.364623], [15.300082, 50.355978], [15.297685, 50.355358], [15.296425, 50.354898], [15.295, 50.354136], [15.292845, 50.352699], [15.291662, 50.35191], [15.29366, 50.348915], [15.294843, 50.349704], [15.296997, 50.351141], [15.29887, 50.351959], [15.300974, 50.35249], [15.303225, 50.353066], [15.311187, 50.350484], [15.314736, 50.351089], [15.315782, 50.342697], [15.313928, 50.340905], [15.313953, 50.339777], [15.313858, 50.337893], [15.313937, 50.336735], [15.307876, 50.331428], [15.305892, 50.332026], [15.305219, 50.332203], [15.304738, 50.332289], [15.30419, 50.332341], [15.303317, 50.332348], [15.299994, 50.332203], [15.296678, 50.332058], [15.295437, 50.332008], [15.292231, 50.331898], [15.291818, 50.331816], [15.291369, 50.331668], [15.290818, 50.331377], [15.290327, 50.331007], [15.28783, 50.328763], [15.280572, 50.327729], [15.276147, 50.329834], [15.273501, 50.335995], [15.273499, 50.336088], [15.273169, 50.336999], [15.271374, 50.337689], [15.265271, 50.335241], [15.26321, 50.332289], [15.257471, 50.327021], [15.253729, 50.324248], [15.250959, 50.322343], [15.242528, 50.319542], [15.239482, 50.319017], [15.236319, 50.318468], [15.229031, 50.3192], [15.225147, 50.316772], [15.218598, 50.311623], [15.216292, 50.312869], [15.216095, 50.312965], [15.214514, 50.309731], [15.210039, 50.303954], [15.209582, 50.303474], [15.209039, 50.302695], [15.200963, 50.2994], [15.199319, 50.299684], [15.198412, 50.299958], [15.19708, 50.30039], [15.196821, 50.300444], [15.196408, 50.300495], [15.195907, 50.300506], [15.192728, 50.300784], [15.190096, 50.301262], [15.189657, 50.301361], [15.187245, 50.301828], [15.186886, 50.301882], [15.186176, 50.301961], [15.182579, 50.302091], [15.17547, 50.304304], [15.172501, 50.307572], [15.170942, 50.308278], [15.169005, 50.308431], [15.164883, 50.307512], [15.163802, 50.306185], [15.162554, 50.304428], [15.158767, 50.300155], [15.156068, 50.292796], [15.153219, 50.292557], [15.151043, 50.292352], [15.148899, 50.29215], [15.147359, 50.29202], [15.145014, 50.292133], [15.14484, 50.288537], [15.147186, 50.288424], [15.149171, 50.28856], [15.15138, 50.288768], [15.153556, 50.288973], [15.1571, 50.280923], [15.157021, 50.280313], [15.157561, 50.278898], [15.161644, 50.271577], [15.162566, 50.270069], [15.163536, 50.269621], [15.164481, 50.269431], [15.165082, 50.269341], [15.16591, 50.269166], [15.167056, 50.268993], [15.168056, 50.268958], [15.170271, 50.270115], [15.174572, 50.272668], [15.178428, 50.272896], [15.179501, 50.264969], [15.173031, 50.261101], [15.171361, 50.260357], [15.170971, 50.260135], [15.170528, 50.259771], [15.164112, 50.257635], [15.163628, 50.25778], [15.163164, 50.257885], [15.160285, 50.258284], [15.158135, 50.258564], [15.155935, 50.25885], [15.151484, 50.260602], [15.15063, 50.260934], [15.150024, 50.26121], [15.144765, 50.265413], [15.141531, 50.271746], [15.13949, 50.278735], [15.139442, 50.279476], [15.13918, 50.280145], [15.138569, 50.280816], [15.138087, 50.281102], [15.137481, 50.281333], [15.132949, 50.2848], [15.129525, 50.28369], [15.122127, 50.280786], [15.120148, 50.281472], [15.119068, 50.281793], [15.118567, 50.281874], [15.118143, 50.281874], [15.117965, 50.281854], [15.118339, 50.278282], [15.118396, 50.278257], [15.11909, 50.278032], [15.120947, 50.277386], [15.122865, 50.27672], [15.121483, 50.268258], [15.118547, 50.267353], [15.116588, 50.267503], [15.114212, 50.26775], [15.111872, 50.265936], [15.111908, 50.265703], [15.109737, 50.259262], [15.106521, 50.256809], [15.103684, 50.254584], [15.095833, 50.258967], [15.095726, 50.259589], [15.097006, 50.264525], [15.099132, 50.266295], [15.09967, 50.266696], [15.099162, 50.269952], [15.097977, 50.270276], [15.094703, 50.267292], [15.093839, 50.266481], [15.090569, 50.263957], [15.091333, 50.260439], [15.084456, 50.25486], [15.08317, 50.255305], [15.082728, 50.255429], [15.081669, 50.255641], [15.077946, 50.256724], [15.076273, 50.257313], [15.075076, 50.253918], [15.0755, 50.245015], [15.071798, 50.245276], [15.070351, 50.245733], [15.068715, 50.243789], [15.069727, 50.242188], [15.069819, 50.242071], [15.070561, 50.241825], [15.071376, 50.241701], [15.078031, 50.237848], [15.078904, 50.237893], [15.080764, 50.238031], [15.085168, 50.231393], [15.084952, 50.230484], [15.084674, 50.229784], [15.07903, 50.226104], [15.076144, 50.225619], [15.07548, 50.225457], [15.074625, 50.225065], [15.07402, 50.2245], [15.076686, 50.222065], [15.07693, 50.222106], [15.082344, 50.215051], [15.08145, 50.212836], [15.08135, 50.212524], [15.08127, 50.212063], [15.081417, 50.211107], [15.074416, 50.20628], [15.071986, 50.208937], [15.071912, 50.208869], [15.06532, 50.207151], [15.061956, 50.207579], [15.061499, 50.21649], [15.063189, 50.223952], [15.061543, 50.227154], [15.059836, 50.226277], [15.052674, 50.229663], [15.052664, 50.23248], [15.052599, 50.234052], [15.053731, 50.238367], [15.053912, 50.23884], [15.054016, 50.239227], [15.054174, 50.239973], [15.055263, 50.243534], [15.0562, 50.245634], [15.056516, 50.246415], [15.056608, 50.246968], [15.056695, 50.248352], [15.056624, 50.250076], [15.058343, 50.256114], [15.059747, 50.260133], [15.059925, 50.262492], [15.059494, 50.264568], [15.058232, 50.265669], [15.05821, 50.265658], [15.055915, 50.264073], [15.053566, 50.262217], [15.05351, 50.262176], [15.053216, 50.258545], [15.052966, 50.257808], [15.052613, 50.256018], [15.051922, 50.254378], [15.051761, 50.253732], [15.051783, 50.252859], [15.052114, 50.245736], [15.051882, 50.245107], [15.050958, 50.242707], [15.050779, 50.2422], [15.049397, 50.237736], [15.049071, 50.23707], [15.048927, 50.236697], [15.048791, 50.235901], [15.048797, 50.235312], [15.048992, 50.233961], [15.049017, 50.233692], [15.049067, 50.232339], [15.043165, 50.226113], [15.040153, 50.228085], [15.039936, 50.2279], [15.037774, 50.226621], [15.037388, 50.226313], [15.037153, 50.22613], [15.036059, 50.224888], [15.027722, 50.22758], [15.026831, 50.229652], [15.02723, 50.235803], [15.034025, 50.23896], [15.034733, 50.241721], [15.034793, 50.242263], [15.034368, 50.243486], [15.029851, 50.244524], [15.025511, 50.248334], [15.029602, 50.255009], [15.03042, 50.255301], [15.0314, 50.255769], [15.033491, 50.25649], [15.036121, 50.257254], [15.041377, 50.256323], [15.042467, 50.258067], [15.042577, 50.258243], [15.043353, 50.259563], [15.041252, 50.261847], [15.040499, 50.261861], [15.04, 50.261841], [15.039242, 50.261763], [15.037163, 50.26142], [15.036483, 50.261234], [15.034847, 50.260621], [15.032495, 50.25995], [15.025075, 50.26262], [15.022098, 50.26521], [15.017317, 50.270269], [15.013882, 50.269192], [15.014059, 50.268629], [15.014268, 50.26815], [15.015423, 50.266471], [15.015696, 50.266128], [15.016685, 50.265151], [15.019735, 50.262494], [15.022913, 50.256929], [15.01543, 50.2521], [15.012077, 50.25405], [15.003305, 50.255515], [15.003012, 50.256044], [15.001519, 50.261813], [14.998284, 50.263394], [14.99255, 50.262047], [14.991593, 50.261691], [14.984864, 50.261024], [14.978686, 50.26368], [14.976287, 50.266574], [14.974268, 50.26699], [14.972859, 50.263678], [14.974699, 50.257223], [14.975423, 50.253696], [14.978939, 50.254418], [14.979854, 50.254421], [14.981465, 50.254241], [14.98276, 50.254222], [14.989595, 50.252109], [14.992972, 50.25062], [14.99694, 50.248871], [15.000909, 50.247122], [14.996805, 50.239787], [14.993355, 50.239332], [14.99131, 50.239066], [14.989265, 50.238799], [14.985762, 50.238344], [14.982259, 50.237888], [14.978755, 50.237433], [14.975252, 50.236978], [14.971748, 50.236522], [14.968297, 50.236073], [14.966579, 50.236249], [14.96568, 50.236384], [14.957996, 50.233336], [14.957601, 50.233097], [14.95759, 50.230578], [14.957736, 50.230449], [14.960179, 50.229201], [14.963785, 50.226655], [14.964411, 50.226283], [14.967828, 50.225166], [14.968534, 50.224721], [14.97093, 50.223516], [14.971359, 50.215823], [14.97067, 50.212289], [14.972797, 50.211875], [14.974924, 50.211461], [14.976521, 50.210967], [14.978183, 50.213061], [14.98666, 50.214172], [14.987336, 50.213652], [14.988159, 50.212861], [14.988748, 50.212136], [14.989201, 50.211717], [14.989927, 50.211323], [14.994721, 50.207698], [14.991317, 50.200006], [14.987233, 50.199632], [14.983309, 50.199265], [14.983059, 50.19928], [14.980074, 50.199846], [14.97709, 50.200412], [14.976419, 50.196875], [14.979267, 50.189223], [14.974672, 50.183917], [14.973388, 50.180553], [14.974721, 50.180045], [14.97507, 50.179941], [14.977146, 50.179616], [14.979739, 50.179151], [14.980498, 50.178976], [14.984702, 50.175716], [14.98195, 50.169509], [14.981146, 50.169249], [14.979996, 50.168745], [14.979502, 50.168463], [14.978742, 50.167992], [14.978309, 50.167672], [14.977611, 50.167103], [14.977118, 50.166629], [14.97684, 50.166323], [14.974284, 50.164291], [14.973608, 50.163958], [14.975201, 50.160729], [14.976823, 50.153617], [14.971296, 50.150903], [14.966773, 50.152832], [14.965024, 50.154807], [14.962886, 50.15495], [14.956354, 50.152581], [14.953605, 50.15496], [14.951981, 50.156342], [14.950597, 50.15778], [14.947314, 50.165789], [14.947444, 50.166587], [14.947396, 50.167388], [14.946632, 50.169009], [14.946466, 50.169034], [14.946015, 50.169051], [14.944787, 50.169099], [14.941442, 50.169483], [14.940669, 50.169552], [14.939893, 50.169462], [14.937273, 50.169016], [14.935385, 50.167932], [14.934414, 50.167408], [14.932302, 50.165987], [14.930612, 50.165093], [14.927957, 50.163553], [14.9215, 50.167353], [14.921056, 50.167342], [14.920303, 50.16724], [14.919129, 50.166873], [14.918583, 50.166739], [14.917375, 50.166513], [14.91689, 50.166452], [14.916097, 50.166396], [14.91511, 50.166371], [14.913235, 50.166018], [14.912105, 50.165147], [14.909781, 50.163739], [14.903203, 50.161735], [14.901973, 50.161029], [14.898314, 50.160199], [14.895534, 50.159508], [14.889659, 50.16628], [14.887882, 50.173831], [14.892463, 50.177172], [14.895098, 50.177278], [14.896063, 50.177098], [14.896516, 50.177314], [14.902079, 50.180099], [14.90442, 50.180508], [14.906761, 50.180916], [14.908093, 50.181242], [14.910141, 50.181507], [14.911635, 50.181649], [14.9136, 50.181588], [14.913712, 50.185187], [14.911717, 50.185425], [14.909572, 50.185061], [14.906142, 50.184463], [14.903801, 50.184054], [14.896683, 50.185074], [14.894382, 50.187312], [14.890426, 50.1881], [14.88781, 50.188317], [14.884965, 50.188538], [14.882868, 50.188777], [14.881713, 50.188952], [14.87957, 50.187572], [14.878021, 50.186897], [14.877799, 50.186814], [14.873129, 50.185654], [14.869674, 50.186085], [14.866384, 50.186487], [14.861477, 50.192963], [14.866431, 50.196695], [14.866799, 50.200276], [14.863024, 50.201591], [14.856611, 50.202441], [14.852281, 50.203706], [14.850885, 50.204118], [14.844104, 50.207567], [14.843615, 50.207641], [14.843321, 50.207669], [14.841768, 50.207305], [14.836223, 50.202711], [14.836942, 50.199184], [14.832826, 50.194089], [14.832118, 50.193825], [14.829903, 50.192864], [14.831335, 50.189562], [14.833389, 50.185458], [14.833785, 50.18188], [14.830372, 50.175327], [14.823904, 50.176311], [14.822217, 50.175882], [14.821364, 50.175761], [14.82049, 50.175689], [14.81968, 50.175681], [14.819081, 50.175706], [14.814506, 50.174874], [14.814465, 50.171274], [14.816006, 50.171257], [14.816721, 50.171146], [14.820932, 50.169528], [14.819714, 50.160777], [14.815768, 50.160048], [14.812684, 50.161145], [14.811379, 50.161187], [14.810007, 50.161046], [14.809219, 50.161003], [14.807655, 50.161068], [14.806003, 50.161394], [14.804217, 50.161999], [14.803781, 50.1621], [14.803205, 50.162142], [14.796256, 50.167781], [14.796062, 50.168717], [14.795641, 50.169402], [14.795003, 50.169919], [14.78747, 50.172341], [14.787084, 50.172488], [14.785321, 50.172942], [14.783441, 50.173422], [14.775399, 50.171115], [14.771787, 50.171557], [14.764086, 50.173251], [14.763982, 50.173222], [14.757106, 50.168427], [14.756305, 50.167989], [14.753009, 50.164813], [14.747825, 50.164381], [14.746194, 50.165042], [14.746099, 50.165057], [14.744754, 50.163347], [14.736184, 50.161726], [14.734145, 50.160341], [14.734681, 50.158455], [14.735775, 50.154458], [14.73511, 50.148099], [14.733335, 50.14545], [14.734686, 50.144486], [14.737947, 50.143022], [14.736726, 50.134637], [14.734302, 50.134494], [14.725445, 50.13552], [14.72262, 50.133577], [14.715103, 50.130575], [14.709739, 50.130192], [14.706219, 50.13371], [14.707246, 50.141683], [14.712676, 50.142572], [14.713273, 50.142441], [14.713696, 50.142447], [14.714508, 50.142551], [14.714732, 50.142564], [14.714504, 50.145542], [14.714513, 50.146158], [14.714081, 50.147978], [14.71395, 50.148447], [14.713724, 50.148919], [14.711634, 50.156916], [14.708213, 50.158035], [14.707995, 50.15737], [14.707779, 50.155953], [14.707589, 50.153978], [14.707675, 50.152724], [14.703027, 50.145787], [14.702669, 50.145622], [14.702303, 50.145408], [14.701566, 50.144846], [14.693014, 50.146095], [14.69136, 50.14792], [14.690119, 50.15004], [14.689621, 50.151492], [14.689411, 50.152027], [14.689199, 50.152466], [14.688787, 50.153191], [14.688292, 50.153963], [14.686831, 50.160438], [14.686577, 50.161295], [14.686386, 50.161557], [14.682536, 50.163903], [14.681138, 50.16483], [14.680716, 50.164852], [14.680134, 50.164833], [14.679929, 50.164659], [14.679584, 50.164273], [14.679329, 50.163829], [14.671068, 50.160965], [14.669105, 50.161701], [14.667841, 50.158329], [14.669805, 50.157594], [14.670603, 50.157324], [14.671708, 50.157009], [14.672583, 50.156804], [14.67558, 50.156135], [14.676697, 50.155824], [14.678436, 50.155281], [14.680341, 50.154631], [14.681517, 50.154201], [14.682639, 50.153766], [14.686651, 50.149072], [14.686891, 50.148409], [14.683008, 50.140468], [14.682462, 50.140193], [14.682009, 50.13994], [14.680254, 50.138921], [14.678567, 50.137939], [14.675158, 50.137044], [14.674446, 50.136907], [14.673863, 50.136748], [14.672747, 50.136376], [14.672127, 50.13619], [14.671562, 50.136037], [14.670961, 50.135905], [14.670375, 50.135808], [14.6695, 50.135696], [14.668503, 50.135619], [14.667096, 50.135546], [14.665281, 50.135467], [14.659215, 50.136982], [14.659093, 50.136971], [14.657587, 50.134927], [14.656193, 50.131835], [14.65583, 50.130014], [14.6559, 50.129787], [14.655901, 50.129786], [14.655971, 50.129559], [14.654364, 50.121641], [14.65176, 50.121259], [14.648238, 50.120743], [14.645767, 50.120384], [14.642484, 50.120259], [14.635019, 50.119999], [14.633229, 50.119937], [14.633352, 50.116339], [14.628875, 50.108676], [14.626811, 50.108211], [14.623925, 50.107488], [14.621944, 50.106916], [14.619675, 50.106174], [14.618273, 50.10567], [14.616114, 50.104816], [14.613928, 50.103887], [14.611786, 50.102976], [14.610728, 50.102559], [14.609676, 50.102174], [14.609048, 50.101958], [14.60759, 50.101533], [14.606906, 50.101356], [14.605858, 50.101124], [14.604898, 50.100952], [14.604095, 50.100832], [14.603338, 50.100738], [14.601614, 50.100617], [14.600752, 50.100592], [14.599936, 50.100586], [14.593434, 50.102854], [14.59102, 50.106038], [14.590627, 50.107008], [14.590441, 50.107542], [14.590279, 50.108086], [14.590071, 50.108945], [14.589962, 50.109514], [14.589883, 50.110062], [14.589792, 50.111501], [14.58987, 50.113031], [14.587271, 50.113523], [14.58629, 50.113412], [14.586244, 50.112984]]], "type": "Polygon"}}], "metadata": {"attribution": "openrouteservice.org | OpenStreetMap contributors", "service": "isochrones", "timestamp": 1785652335817, "query": {"profile": "driving-car", "profileName": "driving-car", "locations": [[15.8327, 50.2093]], "range": [3600.0], "range_type": "time"}, "engine": {"version": "9.9.0", "build_date": "2026-06-12T10:08:58Z", "graph_date": "2026-07-26T12:04:00Z", "osm_date": "2026-07-20T00:00:00Z"}}}