{"type": "FeatureCollection", "bbox": [16.513411, 49.148309, 16.723202, 49.3039], "features": [{"type": "Feature", "properties": {"group_index": 0, "value": 900.0, "center": [16.610610483276755, 49.202601110891734]}, "geometry": {"coordinates": [[[16.55055, 49.297995], [16.549343, 49.294604], [16.549834, 49.294429], [16.553855, 49.292432], [16.555748, 49.291304], [16.556964, 49.290432], [16.560995, 49.283846], [16.562466, 49.28056], [16.56306, 49.279719], [16.564402, 49.278278], [16.568798, 49.276611], [16.568949, 49.270283], [16.56807, 49.268759], [16.565804, 49.262125], [16.567757, 49.258889], [16.568752, 49.256038], [16.568912, 49.255862], [16.573064, 49.253103], [16.571645, 49.244702], [16.565554, 49.242877], [16.562944, 49.243734], [16.562888, 49.24371], [16.563929, 49.238685], [16.56181, 49.231642], [16.555454, 49.226937], [16.553497, 49.225931], [16.549501, 49.224401], [16.549018, 49.224116], [16.545131, 49.221117], [16.538272, 49.224476], [16.534379, 49.223364], [16.534507, 49.222465], [16.535132, 49.220109], [16.535495, 49.219552], [16.535938, 49.219062], [16.536403, 49.218664], [16.537154, 49.218181], [16.537883, 49.217804], [16.538564, 49.21749], [16.539346, 49.217192], [16.540234, 49.216947], [16.541101, 49.216769], [16.541979, 49.216649], [16.542862, 49.216588], [16.547938, 49.209171], [16.544826, 49.20362], [16.541956, 49.202384], [16.534822, 49.199602], [16.532105, 49.19823], [16.53049, 49.197087], [16.530487, 49.197079], [16.531315, 49.193857], [16.533267, 49.189094], [16.534063, 49.188409], [16.534923, 49.188209], [16.540616, 49.183803], [16.540979, 49.183769], [16.54136, 49.183711], [16.541474, 49.183698], [16.546743, 49.180453], [16.547739, 49.177986], [16.544369, 49.169701], [16.543989, 49.16972], [16.543673, 49.169751], [16.542964, 49.169864], [16.54162, 49.170132], [16.541008, 49.170216], [16.537674, 49.170822], [16.535271, 49.171192], [16.532423, 49.17155], [16.529575, 49.171908], [16.526727, 49.172266], [16.523666, 49.172649], [16.522116, 49.172849], [16.521302, 49.172978], [16.520585, 49.173105], [16.519252, 49.173405], [16.518197, 49.173701], [16.517169, 49.174034], [16.516193, 49.174374], [16.514712, 49.174948], [16.513411, 49.171592], [16.514891, 49.171018], [16.515979, 49.170636], [16.517088, 49.170276], [16.518276, 49.16994], [16.519788, 49.169594], [16.520664, 49.169435], [16.521551, 49.169294], [16.523204, 49.169079], [16.526278, 49.168694], [16.529126, 49.168336], [16.531974, 49.167978], [16.534822, 49.167621], [16.540831, 49.165282], [16.54151, 49.165025], [16.541918, 49.164939], [16.542427, 49.164889], [16.542933, 49.164896], [16.547533, 49.164806], [16.549646, 49.16705], [16.552178, 49.167933], [16.554703, 49.168813], [16.558556, 49.161304], [16.560617, 49.160606], [16.561931, 49.16021], [16.563346, 49.159839], [16.564838, 49.159524], [16.565688, 49.159376], [16.567173, 49.159158], [16.567957, 49.159072], [16.569098, 49.158979], [16.569874, 49.158933], [16.57064, 49.158905], [16.571583, 49.158892], [16.572388, 49.158898], [16.573176, 49.158923], [16.573849, 49.158955], [16.575287, 49.159067], [16.577163, 49.159274], [16.578979, 49.159475], [16.580677, 49.159626], [16.581532, 49.159677], [16.583497, 49.159728], [16.584845, 49.159696], [16.586049, 49.159631], [16.586596, 49.159595], [16.587926, 49.159472], [16.591313, 49.159085], [16.597706, 49.153947], [16.599582, 49.148309], [16.603131, 49.148917], [16.602471, 49.152765], [16.608488, 49.157152], [16.60972, 49.157107], [16.614813, 49.160344], [16.620075, 49.155407], [16.621919, 49.15409], [16.628066, 49.152247], [16.631663, 49.152375], [16.636525, 49.159742], [16.63836, 49.16188], [16.638142, 49.162958], [16.645758, 49.167473], [16.647316, 49.167596], [16.650836, 49.16835], [16.65052, 49.169823], [16.650314, 49.170371], [16.655374, 49.177752], [16.657852, 49.176031], [16.660276, 49.174349], [16.66278, 49.172474], [16.664334, 49.170765], [16.665636, 49.168442], [16.666835, 49.166183], [16.670015, 49.167871], [16.671344, 49.17326], [16.677732, 49.174212], [16.680181, 49.173004], [16.681728, 49.173731], [16.68878, 49.175313], [16.693042, 49.174908], [16.698946, 49.180588], [16.70585, 49.181834], [16.707623, 49.181625], [16.714648, 49.182394], [16.718462, 49.181618], [16.723202, 49.183125], [16.722478, 49.186651], [16.722415, 49.186638], [16.719498, 49.185921], [16.718424, 49.185564], [16.718038, 49.185429], [16.717473, 49.185168], [16.716768, 49.184794], [16.708107, 49.185193], [16.70627, 49.185409], [16.699578, 49.190299], [16.698812, 49.193804], [16.698808, 49.194252], [16.695431, 49.199525], [16.696241, 49.205695], [16.696367, 49.206246], [16.696444, 49.206545], [16.689742, 49.210919], [16.688108, 49.211872], [16.688014, 49.211865], [16.685638, 49.210783], [16.677369, 49.214117], [16.677118, 49.214368], [16.675197, 49.214779], [16.675117, 49.214744], [16.671696, 49.211956], [16.668379, 49.210558], [16.663272, 49.210898], [16.659157, 49.216548], [16.659002, 49.220626], [16.659002, 49.220633], [16.658874, 49.222817], [16.659068, 49.224398], [16.660033, 49.227867], [16.659409, 49.229171], [16.658484, 49.229571], [16.65818, 49.229685], [16.657093, 49.229979], [16.656192, 49.230149], [16.649045, 49.233082], [16.643588, 49.234534], [16.642516, 49.242261], [16.641971, 49.242589], [16.641497, 49.242867], [16.640666, 49.243202], [16.635838, 49.246127], [16.634552, 49.247138], [16.630188, 49.254862], [16.627471, 49.26213], [16.624061, 49.263284], [16.618696, 49.260929], [16.617416, 49.258829], [16.617492, 49.25662], [16.617518, 49.256452], [16.61548, 49.250762], [16.60903, 49.250168], [16.606933, 49.249459], [16.606135, 49.245949], [16.605779, 49.240137], [16.598315, 49.241225], [16.597107, 49.241548], [16.596136, 49.241734], [16.592901, 49.243952], [16.596432, 49.251876], [16.598057, 49.253649], [16.599425, 49.259978], [16.600586, 49.261618], [16.600623, 49.262003], [16.599444, 49.266417], [16.599308, 49.266905], [16.599017, 49.267519], [16.597761, 49.269082], [16.596478, 49.270871], [16.596228, 49.270949], [16.595952, 49.270948], [16.594193, 49.269558], [16.59417, 49.269387], [16.593946, 49.266096], [16.585263, 49.267588], [16.581715, 49.268198], [16.576629, 49.27314], [16.576415, 49.273554], [16.5758, 49.274579], [16.575263, 49.275328], [16.573593, 49.277488], [16.573353, 49.285157], [16.574576, 49.286854], [16.574849, 49.287169], [16.574161, 49.289532], [16.574025, 49.289592], [16.573611, 49.289717], [16.573356, 49.289782], [16.565017, 49.292328], [16.559369, 49.298941], [16.55873, 49.300482], [16.557847, 49.302738], [16.557597, 49.303436], [16.557536, 49.303557], [16.556193, 49.3039], [16.55417, 49.30228], [16.55055, 49.297995]]], "type": "Polygon"}}], "metadata": {"attribution": "openrouteservice.org | OpenStreetMap contributors", "service": "isochrones", "timestamp": 1785691393934, "query": {"profile": "driving-car", "profileName": "driving-car", "locations": [[16.6106008, 49.2026006]], "range": [900.0], "range_type": "time"}, "engine": {"version": "9.9.0", "build_date": "2026-06-12T10:08:58Z", "graph_date": "2026-07-26T12:04:00Z", "osm_date": "2026-07-20T00:00:00Z"}}}