{"type": "FeatureCollection", "bbox": [16.581419, 48.846984, 18.196474, 49.746147], "features": [{"type": "Feature", "properties": {"group_index": 0, "value": 3600.0, "center": [17.669585275719008, 49.22377069275401]}, "geometry": {"coordinates": [[[17.022454, 49.708059], [17.023706, 49.707464], [17.026058, 49.706289], [17.028091, 49.705198], [17.029619, 49.704337], [17.031772, 49.703043], [17.036011, 49.695214], [17.036317, 49.692847], [17.039222, 49.688591], [17.046904, 49.686222], [17.048196, 49.682862], [17.049006, 49.683173], [17.05772, 49.681806], [17.058032, 49.681626], [17.059944, 49.680722], [17.061422, 49.679982], [17.063253, 49.679147], [17.065024, 49.678406], [17.066955, 49.677668], [17.069884, 49.67663], [17.072771, 49.675609], [17.075243, 49.674709], [17.076915, 49.674081], [17.079453, 49.673072], [17.080701, 49.672554], [17.082994, 49.671547], [17.08431, 49.670936], [17.086253, 49.669996], [17.087531, 49.669354], [17.089342, 49.668402], [17.091733, 49.667078], [17.094789, 49.665323], [17.096347, 49.65697], [17.090198, 49.655175], [17.084177, 49.650856], [17.083569, 49.650588], [17.082091, 49.650071], [17.082026, 49.646471], [17.086829, 49.642051], [17.090262, 49.640966], [17.090513, 49.641761], [17.090751, 49.642831], [17.090882, 49.643946], [17.09366, 49.6503], [17.096128, 49.65223], [17.098564, 49.654134], [17.100999, 49.656038], [17.109557, 49.656682], [17.111266, 49.655829], [17.112947, 49.654727], [17.114038, 49.654232], [17.116338, 49.652772], [17.117664, 49.645087], [17.120515, 49.642889], [17.123852, 49.641702], [17.132318, 49.643248], [17.13388, 49.642018], [17.13439, 49.641569], [17.135346, 49.64068], [17.135972, 49.640153], [17.136938, 49.639193], [17.138314, 49.638402], [17.14062, 49.637091], [17.144291, 49.631706], [17.143592, 49.626981], [17.144985, 49.626554], [17.147538, 49.618324], [17.142613, 49.617088], [17.140533, 49.614647], [17.139405, 49.611229], [17.14166, 49.608934], [17.14524, 49.608554], [17.149206, 49.614512], [17.152289, 49.616294], [17.154049, 49.617695], [17.160907, 49.619012], [17.162758, 49.620468], [17.164609, 49.621925], [17.170713, 49.622656], [17.173328, 49.621263], [17.175943, 49.61987], [17.176992, 49.619496], [17.178558, 49.618477], [17.179911, 49.611603], [17.174405, 49.608463], [17.171493, 49.608436], [17.170498, 49.608408], [17.16918, 49.608401], [17.168763, 49.608363], [17.165348, 49.607857], [17.165875, 49.604296], [17.169291, 49.604802], [17.169476, 49.604813], [17.170501, 49.604808], [17.171591, 49.604837], [17.174438, 49.604863], [17.175907, 49.604809], [17.17807, 49.604592], [17.179202, 49.604409], [17.179987, 49.604259], [17.182115, 49.603794], [17.183702, 49.603481], [17.191126, 49.605456], [17.194561, 49.600233], [17.194738, 49.599629], [17.190269, 49.591821], [17.186743, 49.591431], [17.186256, 49.591356], [17.184841, 49.59108], [17.182764, 49.590658], [17.182453, 49.590568], [17.17928, 49.589637], [17.177052, 49.589444], [17.176541, 49.589381], [17.172498, 49.588709], [17.16944, 49.58844], [17.168677, 49.588396], [17.162531, 49.590227], [17.159984, 49.590266], [17.159369, 49.590276], [17.158663, 49.590291], [17.155471, 49.589846], [17.151872, 49.589937], [17.148383, 49.590484], [17.145656, 49.590792], [17.143922, 49.591178], [17.143139, 49.587664], [17.144873, 49.587278], [17.147816, 49.586555], [17.148244, 49.586452], [17.148626, 49.586376], [17.153805, 49.584073], [17.153973, 49.584071], [17.154799, 49.584007], [17.158123, 49.582826], [17.159045, 49.582671], [17.164506, 49.584817], [17.169931, 49.581371], [17.169362, 49.574752], [17.166585, 49.567997], [17.164034, 49.567083], [17.161106, 49.566041], [17.154576, 49.56767], [17.152742, 49.568989], [17.150909, 49.570309], [17.14563, 49.571543], [17.143042, 49.56904], [17.135529, 49.566833], [17.133154, 49.569434], [17.130779, 49.572034], [17.128228, 49.574826], [17.127717, 49.575386], [17.126921, 49.575294], [17.126418, 49.575096], [17.125059, 49.572958], [17.125571, 49.572398], [17.12812, 49.569606], [17.130495, 49.567006], [17.126794, 49.559216], [17.123484, 49.55954], [17.121628, 49.559642], [17.119716, 49.559747], [17.11625, 49.559831], [17.114955, 49.559856], [17.114445, 49.559883], [17.11425, 49.556289], [17.112779, 49.548586], [17.11475, 49.546584], [17.118789, 49.54533], [17.12475, 49.544593], [17.12664, 49.543963], [17.127337, 49.543756], [17.130401, 49.542943], [17.133415, 49.542144], [17.136429, 49.541345], [17.139443, 49.540546], [17.13915, 49.532739], [17.136017, 49.531373], [17.132108, 49.529664], [17.128117, 49.527917], [17.122987, 49.529152], [17.120073, 49.527037], [17.117281, 49.524655], [17.114369, 49.522538], [17.109121, 49.519863], [17.102287, 49.519545], [17.102196, 49.518974], [17.101932, 49.516726], [17.101685, 49.514331], [17.101614, 49.513521], [17.104083, 49.512692], [17.106926, 49.505397], [17.100328, 49.503419], [17.09943, 49.503721], [17.098411, 49.502917], [17.093092, 49.500807], [17.092606, 49.500597], [17.092464, 49.498182], [17.087788, 49.492291], [17.086042, 49.489143], [17.08802, 49.488046], [17.089998, 49.486949], [17.090423, 49.486724], [17.088953, 49.477862], [17.08716, 49.477537], [17.079099, 49.474195], [17.078611, 49.474177], [17.071522, 49.475501], [17.068177, 49.476834], [17.062757, 49.475162], [17.0615, 49.47308], [17.061519, 49.472827], [17.061156, 49.467809], [17.055362, 49.464423], [17.05213, 49.458635], [17.046479, 49.4593], [17.044598, 49.459804], [17.044455, 49.459847], [17.043457, 49.458252], [17.039744, 49.453415], [17.039634, 49.453247], [17.039103, 49.451951], [17.037859, 49.449408], [17.037793, 49.449261], [17.040597, 49.442176], [17.04063, 49.439863], [17.035613, 49.433655], [17.035522, 49.43361], [17.026679, 49.431993], [17.025518, 49.433455], [17.022204, 49.435872], [17.021689, 49.436301], [17.019531, 49.437516], [17.018366, 49.438124], [17.014806, 49.440636], [17.011651, 49.441489], [17.010496, 49.441926], [17.009223, 49.438558], [17.005206, 49.430874], [17.002792, 49.429938], [16.997146, 49.430194], [16.996402, 49.429552], [16.995719, 49.428845], [16.995241, 49.428094], [16.994975, 49.427417], [16.995902, 49.426742], [16.997999, 49.418109], [16.999482, 49.417582], [17.000113, 49.417381], [17.001686, 49.416931], [17.002029, 49.416853], [17.006544, 49.41302], [17.007579, 49.406091], [17.001014, 49.404824], [17.000523, 49.405052], [17.000124, 49.405196], [16.999578, 49.405331], [16.998692, 49.405462], [16.998102, 49.405512], [16.996546, 49.405837], [16.99581, 49.40614], [16.994442, 49.40281], [16.995178, 49.402507], [16.999601, 49.398785], [17.002591, 49.397466], [17.004713, 49.396375], [17.00589, 49.396059], [17.008727, 49.39718], [17.014092, 49.3944], [17.01355, 49.388291], [17.009043, 49.383351], [17.008097, 49.382832], [16.999901, 49.385359], [16.999716, 49.385244], [16.999347, 49.384954], [16.992402, 49.382703], [16.984769, 49.380064], [16.98374, 49.380218], [16.981819, 49.380749], [16.977933, 49.380586], [16.975711, 49.380162], [16.973191, 49.379543], [16.973673, 49.375975], [16.974867, 49.376137], [16.976817, 49.376736], [16.978584, 49.377045], [16.981644, 49.376614], [16.986862, 49.37182], [16.986718, 49.368223], [16.987118, 49.368207], [16.987991, 49.36832], [16.988887, 49.368704], [16.992678, 49.370266], [17.001525, 49.368803], [17.002434, 49.368334], [17.004528, 49.36759], [17.010798, 49.363434], [17.012952, 49.359604], [17.014306, 49.354351], [17.015829, 49.346534], [17.008849, 49.344276], [17.007124, 49.341116], [17.008294, 49.340097], [17.009753, 49.338881], [17.010343, 49.338471], [17.013368, 49.33642], [17.01011, 49.329121], [17.008898, 49.328001], [17.002458, 49.325502], [16.99807, 49.329167], [16.995662, 49.330118], [16.994613, 49.330586], [16.991689, 49.332373], [16.990394, 49.333388], [16.987191, 49.328447], [16.986725, 49.327972], [16.98508, 49.326653], [16.977378, 49.328], [16.975611, 49.330468], [16.974414, 49.331827], [16.971993, 49.334102], [16.970349, 49.335004], [16.967534, 49.336214], [16.964652, 49.33782], [16.96251, 49.339381], [16.958044, 49.346972], [16.954974, 49.348852], [16.951783, 49.346217], [16.951237, 49.345838], [16.947551, 49.337741], [16.946762, 49.337408], [16.94562, 49.336178], [16.945208, 49.334933], [16.945449, 49.333097], [16.945548, 49.332249], [16.94572, 49.331177], [16.946124, 49.330196], [16.946985, 49.328915], [16.947571, 49.328455], [16.948594, 49.327514], [16.949855, 49.326717], [16.955013, 49.325501], [16.956044, 49.32492], [16.956607, 49.324677], [16.958427, 49.323809], [16.959998, 49.322656], [16.960816, 49.322059], [16.961607, 49.321664], [16.962127, 49.321461], [16.962864, 49.321286], [16.964686, 49.320383], [16.966536, 49.313073], [16.95969, 49.310759], [16.957012, 49.312256], [16.955424, 49.313012], [16.950197, 49.314523], [16.949519, 49.314437], [16.944408, 49.315424], [16.942313, 49.317841], [16.941138, 49.318929], [16.940439, 49.319419], [16.938951, 49.320265], [16.936641, 49.321591], [16.936226, 49.321893], [16.93489, 49.32301], [16.931804, 49.328095], [16.928207, 49.32795], [16.923454, 49.329216], [16.918444, 49.336283], [16.919436, 49.341397], [16.919595, 49.342016], [16.919785, 49.343494], [16.920686, 49.346979], [16.919548, 49.347367], [16.918762, 49.347615], [16.917454, 49.347698], [16.91608, 49.347188], [16.912935, 49.343282], [16.912567, 49.343026], [16.903991, 49.345158], [16.902769, 49.34706], [16.901805, 49.348736], [16.900489, 49.350847], [16.899772, 49.35138], [16.896853, 49.35311], [16.895069, 49.354396], [16.89342, 49.355576], [16.892265, 49.356574], [16.889986, 49.358155], [16.890094, 49.365664], [16.892297, 49.368511], [16.891811, 49.368888], [16.891174, 49.369328], [16.890803, 49.369571], [16.890224, 49.369876], [16.889105, 49.370197], [16.883015, 49.375868], [16.882513, 49.376322], [16.881769, 49.376954], [16.880831, 49.37743], [16.880495, 49.377497], [16.880309, 49.377509], [16.88008, 49.377475], [16.88003, 49.377467], [16.879058, 49.375311], [16.872183, 49.370699], [16.870244, 49.367665], [16.871857, 49.366634], [16.872282, 49.366382], [16.874525, 49.365353], [16.876596, 49.364414], [16.879297, 49.363188], [16.885674, 49.357886], [16.886661, 49.356393], [16.88755, 49.355504], [16.890197, 49.353627], [16.891046, 49.352869], [16.892964, 49.351476], [16.894748, 49.35019], [16.89593, 49.349266], [16.901128, 49.342098], [16.902493, 49.335772], [16.90323, 49.33433], [16.906769, 49.327985], [16.911391, 49.326534], [16.911941, 49.326495], [16.912112, 49.326484], [16.916654, 49.325825], [16.922227, 49.324688], [16.923465, 49.324499], [16.924435, 49.324411], [16.930359, 49.318095], [16.930341, 49.317236], [16.930741, 49.316378], [16.927021, 49.30839], [16.926046, 49.307986], [16.922163, 49.306361], [16.921234, 49.305918], [16.920186, 49.304434], [16.918991, 49.302101], [16.917298, 49.298467], [16.910688, 49.296036], [16.909639, 49.296135], [16.908491, 49.296241], [16.906837, 49.296331], [16.903067, 49.297058], [16.902079, 49.297418], [16.90121, 49.29775], [16.900829, 49.297867], [16.893539, 49.301994], [16.892168, 49.303587], [16.891737, 49.303938], [16.8913, 49.304183], [16.885032, 49.309123], [16.883561, 49.311324], [16.882906, 49.312086], [16.882492, 49.312483], [16.877955, 49.318684], [16.876064, 49.326477], [16.869698, 49.330425], [16.868187, 49.331882], [16.867993, 49.331903], [16.867972, 49.331905], [16.867777, 49.331924], [16.866795, 49.33163], [16.864466, 49.330754], [16.856693, 49.330343], [16.85258, 49.331392], [16.848158, 49.33539], [16.848091, 49.335475], [16.845988, 49.338325], [16.840148, 49.339918], [16.83613, 49.343338], [16.83508, 49.343797], [16.834561, 49.343683], [16.834391, 49.343637], [16.834305, 49.34361], [16.833269, 49.341154], [16.834071, 49.338655], [16.835717, 49.338208], [16.838481, 49.336728], [16.840962, 49.335431], [16.841581, 49.335056], [16.838525, 49.326608], [16.837207, 49.326589], [16.836835, 49.32651], [16.833147, 49.325879], [16.83022, 49.325037], [16.830055, 49.324627], [16.83005, 49.324043], [16.83036, 49.32352], [16.834677, 49.318877], [16.835728, 49.317618], [16.839351, 49.31546], [16.84172, 49.315781], [16.848842, 49.317444], [16.854787, 49.313858], [16.85699, 49.311011], [16.860328, 49.307663], [16.861146, 49.305653], [16.862816, 49.298369], [16.860596, 49.295218], [16.855293, 49.294352], [16.851442, 49.29929], [16.850877, 49.299203], [16.849953, 49.29896], [16.849017, 49.298609], [16.848383, 49.298392], [16.846727, 49.298034], [16.841509, 49.298712], [16.841049, 49.298916], [16.84027, 49.299175], [16.839123, 49.299303], [16.83563, 49.300588], [16.83266, 49.29879], [16.831587, 49.295353], [16.823957, 49.292162], [16.821334, 49.293796], [16.819541, 49.296091], [16.819496, 49.296116], [16.819279, 49.296142], [16.811301, 49.298938], [16.81009, 49.301132], [16.806695, 49.299935], [16.800491, 49.297928], [16.793287, 49.300103], [16.786276, 49.299237], [16.783583, 49.300201], [16.781622, 49.30032], [16.780412, 49.300397], [16.779184, 49.300457], [16.772523, 49.299436], [16.771971, 49.299014], [16.77219, 49.296896], [16.772292, 49.296786], [16.773836, 49.295971], [16.774141, 49.295869], [16.779419, 49.296865], [16.780195, 49.296804], [16.781992, 49.296479], [16.786721, 49.290251], [16.793296, 49.284716], [16.795497, 49.281867], [16.800424, 49.281791], [16.805753, 49.283497], [16.805962, 49.283531], [16.806186, 49.286967], [16.811633, 49.291237], [16.815681, 49.286417], [16.815476, 49.283689], [16.816184, 49.280559], [16.819691, 49.279746], [16.81977, 49.280086], [16.82186, 49.285183], [16.828947, 49.286903], [16.829436, 49.286733], [16.830479, 49.28644], [16.830889, 49.28635], [16.832311, 49.286105], [16.8358, 49.2849], [16.841152, 49.285352], [16.843824, 49.284855], [16.845795, 49.284534], [16.847562, 49.283756], [16.845745, 49.275069], [16.838353, 49.271645], [16.837375, 49.271506], [16.836894, 49.271304], [16.838282, 49.267983], [16.83887, 49.266839], [16.837363, 49.258766], [16.834398, 49.256886], [16.831441, 49.255011], [16.828974, 49.253466], [16.82607, 49.252164], [16.825311, 49.248644], [16.826458, 49.248397], [16.826997, 49.248351], [16.827604, 49.248429], [16.830886, 49.250415], [16.833352, 49.251961], [16.836325, 49.253846], [16.842832, 49.252582], [16.844291, 49.244602], [16.836742, 49.241016], [16.835503, 49.237636], [16.836612, 49.235471], [16.831716, 49.229019], [16.826083, 49.233476], [16.824359, 49.23476], [16.82362, 49.235546], [16.820997, 49.233081], [16.821565, 49.229591], [16.821796, 49.222175], [16.818115, 49.217685], [16.817853, 49.217319], [16.809317, 49.214719], [16.802797, 49.217176], [16.799352, 49.221861], [16.805103, 49.226359], [16.805664, 49.226296], [16.806197, 49.226267], [16.806394, 49.229862], [16.805423, 49.234551], [16.805023, 49.235764], [16.803309, 49.237149], [16.803282, 49.23714], [16.802194, 49.236565], [16.794288, 49.236092], [16.793302, 49.236211], [16.788135, 49.236491], [16.785687, 49.236864], [16.78411, 49.237218], [16.778069, 49.237696], [16.77656, 49.237439], [16.776397, 49.237347], [16.776289, 49.237166], [16.775706, 49.23498], [16.775513, 49.233403], [16.769049, 49.227352], [16.766838, 49.227062], [16.765089, 49.22712], [16.763849, 49.227219], [16.760679, 49.227489], [16.75975, 49.227582], [16.755194, 49.226152], [16.748262, 49.229456], [16.746104, 49.231127], [16.742855, 49.229577], [16.743173, 49.228909], [16.743698, 49.228098], [16.74459, 49.227138], [16.745599, 49.226612], [16.747837, 49.219993], [16.743382, 49.217615], [16.740016, 49.218566], [16.739286, 49.218167], [16.738707, 49.217657], [16.732538, 49.21435], [16.731521, 49.213655], [16.730023, 49.21269], [16.731972, 49.209663], [16.739478, 49.210714], [16.741357, 49.210434], [16.74782, 49.204369], [16.746227, 49.200423], [16.744182, 49.198127], [16.743087, 49.196859], [16.735367, 49.193498], [16.733466, 49.194174], [16.731471, 49.194482], [16.730657, 49.194602], [16.725219, 49.196946], [16.72469, 49.197452], [16.724502, 49.197574], [16.722798, 49.197402], [16.716879, 49.201449], [16.717013, 49.204564], [16.716872, 49.204653], [16.716537, 49.2048], [16.716421, 49.204828], [16.715565, 49.205074], [16.714178, 49.205253], [16.711611, 49.205157], [16.706631, 49.207044], [16.705571, 49.213582], [16.705654, 49.217295], [16.703646, 49.219239], [16.700496, 49.217497], [16.696869, 49.215222], [16.69447, 49.21407], [16.687456, 49.215071], [16.686823, 49.215328], [16.686447, 49.215393], [16.685902, 49.215437], [16.685258, 49.214658], [16.679403, 49.208335], [16.677942, 49.206974], [16.677333, 49.206319], [16.671471, 49.204048], [16.666232, 49.206743], [16.659753, 49.203497], [16.657363, 49.203286], [16.655623, 49.201571], [16.648422, 49.200064], [16.646124, 49.202195], [16.645788, 49.202638], [16.645431, 49.203005], [16.643373, 49.204742], [16.64103, 49.205708], [16.641013, 49.205701], [16.639898, 49.2038], [16.639961, 49.203566], [16.639372, 49.196094], [16.635533, 49.194599], [16.635028, 49.194585], [16.634538, 49.194528], [16.630021, 49.192846], [16.628662, 49.190745], [16.629245, 49.18933], [16.629989, 49.187398], [16.630611, 49.187645], [16.631995, 49.188078], [16.633115, 49.188291], [16.6367, 49.188553], [16.641091, 49.187801], [16.644536, 49.180306], [16.641912, 49.177193], [16.643137, 49.173808], [16.638209, 49.160177], [16.636432, 49.159908], [16.630599, 49.161265], [16.628202, 49.161207], [16.62042, 49.161033], [16.61672, 49.160943], [16.61304, 49.160855], [16.611071, 49.16083], [16.609805, 49.160842], [16.608772, 49.160868], [16.600967, 49.163975], [16.597399, 49.163497], [16.591722, 49.162662], [16.588255, 49.163057], [16.586833, 49.163187], [16.586238, 49.163226], [16.584925, 49.163295], [16.583402, 49.163326], [16.581419, 49.163274], [16.581514, 49.159675], [16.587926, 49.159472], [16.591313, 49.159085], [16.594448, 49.158724], [16.602596, 49.157785], [16.60671, 49.157383], [16.608564, 49.157275], [16.609709, 49.157243], [16.611035, 49.15723], [16.613085, 49.157255], [16.616806, 49.157345], [16.620507, 49.157434], [16.626892, 49.154111], [16.628093, 49.151896], [16.62941, 49.146395], [16.629602, 49.145887], [16.630031, 49.144878], [16.630537, 49.143796], [16.631385, 49.142255], [16.633067, 49.139297], [16.634605, 49.136664], [16.635674, 49.134702], [16.636769, 49.132759], [16.638118, 49.130381], [16.639467, 49.128003], [16.642598, 49.12978], [16.641249, 49.132158], [16.6399, 49.134536], [16.638811, 49.136469], [16.638023, 49.137794], [16.636196, 49.141077], [16.634514, 49.144035], [16.633691, 49.145531], [16.633298, 49.146391], [16.632916, 49.147293], [16.632779, 49.147662], [16.631916, 49.151222], [16.638861, 49.160292], [16.644099, 49.15946], [16.647637, 49.160153], [16.650342, 49.160626], [16.652143, 49.1609], [16.653595, 49.161091], [16.655445, 49.161281], [16.66016, 49.161561], [16.665077, 49.156556], [16.667806, 49.153908], [16.669636, 49.153155], [16.670345, 49.153094], [16.671405, 49.15381], [16.671764, 49.155222], [16.672268, 49.15676], [16.678183, 49.161605], [16.680055, 49.161793], [16.681686, 49.16202], [16.685621, 49.161744], [16.689962, 49.15667], [16.690335, 49.156291], [16.691337, 49.155289], [16.691896, 49.154954], [16.69196, 49.154934], [16.695461, 49.153761], [16.696647, 49.153692], [16.699371, 49.15496], [16.69987, 49.155182], [16.701491, 49.156002], [16.702913, 49.158714], [16.70154, 49.160356], [16.700215, 49.161157], [16.698434, 49.163096], [16.697979, 49.163654], [16.702721, 49.170965], [16.704416, 49.170228], [16.706559, 49.169446], [16.708701, 49.168664], [16.710844, 49.167882], [16.71491, 49.165006], [16.71495, 49.164946], [16.722813, 49.161634], [16.726874, 49.155623], [16.727767, 49.154425], [16.729368, 49.150102], [16.725989, 49.14463], [16.722474, 49.144045], [16.721829, 49.144165], [16.719107, 49.144521], [16.71864, 49.140951], [16.722263, 49.140225], [16.722976, 49.140043], [16.723617, 49.140012], [16.724317, 49.140049], [16.730476, 49.136575], [16.731065, 49.133712], [16.731097, 49.133288], [16.732774, 49.132043], [16.732918, 49.132048], [16.733253, 49.132308], [16.734687, 49.133558], [16.741, 49.136666], [16.744846, 49.136883], [16.748404, 49.137085], [16.751961, 49.137287], [16.758806, 49.139593], [16.760973, 49.132698], [16.759698, 49.130756], [16.759333, 49.130091], [16.76249, 49.128361], [16.762855, 49.129026], [16.763977, 49.130714], [16.765176, 49.132529], [16.77362, 49.135563], [16.779329, 49.140871], [16.785004, 49.136298], [16.786173, 49.134583], [16.789398, 49.13334], [16.790693, 49.136699], [16.798707, 49.135438], [16.79981, 49.131644], [16.800935, 49.128224], [16.802198, 49.128451], [16.808942, 49.123665], [16.810453, 49.120829], [16.811933, 49.117547], [16.815609, 49.118692], [16.823499, 49.122542], [16.82753, 49.123159], [16.832557, 49.1224], [16.833982, 49.12192], [16.836418, 49.124571], [16.839982, 49.129526], [16.847084, 49.128833], [16.848409, 49.127671], [16.851009, 49.126942], [16.854092, 49.125411], [16.855167, 49.125091], [16.859663, 49.124589], [16.86206, 49.124296], [16.864169, 49.127213], [16.867461, 49.133098], [16.870366, 49.133893], [16.87174, 49.13438], [16.873703, 49.135215], [16.880914, 49.134016], [16.882027, 49.131562], [16.877958, 49.123728], [16.875771, 49.120869], [16.876335, 49.112927], [16.877666, 49.109582], [16.880515, 49.110051], [16.882836, 49.109973], [16.888108, 49.102811], [16.887978, 49.102435], [16.887894, 49.101974], [16.887034, 49.098421], [16.887597, 49.096118], [16.888933, 49.095362], [16.890018, 49.095717], [16.890585, 49.096513], [16.890978, 49.097059], [16.891188, 49.097619], [16.891367, 49.099862], [16.892362, 49.101835], [16.901139, 49.101176], [16.902098, 49.099561], [16.902471, 49.099019], [16.902897, 49.098503], [16.903282, 49.098128], [16.905344, 49.096248], [16.905989, 49.095777], [16.911793, 49.093143], [16.912548, 49.092996], [16.91313, 49.094827], [16.913169, 49.095112], [16.913238, 49.096529], [16.912482, 49.096676], [16.906253, 49.10276], [16.906399, 49.108915], [16.910151, 49.111454], [16.912778, 49.118607], [16.914699, 49.120383], [16.915356, 49.123627], [16.915335, 49.123872], [16.915085, 49.124302], [16.914366, 49.127532], [16.918679, 49.132964], [16.922495, 49.137288], [16.926039, 49.138941], [16.933597, 49.135016], [16.936431, 49.128519], [16.933649, 49.124903], [16.933108, 49.123834], [16.93306, 49.123415], [16.933031, 49.122398], [16.936629, 49.122295], [16.943674, 49.121574], [16.944703, 49.121808], [16.944827, 49.121875], [16.945385, 49.124742], [16.943029, 49.133224], [16.943374, 49.133762], [16.947657, 49.136493], [16.948558, 49.136681], [16.949265, 49.13679], [16.953957, 49.143788], [16.956573, 49.143989], [16.957813, 49.144139], [16.963955, 49.143424], [16.970514, 49.144652], [16.974135, 49.144805], [16.974701, 49.144854], [16.981153, 49.150664], [16.983437, 49.151436], [16.982284, 49.154847], [16.980001, 49.154075], [16.975743, 49.154065], [16.970462, 49.161183], [16.968855, 49.169825], [16.969386, 49.172102], [16.970492, 49.178825], [16.973294, 49.181086], [16.972789, 49.181712], [16.971631, 49.182972], [16.969391, 49.185791], [16.968842, 49.185354], [16.965679, 49.183603], [16.963012, 49.182488], [16.957079, 49.186333], [16.95591, 49.189738], [16.952296, 49.19449], [16.949737, 49.196054], [16.948932, 49.196331], [16.945433, 49.197484], [16.944605, 49.19768], [16.943655, 49.197867], [16.93975, 49.199829], [16.939242, 49.200225], [16.938842, 49.200464], [16.937918, 49.200911], [16.936612, 49.20163], [16.935132, 49.202404], [16.932227, 49.203643], [16.928976, 49.211168], [16.929712, 49.213413], [16.927585, 49.222129], [16.928769, 49.224244], [16.929754, 49.225854], [16.930407, 49.226772], [16.931212, 49.227811], [16.939183, 49.224409], [16.93823, 49.220937], [16.94118, 49.219397], [16.94368, 49.217062], [16.94617, 49.214736], [16.946714, 49.21427], [16.949924, 49.21405], [16.950049, 49.214387], [16.950079, 49.215485], [16.949667, 49.216329], [16.949756, 49.222906], [16.951995, 49.225315], [16.953428, 49.226181], [16.955209, 49.227346], [16.956335, 49.227866], [16.963103, 49.228407], [16.964942, 49.227272], [16.967188, 49.224515], [16.964734, 49.216641], [16.96391, 49.213574], [16.964321, 49.212843], [16.964478, 49.212613], [16.964634, 49.212385], [16.972237, 49.209499], [16.97357, 49.206872], [16.974006, 49.206164], [16.97473, 49.205371], [16.981781, 49.205021], [16.982549, 49.205116], [16.984191, 49.207637], [16.984923, 49.21023], [16.985669, 49.21287], [16.986417, 49.21563], [16.986492, 49.215914], [16.990908, 49.223259], [16.99283, 49.222605], [16.997676, 49.215707], [16.996985, 49.214062], [16.997741, 49.212216], [16.998566, 49.207256], [17.00006, 49.206209], [17.001807, 49.205688], [17.002812, 49.207417], [17.011133, 49.209185], [17.01199, 49.209014], [17.012406, 49.208934], [17.013371, 49.208803], [17.020381, 49.204026], [17.017688, 49.196552], [17.015473, 49.194257], [17.015118, 49.193968], [17.014515, 49.193541], [17.013589, 49.192602], [17.010293, 49.187958], [17.009775, 49.187433], [17.009205, 49.186638], [17.00833, 49.185316], [17.004725, 49.181187], [17.003662, 49.180245], [17.003025, 49.179578], [17.00244, 49.178754], [17.002138, 49.178049], [17.001972, 49.177428], [17.001803, 49.176492], [17.001795, 49.175168], [17.002179, 49.174089], [17.003485, 49.165226], [17.003317, 49.164381], [16.999961, 49.15725], [17.000547, 49.153698], [17.006104, 49.150991], [17.012151, 49.149272], [17.013316, 49.149549], [17.013941, 49.149818], [17.016754, 49.151217], [17.019731, 49.152461], [17.024333, 49.153967], [17.0238, 49.157528], [17.022482, 49.157616], [17.017837, 49.157327], [17.017093, 49.157477], [17.015269, 49.157428], [17.01368, 49.157682], [17.010933, 49.158202], [17.010429, 49.167124], [17.013232, 49.167371], [17.015885, 49.167612], [17.016632, 49.167622], [17.017142, 49.167588], [17.018105, 49.167435], [17.018656, 49.167375], [17.023413, 49.167614], [17.026134, 49.168617], [17.031498, 49.170125], [17.032756, 49.170414], [17.033149, 49.170538], [17.033397, 49.172566], [17.032934, 49.17419], [17.032642, 49.176086], [17.031912, 49.176135], [17.031235, 49.176197], [17.023229, 49.17929], [17.022426, 49.184199], [17.020407, 49.187346], [17.020217, 49.19399], [17.022369, 49.196153], [17.023331, 49.197339], [17.029578, 49.201353], [17.033224, 49.199947], [17.040739, 49.196693], [17.043451, 49.194124], [17.044135, 49.193356], [17.046046, 49.191303], [17.04737, 49.188802], [17.049075, 49.186043], [17.049245, 49.185657], [17.049604, 49.184979], [17.049898, 49.184556], [17.05022, 49.18419], [17.052641, 49.181866], [17.05364, 49.179788], [17.055132, 49.177772], [17.056409, 49.178126], [17.057035, 49.178558], [17.057142, 49.17874], [17.057142, 49.178772], [17.056899, 49.181318], [17.055878, 49.183494], [17.055605, 49.183933], [17.055302, 49.18429], [17.052065, 49.188893], [17.055845, 49.19644], [17.056866, 49.196965], [17.057356, 49.197173], [17.057948, 49.19751], [17.064591, 49.198071], [17.065895, 49.197722], [17.067069, 49.197254], [17.06767, 49.196963], [17.068119, 49.196796], [17.068789, 49.196681], [17.075568, 49.194842], [17.080144, 49.19361], [17.084845, 49.192012], [17.090701, 49.18589], [17.086635, 49.182312], [17.086163, 49.182045], [17.085775, 49.181788], [17.082564, 49.179494], [17.07917, 49.177049], [17.078825, 49.176692], [17.078555, 49.176311], [17.073982, 49.17205], [17.073375, 49.171701], [17.071858, 49.170595], [17.064311, 49.166681], [17.063491, 49.166809], [17.061458, 49.167253], [17.059692, 49.16755], [17.057863, 49.167962], [17.057015, 49.168115], [17.055028, 49.168517], [17.053126, 49.168932], [17.052054, 49.169032], [17.051284, 49.168939], [17.048091, 49.169778], [17.045604, 49.167176], [17.047023, 49.165819], [17.047648, 49.165305], [17.04876, 49.164878], [17.049477, 49.164889], [17.054134, 49.165006], [17.054637, 49.164938], [17.056287, 49.164589], [17.059974, 49.157011], [17.059804, 49.155625], [17.059986, 49.153411], [17.05979, 49.148172], [17.060447, 49.144633], [17.06346, 49.145192], [17.071905, 49.145179], [17.07513, 49.144593], [17.079263, 49.144002], [17.08149, 49.144027], [17.087247, 49.144189], [17.09011, 49.138454], [17.092249, 49.135558], [17.093906, 49.136782], [17.095931, 49.138079], [17.097192, 49.138512], [17.103911, 49.133398], [17.104035, 49.132972], [17.1044, 49.132335], [17.105766, 49.130616], [17.107867, 49.131079], [17.10875, 49.137292], [17.111262, 49.1397], [17.115909, 49.147354], [17.120976, 49.148361], [17.12115, 49.148349], [17.121332, 49.148368], [17.123147, 49.148443], [17.126362, 49.149358], [17.131938, 49.150128], [17.133092, 49.150453], [17.140966, 49.146911], [17.141171, 49.14654], [17.142688, 49.144552], [17.143345, 49.144499], [17.148143, 49.143421], [17.15044, 49.14248], [17.153146, 49.141195], [17.15469, 49.144447], [17.156079, 49.149491], [17.15689, 49.152999], [17.163451, 49.157215], [17.164032, 49.157297], [17.170363, 49.15689], [17.172144, 49.15648], [17.178946, 49.151483], [17.180477, 49.149367], [17.181747, 49.148279], [17.184973, 49.149878], [17.191535, 49.15522], [17.192661, 49.15522], [17.193468, 49.155252], [17.194514, 49.155337], [17.195732, 49.155449], [17.196933, 49.155516], [17.197583, 49.155526], [17.198527, 49.155495], [17.199231, 49.155437], [17.199961, 49.155358], [17.203254, 49.154911], [17.206599, 49.154458], [17.207958, 49.154974], [17.214551, 49.153381], [17.212442, 49.144948], [17.20694, 49.144451], [17.205967, 49.143388], [17.203274, 49.140729], [17.20288, 49.140425], [17.199135, 49.137938], [17.195316, 49.13693], [17.194221, 49.136801], [17.190692, 49.136893], [17.183533, 49.132388], [17.181027, 49.132047], [17.18028, 49.131869], [17.179918, 49.131735], [17.179545, 49.131562], [17.179157, 49.131336], [17.170542, 49.131303], [17.16731, 49.132888], [17.166956, 49.132167], [17.166767, 49.131813], [17.166023, 49.130114], [17.159702, 49.12611], [17.153511, 49.122756], [17.153743, 49.119163], [17.151602, 49.114861], [17.144155, 49.111732], [17.139357, 49.118145], [17.135331, 49.122113], [17.135031, 49.12264], [17.134576, 49.123498], [17.134297, 49.123884], [17.133563, 49.12471], [17.133009, 49.12515], [17.132473, 49.125482], [17.130602, 49.126482], [17.128781, 49.127456], [17.126005, 49.125152], [17.126116, 49.125016], [17.126647, 49.124556], [17.125324, 49.11594], [17.124936, 49.115123], [17.1249, 49.114944], [17.128163, 49.113308], [17.130715, 49.107847], [17.130821, 49.104249], [17.129144, 49.096098], [17.127451, 49.094511], [17.12317, 49.092119], [17.122282, 49.091865], [17.121142, 49.09141], [17.120245, 49.090737], [17.119564, 49.089866], [17.1224, 49.087649], [17.124135, 49.088651], [17.131623, 49.089307], [17.134727, 49.090237], [17.137666, 49.09238], [17.141461, 49.096368], [17.141506, 49.096401], [17.142059, 49.096971], [17.143607, 49.09825], [17.151495, 49.094282], [17.153149, 49.091084], [17.155276, 49.092185], [17.156417, 49.092692], [17.157208, 49.09311], [17.158264, 49.093914], [17.158752, 49.094356], [17.159246, 49.095088], [17.162808, 49.099996], [17.170756, 49.098277], [17.172991, 49.096203], [17.173676, 49.095668], [17.175971, 49.09369], [17.177113, 49.092498], [17.178342, 49.091182], [17.17933, 49.090626], [17.180379, 49.090434], [17.187997, 49.085747], [17.188881, 49.082257], [17.192971, 49.081703], [17.198068, 49.077552], [17.200568, 49.074961], [17.200466, 49.069616], [17.193758, 49.067709], [17.190832, 49.069807], [17.183461, 49.073821], [17.179861, 49.073867], [17.173832, 49.070653], [17.173224, 49.070533], [17.173145, 49.070503], [17.172359, 49.069554], [17.171284, 49.066746], [17.165697, 49.059774], [17.164753, 49.059495], [17.164443, 49.05942], [17.163227, 49.057504], [17.16138, 49.053681], [17.154974, 49.048526], [17.153612, 49.046252], [17.153879, 49.045828], [17.153886, 49.045817], [17.154119, 49.045442], [17.155658, 49.044991], [17.156292, 49.045049], [17.158361, 49.045135], [17.160854, 49.045311], [17.163107, 49.03676], [17.160233, 49.02955], [17.154367, 49.031586], [17.151474, 49.034816], [17.149917, 49.036861], [17.14921, 49.037615], [17.146406, 49.036062], [17.146431, 49.034537], [17.146471, 49.033376], [17.147007, 49.032385], [17.142612, 49.024794], [17.140339, 49.025101], [17.139802, 49.02499], [17.139013, 49.024866], [17.132763, 49.023649], [17.132135, 49.023647], [17.131682, 49.023618], [17.123621, 49.023247], [17.123506, 49.023237], [17.119854, 49.02014], [17.111336, 49.019395], [17.110493, 49.022445], [17.110176, 49.023502], [17.106728, 49.022467], [17.106519, 49.018535], [17.106475, 49.018121], [17.109187, 49.016313], [17.108226, 49.008333], [17.103438, 49.007456], [17.103022, 49.007505], [17.102055, 49.007564], [17.101197, 49.007582], [17.100624, 49.007617], [17.092966, 49.009874], [17.090877, 49.011906], [17.090292, 49.012252], [17.089895, 49.012401], [17.089612, 49.012481], [17.0845, 49.00691], [17.08352, 49.003446], [17.085247, 49.002958], [17.086244, 49.002771], [17.086857, 49.002696], [17.08724, 49.002672], [17.088307, 49.002717], [17.088929, 49.002755], [17.089694, 49.002843], [17.092515, 49.002858], [17.095154, 49.003639], [17.097401, 49.003553], [17.10081, 48.995431], [17.100859, 48.994522], [17.102385, 48.992345], [17.102982, 48.992295], [17.104172, 48.993113], [17.104173, 48.993116], [17.104403, 48.995216], [17.107006, 48.999105], [17.115253, 48.999802], [17.11994, 48.996022], [17.117434, 48.990248], [17.116822, 48.989638], [17.116138, 48.989061], [17.11435, 48.987664], [17.111934, 48.985679], [17.114219, 48.982898], [17.116635, 48.984882], [17.118353, 48.986223], [17.119141, 48.986885], [17.127147, 48.983643], [17.127407, 48.982964], [17.128795, 48.980027], [17.12902, 48.979134], [17.129675, 48.97654], [17.129888, 48.975179], [17.130073, 48.973805], [17.129822, 48.968788], [17.130649, 48.968922], [17.13089, 48.968961], [17.131477, 48.969057], [17.13154, 48.969067], [17.13697, 48.961923], [17.131068, 48.959114], [17.129929, 48.959367], [17.129348, 48.959241], [17.128278, 48.958825], [17.122741, 48.957226], [17.118975, 48.953875], [17.119912, 48.9504], [17.121871, 48.950928], [17.12959, 48.94663], [17.132905, 48.945226], [17.136013, 48.943888], [17.139583, 48.944355], [17.145896, 48.947007], [17.148873, 48.949031], [17.15168, 48.952518], [17.159337, 48.949887], [17.16092, 48.949042], [17.164439, 48.947527], [17.163187, 48.939081], [17.161348, 48.938638], [17.160234, 48.93842], [17.155404, 48.939528], [17.152408, 48.937532], [17.152486, 48.932679], [17.1526, 48.931959], [17.151433, 48.923253], [17.151705, 48.919663], [17.153686, 48.919813], [17.16057, 48.916168], [17.160626, 48.916165], [17.162895, 48.917118], [17.165818, 48.918131], [17.173015, 48.918602], [17.173037, 48.918601], [17.175534, 48.919387], [17.175673, 48.91969], [17.175692, 48.919776], [17.175341, 48.92135], [17.174753, 48.922901], [17.174007, 48.924431], [17.173176, 48.931832], [17.179491, 48.933019], [17.179957, 48.932749], [17.185162, 48.937976], [17.193344, 48.940684], [17.194221, 48.940643], [17.200294, 48.940987], [17.20616, 48.94245], [17.214874, 48.941446], [17.223311, 48.938445], [17.224404, 48.933659], [17.224904, 48.931051], [17.228406, 48.929316], [17.231672, 48.923082], [17.234894, 48.921476], [17.235881, 48.913169], [17.237375, 48.909894], [17.239443, 48.909279], [17.240601, 48.909681], [17.244166, 48.909979], [17.249413, 48.907842], [17.250022, 48.907258], [17.253289, 48.906426], [17.251807, 48.898253], [17.251188, 48.898127], [17.250815, 48.897986], [17.248527, 48.896912], [17.24642, 48.896035], [17.24394, 48.894947], [17.239601, 48.892959], [17.235927, 48.891391], [17.235387, 48.89127], [17.234835, 48.891109], [17.232533, 48.890713], [17.233143, 48.887165], [17.227977, 48.88169], [17.225285, 48.882511], [17.222861, 48.88554], [17.216031, 48.885331], [17.214984, 48.881886], [17.216523, 48.879665], [17.217116, 48.879538], [17.217943, 48.879486], [17.22185, 48.879796], [17.227968, 48.875636], [17.22921, 48.874292], [17.23499, 48.869269], [17.232509, 48.863854], [17.234166, 48.860657], [17.233017, 48.854095], [17.235646, 48.848831], [17.237108, 48.847674], [17.238726, 48.84799], [17.245456, 48.849185], [17.247862, 48.848872], [17.248326, 48.852442], [17.251183, 48.85975], [17.255564, 48.859677], [17.258005, 48.858948], [17.258704, 48.85882], [17.265167, 48.85926], [17.265929, 48.859904], [17.273793, 48.862083], [17.282138, 48.861053], [17.283484, 48.859938], [17.284308, 48.859232], [17.285479, 48.858298], [17.287813, 48.861039], [17.296226, 48.863752], [17.297188, 48.864854], [17.299427, 48.867083], [17.301938, 48.869673], [17.303486, 48.871336], [17.304984, 48.872246], [17.306733, 48.872824], [17.313465, 48.867041], [17.311163, 48.862795], [17.309634, 48.861473], [17.309087, 48.860954], [17.308609, 48.860527], [17.30572, 48.858062], [17.305394, 48.857731], [17.305017, 48.857257], [17.304668, 48.856711], [17.302352, 48.854606], [17.300674, 48.8533], [17.299992, 48.852866], [17.300264, 48.85062], [17.300623, 48.850194], [17.301924, 48.849828], [17.302851, 48.850342], [17.303407, 48.850669], [17.303798, 48.850959], [17.304929, 48.852092], [17.306904, 48.853765], [17.315613, 48.853343], [17.316514, 48.852647], [17.319865, 48.853007], [17.326063, 48.854215], [17.333089, 48.85117], [17.336634, 48.850546], [17.344675, 48.850393], [17.345796, 48.849892], [17.347352, 48.849261], [17.356249, 48.849897], [17.361013, 48.850083], [17.36165, 48.850042], [17.369532, 48.846984], [17.372768, 48.848562], [17.377244, 48.854016], [17.38022, 48.856042], [17.384987, 48.859999], [17.39089, 48.858783], [17.39283, 48.857088], [17.393922, 48.856743], [17.395961, 48.855915], [17.398337, 48.858619], [17.398549, 48.86401], [17.396941, 48.864423], [17.396543, 48.864317], [17.388162, 48.866122], [17.387227, 48.866646], [17.386496, 48.866862], [17.386232, 48.866921], [17.380786, 48.863356], [17.376261, 48.866743], [17.374764, 48.868014], [17.372101, 48.870332], [17.372191, 48.876341], [17.376565, 48.878481], [17.378221, 48.878782], [17.378537, 48.878826], [17.381171, 48.879434], [17.381758, 48.879653], [17.382526, 48.879913], [17.383292, 48.880233], [17.384429, 48.880906], [17.390005, 48.882956], [17.393572, 48.882875], [17.396617, 48.88165], [17.40263, 48.878304], [17.405476, 48.880509], [17.40414, 48.882233], [17.403087, 48.884471], [17.401785, 48.887902], [17.401457, 48.889671], [17.39352, 48.888556], [17.393019, 48.88856], [17.392693, 48.888577], [17.390992, 48.88871], [17.390242, 48.888727], [17.389483, 48.88866], [17.388782, 48.888504], [17.384593, 48.888356], [17.381592, 48.890032], [17.379782, 48.893997], [17.386654, 48.89848], [17.388417, 48.899163], [17.389004, 48.900573], [17.38912, 48.900842], [17.389889, 48.902957], [17.394734, 48.90791], [17.39522, 48.908325], [17.397123, 48.910943], [17.39738, 48.911201], [17.403972, 48.912847], [17.406831, 48.909876], [17.407791, 48.910008], [17.411819, 48.909353], [17.412215, 48.909227], [17.416969, 48.904584], [17.41716, 48.901283], [17.416714, 48.899653], [17.416633, 48.898338], [17.416747, 48.897461], [17.417237, 48.896262], [17.418375, 48.89437], [17.420382, 48.891011], [17.421431, 48.889122], [17.422137, 48.8873], [17.422598, 48.88649], [17.42514, 48.887681], [17.425726, 48.888274], [17.427793, 48.890114], [17.434388, 48.895695], [17.43896, 48.894792], [17.445595, 48.896833], [17.448066, 48.899451], [17.455292, 48.902067], [17.462556, 48.903211], [17.463354, 48.90325], [17.471429, 48.906837], [17.47446, 48.907379], [17.482672, 48.90839], [17.484029, 48.908155], [17.490323, 48.913037], [17.497538, 48.908719], [17.499008, 48.907819], [17.50302, 48.900527], [17.503077, 48.900028], [17.503799, 48.898556], [17.504149, 48.898072], [17.505671, 48.896341], [17.508491, 48.893252], [17.509649, 48.892231], [17.511292, 48.892029], [17.511478, 48.892088], [17.512705, 48.894134], [17.512596, 48.89431], [17.510911, 48.896868], [17.508789, 48.905095], [17.508512, 48.906276], [17.507859, 48.907525], [17.508309, 48.916205], [17.508941, 48.924744], [17.510421, 48.925746], [17.518331, 48.928129], [17.521808, 48.927197], [17.525684, 48.929123], [17.530436, 48.92163], [17.530089, 48.920637], [17.529933, 48.920221], [17.529685, 48.919632], [17.52956, 48.919116], [17.529509, 48.91868], [17.533085, 48.918261], [17.533451, 48.919352], [17.533833, 48.920439], [17.534258, 48.921533], [17.534544, 48.922092], [17.534821, 48.922717], [17.534975, 48.923536], [17.53517, 48.925346], [17.542138, 48.929074], [17.544781, 48.928267], [17.548891, 48.9271], [17.550292, 48.919942], [17.553207, 48.917829], [17.555763, 48.914864], [17.55607, 48.914531], [17.557281, 48.913509], [17.558167, 48.912976], [17.56123, 48.908167], [17.562273, 48.904347], [17.556298, 48.899497], [17.550922, 48.900797], [17.549384, 48.901748], [17.546854, 48.903398], [17.544325, 48.905048], [17.542358, 48.902033], [17.544888, 48.900383], [17.548658, 48.892726], [17.547284, 48.888577], [17.544744, 48.886027], [17.546295, 48.88429], [17.548276, 48.884463], [17.548671, 48.884552], [17.549895, 48.884724], [17.552192, 48.887355], [17.555464, 48.889473], [17.560169, 48.896478], [17.563035, 48.895819], [17.564289, 48.895162], [17.564993, 48.894872], [17.565605, 48.894734], [17.566117, 48.894698], [17.569082, 48.894146], [17.569523, 48.893983], [17.570129, 48.893867], [17.571975, 48.885181], [17.570718, 48.884838], [17.570144, 48.884547], [17.569697, 48.884177], [17.56954, 48.883993], [17.569116, 48.883207], [17.569027, 48.882674], [17.568885, 48.881677], [17.562145, 48.875822], [17.561831, 48.875822], [17.560519, 48.875726], [17.560784, 48.872135], [17.564279, 48.871492], [17.565842, 48.871334], [17.56615, 48.871321], [17.566811, 48.871402], [17.567285, 48.871549], [17.567773, 48.871813], [17.568119, 48.872076], [17.569618, 48.873526], [17.56988, 48.873747], [17.571843, 48.87625], [17.572165, 48.876773], [17.57242, 48.877473], [17.572495, 48.877908], [17.575424, 48.882128], [17.582962, 48.881346], [17.584402, 48.87872], [17.584609, 48.877947], [17.58484, 48.877441], [17.585295, 48.876096], [17.584847, 48.870583], [17.585922, 48.867147], [17.587515, 48.864872], [17.588592, 48.863333], [17.588884, 48.862912], [17.589069, 48.862703], [17.591766, 48.865088], [17.591168, 48.866628], [17.590934, 48.867594], [17.590723, 48.868159], [17.590413, 48.869153], [17.590077, 48.870334], [17.589737, 48.87343], [17.589731, 48.87426], [17.597684, 48.878025], [17.599426, 48.877088], [17.599961, 48.876937], [17.600559, 48.876818], [17.601167, 48.876661], [17.603651, 48.875876], [17.604736, 48.879308], [17.599037, 48.883986], [17.594907, 48.88648], [17.592537, 48.887693], [17.585792, 48.889438], [17.584769, 48.890005], [17.584068, 48.890317], [17.58361, 48.890465], [17.576798, 48.895928], [17.576596, 48.896404], [17.576427, 48.896721], [17.576122, 48.897115], [17.575772, 48.897437], [17.575349, 48.897759], [17.574797, 48.898089], [17.573949, 48.898377], [17.57308, 48.898483], [17.56645, 48.903457], [17.566555, 48.908959], [17.563669, 48.912387], [17.561769, 48.91409], [17.559625, 48.921794], [17.559809, 48.922991], [17.564005, 48.928943], [17.572133, 48.929733], [17.573016, 48.929121], [17.57353, 48.928727], [17.574012, 48.92835], [17.575754, 48.927086], [17.576118, 48.926842], [17.579867, 48.924107], [17.580403, 48.923475], [17.581013, 48.922843], [17.581519, 48.922398], [17.584055, 48.918972], [17.584692, 48.917591], [17.586059, 48.916825], [17.586573, 48.916783], [17.587983, 48.916576], [17.589378, 48.916245], [17.590735, 48.916008], [17.591578, 48.915835], [17.598131, 48.914243], [17.599004, 48.913902], [17.599686, 48.913768], [17.607472, 48.917227], [17.610654, 48.912736], [17.610736, 48.911048], [17.610946, 48.910045], [17.611356, 48.906165], [17.611483, 48.904001], [17.611449, 48.903269], [17.61115, 48.900515], [17.614665, 48.899739], [17.622776, 48.896602], [17.625045, 48.893807], [17.626082, 48.894649], [17.627106, 48.895622], [17.627748, 48.896587], [17.633097, 48.902429], [17.633349, 48.902665], [17.634118, 48.903698], [17.635018, 48.905289], [17.641906, 48.910902], [17.642599, 48.911351], [17.643147, 48.91184], [17.643504, 48.912327], [17.644922, 48.914724], [17.652891, 48.915707], [17.653649, 48.915176], [17.654462, 48.914746], [17.656725, 48.906411], [17.658039, 48.905729], [17.664424, 48.902687], [17.667237, 48.897407], [17.667528, 48.895377], [17.668408, 48.892754], [17.668904, 48.891954], [17.670167, 48.891174], [17.671034, 48.891123], [17.671775, 48.891254], [17.674047, 48.891965], [17.675029, 48.892235], [17.674076, 48.895706], [17.670354, 48.900172], [17.675549, 48.905526], [17.67616, 48.905647], [17.676272, 48.905674], [17.677068, 48.906003], [17.678882, 48.907054], [17.685134, 48.907484], [17.689161, 48.906289], [17.691267, 48.905763], [17.697588, 48.901885], [17.697646, 48.901845], [17.698168, 48.901586], [17.700308, 48.900703], [17.700803, 48.900475], [17.707956, 48.895586], [17.709848, 48.892134], [17.710635, 48.883307], [17.711817, 48.879906], [17.712349, 48.880091], [17.713124, 48.880535], [17.713677, 48.880849], [17.72124, 48.883398], [17.725362, 48.880125], [17.728141, 48.878271], [17.730137, 48.876365], [17.731878, 48.874933], [17.734857, 48.876955], [17.733183, 48.881223], [17.731394, 48.883215], [17.730809, 48.882901], [17.723505, 48.883381], [17.721752, 48.885972], [17.720035, 48.888964], [17.716716, 48.892152], [17.713167, 48.893528], [17.714119, 48.901995], [17.71221, 48.903094], [17.708134, 48.909082], [17.707388, 48.909355], [17.706918, 48.909482], [17.704663, 48.909938], [17.70506, 48.91849], [17.708115, 48.919345], [17.71005, 48.920038], [17.711522, 48.920206], [17.712106, 48.920317], [17.712811, 48.920527], [17.713295, 48.920754], [17.714619, 48.921583], [17.722903, 48.920636], [17.723683, 48.918785], [17.724086, 48.91781], [17.724658, 48.913824], [17.724763, 48.911797], [17.724868, 48.909614], [17.724883, 48.908595], [17.724957, 48.907687], [17.725168, 48.906943], [17.725577, 48.905869], [17.726142, 48.904955], [17.727172, 48.903157], [17.729432, 48.901182], [17.730822, 48.901008], [17.733217, 48.900441], [17.734136, 48.900185], [17.734771, 48.899968], [17.735934, 48.903375], [17.743982, 48.903716], [17.744053, 48.90366], [17.749228, 48.902871], [17.755349, 48.897363], [17.755866, 48.895801], [17.756435, 48.895298], [17.758033, 48.895102], [17.765954, 48.892804], [17.768139, 48.895664], [17.768011, 48.895834], [17.767279, 48.896541], [17.763943, 48.900168], [17.761595, 48.902301], [17.759465, 48.908901], [17.759905, 48.912474], [17.766297, 48.917984], [17.767249, 48.918456], [17.767874, 48.919701], [17.772857, 48.926478], [17.77357, 48.927093], [17.773819, 48.927464], [17.774058, 48.927928], [17.774221, 48.928332], [17.772348, 48.929987], [17.771876, 48.930517], [17.770469, 48.934425], [17.776655, 48.938933], [17.779033, 48.939618], [17.779944, 48.939804], [17.782951, 48.941088], [17.79031, 48.94158], [17.791704, 48.938261], [17.796062, 48.937269], [17.796713, 48.937065], [17.802184, 48.934214], [17.803925, 48.933391], [17.809697, 48.929859], [17.81309, 48.922403], [17.81362, 48.921205], [17.81505, 48.917277], [17.815413, 48.916269], [17.816067, 48.915406], [17.816372, 48.915193], [17.816509, 48.915161], [17.81664, 48.91514], [17.816728, 48.915136], [17.818833, 48.917391], [17.818506, 48.919003], [17.821018, 48.926306], [17.823112, 48.930523], [17.831013, 48.930355], [17.832291, 48.928892], [17.833701, 48.927963], [17.839239, 48.924885], [17.839996, 48.924334], [17.840543, 48.923953], [17.841538, 48.923519], [17.843356, 48.922562], [17.843932, 48.922298], [17.845431, 48.925571], [17.853735, 48.928736], [17.859724, 48.926405], [17.860179, 48.926135], [17.863155, 48.924511], [17.866344, 48.926182], [17.867621, 48.933656], [17.870552, 48.935746], [17.875918, 48.942939], [17.876077, 48.942982], [17.877399, 48.943351], [17.878616, 48.943943], [17.880257, 48.945248], [17.880931, 48.94584], [17.888109, 48.949134], [17.890643, 48.94805], [17.895494, 48.95117], [17.899788, 48.950462], [17.90134, 48.949528], [17.902088, 48.94916], [17.905684, 48.946366], [17.907787, 48.945912], [17.914101, 48.944547], [17.915702, 48.944204], [17.916449, 48.944082], [17.917062, 48.944013], [17.922045, 48.943222], [17.923349, 48.943079], [17.924668, 48.946429], [17.922642, 48.947624], [17.922078, 48.947536], [17.918124, 48.947554], [17.913655, 48.951104], [17.910183, 48.950154], [17.906444, 48.949885], [17.899547, 48.957964], [17.900827, 48.961239], [17.904951, 48.96552], [17.904129, 48.968209], [17.909327, 48.974538], [17.912055, 48.974473], [17.912141, 48.978072], [17.906594, 48.983134], [17.906459, 48.986731], [17.904395, 48.986654], [17.904016, 48.986678], [17.898131, 48.988182], [17.897254, 48.988474], [17.89059, 48.990058], [17.887936, 48.992313], [17.889052, 48.999477], [17.891526, 49.002093], [17.890225, 49.005408], [17.890143, 49.006103], [17.88877, 49.007751], [17.886422, 49.011145], [17.886197, 49.011933], [17.886161, 49.015686], [17.893659, 49.020142], [17.896198, 49.019135], [17.89705, 49.01882], [17.900976, 49.015902], [17.90198, 49.01518], [17.905149, 49.010809], [17.908145, 49.009195], [17.908333, 49.009127], [17.908818, 49.00935], [17.914543, 49.011361], [17.915386, 49.01166], [17.915957, 49.012068], [17.918325, 49.014155], [17.918696, 49.019963], [17.924708, 49.021528], [17.92508, 49.021469], [17.925916, 49.021377], [17.927473, 49.020989], [17.928842, 49.020632], [17.929343, 49.02061], [17.929733, 49.020649], [17.930253, 49.020766], [17.929218, 49.024213], [17.928443, 49.024456], [17.926788, 49.02487], [17.923457, 49.026226], [17.922568, 49.026685], [17.920614, 49.027666], [17.920102, 49.028011], [17.918477, 49.028924], [17.917835, 49.029378], [17.915462, 49.03124], [17.915033, 49.031523], [17.91342, 49.032696], [17.911337, 49.034412], [17.906448, 49.041755], [17.905552, 49.04228], [17.903484, 49.043832], [17.902236, 49.051013], [17.899697, 49.056509], [17.903289, 49.061853], [17.905081, 49.0626], [17.910531, 49.062974], [17.916221, 49.058396], [17.918863, 49.056402], [17.921547, 49.054956], [17.922086, 49.054697], [17.923094, 49.054375], [17.924093, 49.054031], [17.926416, 49.052862], [17.927195, 49.052477], [17.928147, 49.052252], [17.934736, 49.046582], [17.934982, 49.044981], [17.935041, 49.044369], [17.935028, 49.042248], [17.935543, 49.040794], [17.936039, 49.037471], [17.936254, 49.036692], [17.936456, 49.036312], [17.938591, 49.035239], [17.938813, 49.035151], [17.939223, 49.035023], [17.939591, 49.034952], [17.940038, 49.036274], [17.940294, 49.040741], [17.943486, 49.045589], [17.943513, 49.046472], [17.943284, 49.049184], [17.936772, 49.052289], [17.935801, 49.053359], [17.934678, 49.054289], [17.933931, 49.054749], [17.93303, 49.055195], [17.932009, 49.055531], [17.931261, 49.055738], [17.930442, 49.05585], [17.927458, 49.056623], [17.926671, 49.057051], [17.925771, 49.057348], [17.922729, 49.061786], [17.92714, 49.066279], [17.927706, 49.06638], [17.928317, 49.066618], [17.92846, 49.066684], [17.931125, 49.06728], [17.931454, 49.067304], [17.933372, 49.067589], [17.933979, 49.067712], [17.937833, 49.067151], [17.938355, 49.066992], [17.938695, 49.066933], [17.940651, 49.066931], [17.941031, 49.067044], [17.941401, 49.067201], [17.944909, 49.067933], [17.945272, 49.067945], [17.945734, 49.067984], [17.947166, 49.068146], [17.947922, 49.068271], [17.955455, 49.063615], [17.956184, 49.062933], [17.957828, 49.054319], [17.956144, 49.053139], [17.95607, 49.051985], [17.956816, 49.050885], [17.958329, 49.049575], [17.959237, 49.048727], [17.960196, 49.048344], [17.961171, 49.048273], [17.962406, 49.048452], [17.963631, 49.048775], [17.971168, 49.044312], [17.971058, 49.043158], [17.971113, 49.042445], [17.974444, 49.040745], [17.974704, 49.042705], [17.974944, 49.044213], [17.983461, 49.047108], [17.986694, 49.045044], [17.987732, 49.043714], [17.988566, 49.042633], [17.989935, 49.041232], [17.992074, 49.039293], [17.992414, 49.039401], [17.993593, 49.040564], [17.993854, 49.041549], [17.993688, 49.042709], [17.992923, 49.043659], [17.991968, 49.044281], [17.990353, 49.046541], [17.990194, 49.050897], [17.996595, 49.053373], [17.997235, 49.053179], [17.99768, 49.053103], [17.998384, 49.053007], [17.999802, 49.052665], [18.000587, 49.05241], [18.001429, 49.052017], [18.005334, 49.045712], [18.006988, 49.042391], [18.007408, 49.042386], [18.007848, 49.042431], [18.008532, 49.042583], [18.00908, 49.042792], [18.012901, 49.043983], [18.013756, 49.045375], [18.013786, 49.045427], [18.0138, 49.045539], [18.013788, 49.045782], [18.013742, 49.045918], [18.012417, 49.047559], [18.010289, 49.050148], [18.009695, 49.051082], [18.008665, 49.052174], [18.008282, 49.05261], [18.007927, 49.052939], [18.007398, 49.053273], [18.006888, 49.05346], [18.004591, 49.054449], [18.003908, 49.054852], [18.003741, 49.05495], [18.003362, 49.055134], [18.002683, 49.055391], [18.002135, 49.05566], [18.001334, 49.055964], [18.000808, 49.056121], [17.999232, 49.056505], [17.998771, 49.056596], [17.996595, 49.057282], [17.996018, 49.057467], [17.992295, 49.060244], [17.991894, 49.060735], [17.991195, 49.061412], [17.988677, 49.06373], [17.988351, 49.064101], [17.987765, 49.069712], [17.993749, 49.071534], [17.994284, 49.071584], [17.995426, 49.071729], [17.995904, 49.071778], [18.004513, 49.069747], [18.004603, 49.069726], [18.007779, 49.068076], [18.014569, 49.066512], [18.018156, 49.062597], [18.019243, 49.059271], [18.01919, 49.057265], [18.019249, 49.056552], [18.019389, 49.055938], [18.023134, 49.054853], [18.023559, 49.054554], [18.024493, 49.053925], [18.025044, 49.053611], [18.027867, 49.049038], [18.025544, 49.0438], [18.02423, 49.042826], [18.022844, 49.040909], [18.024206, 49.040298], [18.025929, 49.039653], [18.026331, 49.039743], [18.027001, 49.040103], [18.028582, 49.041493], [18.037226, 49.041908], [18.039377, 49.040765], [18.039553, 49.040645], [18.040777, 49.03968], [18.041375, 49.039281], [18.041899, 49.038991], [18.043306, 49.038316], [18.043711, 49.038214], [18.048126, 49.036482], [18.051412, 49.031486], [18.051493, 49.031186], [18.051983, 49.027898], [18.052448, 49.027411], [18.055804, 49.023757], [18.061167, 49.025848], [18.069007, 49.023949], [18.069529, 49.023643], [18.075178, 49.020983], [18.076019, 49.020418], [18.078027, 49.023406], [18.075766, 49.025378], [18.073373, 49.026508], [18.07058, 49.027384], [18.07161, 49.036163], [18.072199, 49.036633], [18.072695, 49.037484], [18.074049, 49.04017], [18.071598, 49.042807], [18.065125, 49.038983], [18.061588, 49.037349], [18.053111, 49.039443], [18.050734, 49.041052], [18.050125, 49.041345], [18.048355, 49.041857], [18.047636, 49.042141], [18.047157, 49.042276], [18.046655, 49.042357], [18.046206, 49.051265], [18.046168, 49.054865], [18.049595, 49.060608], [18.050385, 49.064156], [18.052636, 49.072361], [18.055003, 49.0792], [18.056275, 49.082568], [18.055423, 49.082938], [18.055102, 49.083053], [18.054518, 49.083184], [18.053802, 49.083258], [18.052919, 49.083275], [18.052607, 49.083295], [18.051788, 49.083372], [18.051389, 49.08338], [18.050772, 49.083306], [18.049504, 49.082871], [18.048281, 49.082516], [18.046746, 49.082344], [18.046295, 49.08226], [18.045872, 49.082147], [18.038105, 49.085404], [18.037163, 49.089974], [18.040755, 49.095336], [18.041405, 49.095817], [18.041797, 49.096221], [18.044156, 49.098381], [18.044584, 49.098698], [18.044978, 49.099042], [18.046356, 49.100875], [18.054343, 49.102581], [18.055625, 49.101537], [18.056387, 49.100993], [18.064354, 49.103316], [18.067731, 49.10207], [18.074788, 49.103192], [18.078359, 49.100784], [18.080458, 49.096051], [18.084052, 49.096266], [18.085343, 49.097651], [18.086238, 49.101138], [18.085631, 49.104699], [18.085625, 49.109646], [18.088639, 49.11493], [18.092093, 49.122615], [18.098679, 49.124707], [18.099491, 49.124634], [18.103191, 49.123817], [18.103754, 49.123674], [18.104234, 49.123679], [18.10433, 49.123693], [18.105008, 49.125903], [18.105125, 49.126966], [18.104474, 49.128137], [18.103737, 49.128561], [18.103329, 49.128664], [18.102758, 49.128706], [18.099862, 49.1295], [18.099195, 49.129304], [18.093634, 49.135563], [18.09836, 49.138381], [18.099353, 49.138622], [18.100521, 49.139603], [18.100914, 49.139926], [18.103351, 49.14326], [18.11026, 49.145732], [18.110627, 49.145952], [18.112143, 49.147421], [18.112523, 49.147869], [18.113427, 49.149447], [18.113399, 49.153047], [18.108304, 49.157525], [18.111363, 49.163151], [18.111424, 49.163774], [18.111336, 49.164983], [18.111135, 49.166745], [18.11051, 49.167657], [18.111746, 49.176274], [18.11355, 49.177291], [18.115289, 49.178273], [18.116999, 49.178986], [18.12435, 49.178868], [18.131117, 49.175705], [18.136892, 49.170692], [18.137535, 49.16763], [18.137855, 49.166876], [18.138191, 49.166491], [18.138679, 49.166147], [18.139205, 49.16596], [18.144758, 49.163527], [18.152332, 49.165282], [18.154026, 49.165557], [18.157407, 49.166794], [18.163898, 49.168155], [18.165013, 49.168408], [18.166681, 49.169576], [18.167266, 49.17032], [18.167471, 49.170877], [18.167558, 49.171345], [18.167521, 49.172197], [18.167419, 49.173075], [18.167052, 49.174259], [18.166779, 49.174585], [18.164064, 49.180963], [18.161563, 49.188373], [18.16846, 49.189803], [18.170189, 49.189293], [18.171852, 49.188596], [18.172441, 49.189517], [18.180687, 49.191108], [18.18216, 49.191852], [18.18962, 49.193822], [18.19006, 49.193862], [18.19362, 49.195614], [18.196419, 49.196795], [18.196474, 49.198118], [18.196425, 49.198525], [18.19577, 49.200336], [18.195758, 49.200334], [18.193255, 49.199457], [18.189087, 49.198512], [18.185502, 49.198178], [18.182084, 49.198044], [18.177377, 49.196978], [18.172275, 49.200411], [18.171913, 49.200895], [18.170186, 49.20722], [18.163478, 49.210706], [18.16314, 49.210636], [18.162266, 49.210406], [18.161944, 49.210037], [18.160966, 49.208592], [18.161119, 49.207933], [18.16174, 49.206021], [18.163076, 49.203301], [18.163292, 49.202764], [18.163436, 49.194976], [18.159499, 49.193142], [18.158758, 49.19273], [18.154656, 49.191239], [18.154275, 49.191147], [18.153829, 49.190994], [18.151986, 49.189751], [18.15052, 49.189199], [18.149764, 49.189023], [18.14734, 49.188459], [18.145371, 49.188556], [18.144631, 49.188734], [18.141039, 49.190421], [18.142627, 49.198737], [18.143966, 49.202079], [18.142117, 49.206924], [18.141618, 49.206812], [18.135637, 49.208283], [18.135298, 49.216209], [18.134461, 49.219711], [18.141426, 49.224745], [18.142638, 49.22465], [18.143835, 49.224665], [18.146907, 49.224221], [18.148057, 49.224267], [18.148305, 49.227858], [18.146492, 49.232404], [18.146273, 49.232947], [18.145851, 49.2335], [18.145086, 49.23408], [18.14399, 49.234886], [18.144516, 49.243836], [18.144812, 49.244152], [18.145202, 49.24475], [18.145511, 49.245619], [18.148095, 49.253618], [18.149096, 49.254511], [18.149509, 49.255358], [18.149649, 49.255964], [18.146141, 49.256774], [18.143626, 49.255643], [18.142728, 49.255292], [18.14177, 49.254825], [18.139862, 49.254252], [18.137227, 49.253929], [18.136691, 49.253828], [18.134261, 49.253526], [18.131814, 49.249588], [18.131376, 49.249175], [18.130983, 49.248393], [18.130862, 49.247965], [18.121924, 49.247748], [18.117961, 49.253475], [18.115805, 49.256358], [18.115356, 49.256022], [18.113076, 49.254884], [18.112391, 49.254632], [18.108338, 49.254652], [18.104588, 49.262707], [18.107013, 49.267399], [18.107585, 49.267869], [18.113561, 49.269599], [18.114278, 49.269455], [18.114506, 49.269442], [18.115063, 49.26944], [18.115509, 49.269469], [18.116602, 49.269586], [18.11676, 49.269594], [18.119253, 49.26924], [18.119998, 49.269041], [18.12304, 49.267933], [18.126199, 49.266946], [18.131055, 49.269819], [18.133032, 49.269977], [18.133663, 49.270129], [18.134661, 49.270276], [18.135306, 49.270453], [18.14014, 49.270775], [18.141442, 49.270561], [18.142472, 49.270302], [18.1432, 49.270172], [18.149771, 49.274257], [18.150885, 49.274327], [18.15127, 49.276863], [18.150412, 49.278506], [18.150031, 49.278701], [18.145211, 49.280111], [18.141912, 49.282509], [18.141251, 49.283023], [18.140135, 49.283799], [18.139165, 49.28452], [18.137778, 49.28631], [18.134203, 49.289438], [18.133885, 49.290112], [18.132674, 49.29138], [18.132533, 49.291563], [18.132221, 49.291887], [18.131306, 49.293165], [18.135417, 49.300975], [18.136726, 49.301003], [18.142369, 49.298043], [18.142696, 49.297488], [18.143132, 49.296992], [18.144388, 49.295232], [18.144739, 49.294383], [18.145091, 49.293849], [18.145515, 49.293365], [18.145775, 49.29315], [18.148066, 49.295734], [18.149295, 49.300057], [18.150635, 49.303398], [18.15005, 49.303706], [18.149614, 49.303901], [18.148938, 49.30404], [18.148157, 49.304015], [18.147693, 49.303997], [18.147001, 49.303904], [18.144934, 49.304037], [18.143942, 49.304316], [18.143909, 49.312988], [18.145658, 49.313426], [18.152901, 49.313386], [18.153902, 49.312857], [18.154407, 49.312653], [18.154847, 49.312421], [18.156172, 49.311576], [18.156716, 49.31131], [18.157301, 49.311073], [18.157995, 49.310864], [18.158463, 49.310775], [18.160701, 49.310302], [18.162267, 49.309684], [18.167017, 49.305331], [18.170616, 49.30543], [18.170578, 49.306787], [18.170371, 49.30787], [18.170079, 49.308653], [18.169524, 49.309674], [18.169094, 49.310365], [18.168601, 49.310969], [18.168035, 49.311501], [18.16645, 49.312353], [18.165168, 49.320977], [18.171237, 49.32432], [18.172857, 49.326569], [18.178377, 49.330664], [18.178934, 49.331097], [18.179005, 49.331179], [18.180055, 49.33241], [18.180131, 49.335112], [18.18007, 49.33517], [18.178197, 49.335494], [18.17796, 49.335351], [18.176294, 49.333546], [18.172574, 49.331855], [18.165157, 49.334356], [18.164506, 49.335056], [18.163828, 49.335488], [18.16355, 49.335553], [18.16025, 49.334454], [18.16033, 49.334094], [18.160921, 49.330445], [18.154317, 49.324463], [18.149353, 49.325335], [18.141008, 49.32689], [18.140086, 49.327728], [18.131772, 49.328292], [18.126187, 49.331701], [18.12495, 49.332745], [18.123435, 49.334225], [18.122483, 49.335083], [18.118009, 49.339454], [18.114415, 49.339238], [18.114361, 49.339161], [18.11424, 49.338442], [18.114405, 49.336354], [18.114701, 49.334991], [18.114803, 49.334843], [18.117537, 49.333225], [18.118504, 49.332619], [18.121317, 49.330861], [18.12237, 49.330036], [18.12405, 49.328398], [18.124599, 49.327729], [18.124984, 49.327086], [18.125417, 49.326318], [18.126133, 49.32573], [18.126895, 49.325344], [18.128778, 49.324852], [18.131248, 49.323809], [18.131928, 49.32352], [18.134109, 49.322054], [18.133148, 49.314547], [18.12971, 49.313181], [18.121699, 49.316327], [18.120831, 49.317532], [18.120507, 49.318045], [18.117931, 49.319898], [18.117178, 49.320179], [18.11588, 49.320462], [18.115327, 49.316905], [18.110536, 49.310187], [18.104831, 49.308509], [18.100772, 49.313503], [18.10074, 49.314903], [18.100559, 49.315286], [18.099657, 49.316203], [18.09791, 49.32485], [18.0999, 49.329347], [18.099669, 49.33294], [18.096153, 49.335967], [18.0916, 49.339695], [18.090572, 49.340442], [18.090218, 49.340665], [18.08947, 49.340998], [18.087378, 49.341678], [18.085689, 49.341479], [18.085157, 49.34149], [18.084018, 49.341425], [18.083443, 49.341427], [18.08215, 49.341321], [18.076064, 49.347389], [18.078527, 49.352592], [18.078963, 49.353317], [18.07929, 49.35416], [18.079434, 49.354905], [18.079378, 49.356294], [18.076542, 49.358551], [18.070632, 49.361875], [18.07017, 49.369933], [18.076477, 49.37279], [18.07735, 49.372648], [18.077872, 49.372518], [18.078659, 49.372282], [18.079169, 49.372217], [18.079836, 49.372205], [18.085237, 49.369973], [18.086113, 49.369566], [18.08651, 49.369492], [18.087503, 49.369287], [18.088078, 49.369285], [18.091806, 49.368649], [18.092127, 49.368799], [18.092941, 49.369269], [18.094181, 49.370172], [18.094573, 49.370427], [18.095286, 49.371111], [18.09688, 49.372568], [18.097376, 49.373157], [18.097761, 49.377886], [18.097967, 49.379588], [18.098013, 49.381188], [18.098016, 49.382126], [18.09798, 49.38237], [18.094419, 49.381838], [18.087332, 49.383208], [18.082976, 49.388632], [18.083868, 49.39212], [18.081498, 49.395803], [18.082989, 49.40273], [18.083365, 49.403947], [18.083408, 49.404093], [18.083473, 49.404416], [18.079966, 49.405226], [18.072995, 49.407984], [18.070704, 49.408726], [18.06996, 49.409023], [18.069375, 49.409187], [18.068861, 49.418083], [18.069263, 49.418388], [18.074836, 49.419258], [18.077303, 49.41836], [18.078297, 49.418716], [18.082154, 49.420805], [18.08236, 49.420912], [18.082363, 49.423872], [18.082274, 49.423935], [18.080699, 49.424106], [18.075739, 49.42391], [18.074748, 49.423946], [18.071665, 49.424101], [18.06425, 49.426023], [18.061333, 49.426951], [18.057208, 49.43252], [18.053187, 49.432125], [18.052712, 49.427454], [18.052731, 49.426141], [18.050833, 49.420059], [18.046879, 49.419142], [18.045766, 49.419449], [18.043363, 49.418677], [18.036248, 49.421298], [18.035773, 49.421741], [18.03535, 49.422023], [18.034854, 49.422263], [18.034175, 49.422463], [18.032939, 49.422635], [18.024756, 49.42595], [18.021335, 49.427748], [18.018533, 49.427446], [18.016535, 49.427348], [18.016085, 49.426334], [18.008367, 49.423046], [18.007595, 49.423102], [18.006704, 49.422807], [18.006097, 49.422277], [17.998111, 49.418285], [17.99588, 49.419111], [17.992179, 49.426076], [17.990977, 49.426267], [17.990483, 49.426359], [17.988881, 49.435156], [17.989207, 49.43784], [17.989064, 49.438752], [17.983868, 49.442614], [17.983352, 49.448966], [17.988615, 49.454008], [17.988687, 49.457607], [17.98819, 49.462667], [17.988112, 49.466266], [17.981482, 49.471252], [17.977899, 49.473028], [17.974414, 49.473813], [17.972443, 49.473837], [17.972086, 49.473766], [17.969572, 49.472044], [17.962721, 49.471159], [17.961336, 49.470227], [17.959984, 49.468106], [17.960013, 49.467968], [17.962498, 49.465052], [17.962741, 49.464717], [17.962868, 49.464555], [17.96324, 49.464387], [17.966381, 49.462663], [17.96706, 49.4618], [17.968772, 49.455539], [17.963474, 49.452947], [17.962345, 49.453267], [17.960323, 49.453332], [17.959635, 49.453419], [17.958383, 49.453394], [17.957638, 49.453214], [17.957453, 49.453146], [17.956065, 49.450677], [17.955776, 49.450132], [17.955896, 49.446061], [17.949299, 49.442143], [17.946294, 49.445949], [17.938636, 49.446481], [17.936936, 49.446858], [17.936522, 49.446959], [17.936125, 49.447012], [17.934666, 49.44619], [17.934285, 49.445994], [17.933887, 49.445753], [17.930214, 49.440909], [17.925366, 49.442426], [17.924446, 49.443325], [17.923754, 49.443538], [17.923393, 49.443576], [17.916696, 49.43876], [17.916154, 49.438709], [17.915249, 49.438259], [17.909499, 49.437639], [17.908889, 49.437743], [17.904938, 49.439459], [17.900362, 49.445735], [17.903994, 49.450194], [17.905866, 49.450906], [17.907318, 49.451577], [17.909108, 49.452074], [17.909737, 49.452273], [17.910325, 49.452525], [17.910684, 49.457869], [17.914977, 49.46154], [17.920642, 49.461221], [17.923625, 49.461379], [17.925461, 49.461058], [17.925845, 49.460992], [17.926344, 49.460983], [17.927016, 49.461087], [17.927633, 49.4613], [17.931618, 49.462218], [17.932126, 49.462248], [17.93299, 49.462334], [17.933703, 49.462462], [17.933063, 49.466005], [17.930185, 49.465908], [17.929797, 49.465885], [17.928521, 49.465671], [17.920856, 49.46814], [17.912315, 49.469909], [17.911745, 49.469549], [17.910695, 49.468725], [17.910344, 49.467666], [17.904855, 49.463199], [17.901982, 49.463643], [17.897938, 49.471361], [17.897992, 49.472616], [17.897913, 49.473082], [17.897592, 49.474944], [17.894778, 49.475031], [17.894108, 49.475025], [17.890422, 49.475409], [17.887009, 49.476553], [17.879333, 49.480279], [17.883325, 49.485608], [17.884003, 49.485858], [17.884545, 49.486266], [17.885454, 49.486766], [17.885857, 49.487053], [17.886659, 49.487662], [17.886952, 49.488108], [17.888081, 49.490969], [17.887767, 49.491104], [17.887369, 49.49129], [17.886513, 49.491471], [17.885917, 49.491449], [17.885227, 49.491267], [17.884499, 49.490776], [17.879505, 49.489079], [17.879041, 49.489049], [17.878559, 49.488948], [17.872974, 49.489795], [17.869091, 49.495781], [17.865869, 49.497387], [17.859844, 49.49466], [17.859311, 49.494582], [17.858824, 49.494481], [17.857923, 49.494125], [17.85615, 49.493227], [17.855502, 49.492799], [17.855005, 49.492291], [17.854136, 49.491448], [17.852148, 49.490193], [17.85184, 49.489891], [17.850383, 49.488321], [17.850063, 49.488013], [17.849663, 49.487402], [17.849143, 49.486354], [17.848631, 49.485518], [17.848216, 49.484927], [17.842876, 49.480997], [17.842424, 49.480949], [17.839985, 49.481229], [17.835849, 49.488663], [17.837119, 49.490249], [17.838079, 49.491266], [17.838243, 49.491405], [17.838871, 49.491877], [17.839357, 49.492377], [17.84003, 49.493434], [17.840223, 49.494006], [17.840369, 49.494534], [17.840732, 49.496168], [17.844573, 49.502331], [17.844606, 49.502363], [17.844725, 49.502534], [17.841139, 49.503676], [17.838528, 49.502099], [17.830473, 49.505994], [17.830426, 49.506394], [17.830352, 49.506683], [17.829744, 49.509212], [17.828037, 49.509594], [17.827546, 49.509057], [17.827466, 49.508946], [17.827142, 49.508497], [17.825823, 49.504949], [17.816869, 49.505457], [17.815952, 49.507826], [17.815821, 49.508581], [17.815594, 49.509084], [17.814965, 49.509835], [17.813341, 49.51099], [17.812713, 49.511356], [17.809557, 49.512401], [17.809288, 49.512541], [17.802376, 49.514056], [17.803253, 49.519852], [17.806491, 49.521397], [17.807006, 49.52153], [17.809622, 49.522554], [17.812447, 49.523676], [17.82045, 49.525957], [17.820963, 49.529521], [17.825806, 49.535342], [17.82891, 49.534969], [17.832094, 49.534589], [17.84004, 49.531663], [17.842397, 49.527283], [17.843064, 49.524685], [17.843862, 49.523718], [17.844902, 49.523056], [17.845114, 49.522905], [17.847197, 49.52187], [17.849133, 49.520777], [17.850443, 49.520442], [17.851145, 49.520231], [17.851601, 49.520121], [17.852684, 49.519793], [17.854414, 49.519285], [17.859676, 49.520225], [17.866239, 49.524061], [17.874619, 49.525467], [17.877667, 49.52445], [17.882266, 49.519109], [17.882832, 49.513497], [17.884086, 49.510123], [17.890256, 49.509422], [17.890709, 49.509224], [17.893147, 49.512247], [17.898826, 49.51733], [17.901838, 49.516271], [17.90485, 49.515212], [17.907861, 49.514152], [17.911155, 49.512995], [17.918229, 49.509348], [17.926352, 49.5077], [17.926606, 49.507619], [17.927706, 49.511047], [17.932668, 49.518165], [17.935044, 49.522193], [17.933069, 49.525203], [17.932078, 49.526345], [17.930508, 49.529585], [17.930329, 49.529664], [17.927079, 49.534672], [17.932121, 49.540565], [17.935114, 49.539356], [17.936889, 49.537674], [17.937015, 49.537613], [17.937719, 49.537302], [17.938237, 49.53731], [17.939349, 49.537386], [17.940007, 49.538619], [17.940751, 49.540093], [17.940924, 49.540532], [17.939173, 49.541567], [17.937935, 49.54253], [17.936454, 49.542697], [17.933469, 49.543903], [17.931732, 49.545612], [17.932787, 49.553829], [17.934723, 49.555874], [17.935291, 49.556362], [17.93722, 49.557551], [17.938871, 49.558514], [17.946448, 49.559758], [17.952385, 49.557336], [17.952694, 49.557077], [17.95302, 49.556824], [17.954144, 49.556734], [17.954468, 49.556812], [17.954674, 49.556881], [17.954703, 49.557062], [17.955225, 49.55967], [17.954009, 49.564925], [17.961568, 49.569368], [17.961686, 49.56934], [17.966659, 49.56593], [17.967455, 49.563638], [17.968013, 49.563147], [17.96956, 49.562223], [17.973243, 49.560033], [17.973984, 49.559823], [17.974634, 49.55968], [17.983183, 49.557377], [17.983688, 49.557237], [17.985589, 49.558263], [17.992283, 49.56285], [17.994602, 49.565337], [17.995039, 49.565933], [17.992135, 49.568061], [17.991071, 49.567308], [17.990689, 49.567097], [17.983091, 49.568985], [17.982761, 49.57257], [17.980231, 49.578082], [17.983087, 49.583071], [17.987046, 49.584454], [17.98865, 49.584334], [17.990465, 49.584195], [17.990885, 49.584163], [17.992868, 49.584013], [17.995022, 49.583837], [17.995213, 49.583821], [17.997341, 49.583657], [17.99748, 49.583646], [17.997993, 49.583651], [18.002859, 49.582396], [18.004648, 49.583129], [18.006745, 49.584975], [18.008124, 49.586772], [18.008204, 49.589267], [18.013159, 49.596632], [18.019441, 49.60195], [18.025522, 49.601905], [18.031223, 49.602834], [18.034315, 49.604677], [18.040129, 49.606735], [18.043882, 49.607041], [18.050273, 49.606987], [18.055461, 49.604666], [18.057859, 49.607351], [18.058584, 49.611457], [18.058569, 49.61207], [18.058458, 49.612655], [18.053486, 49.612682], [18.04729, 49.610931], [18.043589, 49.610629], [18.039836, 49.610323], [18.036082, 49.610017], [18.032328, 49.60971], [18.024988, 49.609112], [18.017054, 49.608448], [18.015723, 49.60829], [18.015041, 49.60819], [18.013723, 49.607959], [18.012405, 49.60768], [18.004343, 49.61013], [18.003025, 49.610703], [17.998893, 49.612631], [17.997345, 49.6123], [17.996713, 49.611991], [17.996063, 49.610407], [17.99672, 49.60957], [17.998139, 49.607134], [17.995736, 49.6005], [17.994132, 49.599718], [17.99327, 49.59932], [17.992032, 49.598813], [17.990985, 49.598437], [17.990492, 49.598267], [17.989272, 49.597895], [17.988404, 49.597666], [17.987476, 49.597433], [17.984372, 49.59673], [17.983286, 49.596448], [17.982555, 49.596225], [17.981715, 49.595931], [17.980887, 49.595598], [17.980474, 49.595414], [17.972511, 49.595176], [17.970785, 49.595977], [17.970262, 49.596144], [17.96981, 49.596225], [17.967884, 49.596441], [17.964735, 49.59702], [17.961478, 49.598055], [17.96014, 49.597819], [17.959585, 49.597749], [17.959096, 49.59762], [17.95778, 49.597126], [17.957025, 49.596771], [17.956501, 49.596393], [17.956373, 49.592916], [17.954157, 49.586028], [17.950229, 49.585244], [17.949243, 49.585368], [17.947078, 49.585925], [17.944776, 49.586511], [17.942474, 49.587098], [17.940172, 49.587684], [17.939278, 49.58822], [17.943002, 49.596242], [17.94452, 49.596745], [17.94713, 49.597335], [17.946336, 49.600847], [17.946285, 49.608344], [17.949317, 49.610503], [17.949496, 49.61198], [17.949592, 49.612523], [17.948284, 49.613952], [17.947869, 49.614086], [17.947558, 49.614111], [17.94475, 49.612784], [17.939359, 49.609752], [17.938172, 49.609375], [17.932534, 49.609447], [17.930868, 49.607151], [17.928357, 49.601652], [17.926171, 49.598301], [17.931684, 49.59655], [17.929219, 49.589082], [17.928513, 49.588818], [17.926561, 49.587791], [17.925971, 49.587514], [17.924384, 49.586964], [17.917641, 49.591043], [17.916105, 49.594299], [17.913766, 49.593309], [17.911586, 49.592683], [17.907549, 49.59284], [17.905233, 49.593252], [17.903515, 49.593606], [17.900614, 49.593906], [17.896364, 49.6001], [17.897276, 49.602353], [17.900434, 49.605153], [17.900618, 49.605278], [17.900821, 49.605455], [17.903391, 49.606968], [17.910073, 49.608414], [17.913652, 49.608242], [17.91622, 49.615155], [17.914714, 49.618425], [17.912629, 49.621613], [17.914425, 49.628395], [17.917343, 49.629679], [17.926213, 49.630868], [17.929333, 49.628782], [17.92937, 49.628775], [17.931723, 49.628159], [17.934077, 49.627543], [17.935877, 49.627072], [17.937677, 49.626601], [17.938589, 49.630084], [17.936707, 49.632542], [17.935972, 49.638378], [17.942197, 49.641027], [17.949857, 49.636514], [17.953291, 49.635433], [17.962158, 49.635669], [17.963226, 49.634361], [17.964526, 49.635312], [17.965154, 49.637938], [17.963478, 49.639351], [17.960198, 49.645445], [17.95593, 49.646227], [17.94825, 49.649546], [17.947782, 49.649836], [17.941647, 49.647717], [17.934148, 49.651077], [17.932602, 49.657841], [17.928931, 49.659644], [17.927333, 49.659731], [17.923207, 49.661454], [17.923752, 49.668771], [17.926261, 49.670452], [17.928105, 49.671752], [17.935336, 49.669601], [17.938333, 49.668901], [17.942619, 49.669082], [17.942992, 49.669285], [17.944511, 49.670443], [17.945772, 49.671498], [17.946943, 49.672567], [17.947603, 49.673481], [17.949086, 49.674969], [17.956882, 49.677047], [17.959001, 49.675895], [17.960906, 49.67368], [17.961453, 49.673213], [17.96187, 49.672929], [17.967373, 49.667095], [17.969716, 49.664362], [17.974856, 49.659761], [17.982437, 49.656571], [17.982052, 49.652624], [17.98336, 49.650768], [17.983807, 49.650335], [17.984342, 49.650039], [17.984936, 49.649817], [17.98648, 49.652331], [17.986798, 49.652898], [17.986813, 49.65495], [17.986732, 49.65558], [17.986477, 49.656283], [17.984905, 49.661546], [17.984783, 49.662289], [17.984577, 49.663068], [17.984272, 49.663857], [17.984067, 49.664281], [17.983649, 49.672705], [17.987774, 49.675582], [17.990601, 49.676083], [17.992065, 49.679373], [17.992404, 49.682174], [17.992936, 49.685734], [17.989962, 49.689391], [17.988325, 49.691617], [17.986719, 49.694086], [17.988837, 49.702284], [17.991024, 49.70266], [17.99294, 49.702258], [17.993212, 49.702145], [17.994522, 49.702389], [17.996663, 49.70232], [18.00034, 49.710522], [18.000622, 49.710746], [18.002637, 49.712277], [18.003506, 49.713041], [18.004731, 49.714161], [18.006721, 49.716249], [18.007725, 49.717021], [18.00941, 49.71888], [18.010542, 49.719953], [18.012607, 49.721888], [18.021304, 49.721373], [18.022001, 49.720578], [18.023968, 49.712152], [18.025743, 49.70902], [18.027767, 49.710168], [18.035426, 49.709247], [18.03657, 49.7087], [18.038123, 49.711948], [18.032338, 49.71813], [18.032049, 49.718425], [18.030528, 49.718951], [18.026012, 49.721394], [18.024762, 49.722888], [18.026769, 49.730967], [18.027802, 49.731455], [18.028638, 49.731803], [18.031581, 49.733055], [18.033839, 49.733964], [18.03533, 49.734493], [18.036513, 49.734892], [18.03795, 49.735355], [18.039148, 49.735721], [18.040357, 49.736065], [18.04355, 49.73687], [18.044773, 49.737153], [18.046438, 49.737513], [18.047793, 49.737787], [18.050616, 49.738306], [18.052859, 49.738653], [18.055, 49.738954], [18.056081, 49.739077], [18.057431, 49.739217], [18.063408, 49.739616], [18.065975, 49.739708], [18.068911, 49.739788], [18.071881, 49.73987], [18.073538, 49.739948], [18.074793, 49.740026], [18.079607, 49.740542], [18.081147, 49.740806], [18.081895, 49.740952], [18.083015, 49.741213], [18.083979, 49.74147], [18.085352, 49.741898], [18.086276, 49.742231], [18.08712, 49.74257], [18.087766, 49.742856], [18.086306, 49.746147], [18.078999, 49.74409], [18.074489, 49.743613], [18.073317, 49.743541], [18.071711, 49.743466], [18.068812, 49.743387], [18.065877, 49.743306], [18.06328, 49.743214], [18.057137, 49.742805], [18.05571, 49.742658], [18.054594, 49.742531], [18.052358, 49.742218], [18.050066, 49.741863], [18.047143, 49.741328], [18.045723, 49.741041], [18.044012, 49.740671], [18.042739, 49.740377], [18.039478, 49.739557], [18.038164, 49.739184], [18.036898, 49.738797], [18.035411, 49.738319], [18.034178, 49.737904], [18.032637, 49.737358], [18.030238, 49.736395], [18.027182, 49.735096], [18.026419, 49.734779], [18.025235, 49.734223], [18.016365, 49.73541], [18.015589, 49.735993], [18.012714, 49.73774], [18.011694, 49.738305], [18.011204, 49.738536], [18.010082, 49.738995], [18.009424, 49.739216], [18.004988, 49.740628], [18.003598, 49.737307], [18.004223, 49.737045], [18.005089, 49.736737], [18.008413, 49.735761], [18.008927, 49.735585], [18.009833, 49.735208], [18.010143, 49.735057], [18.010959, 49.734596], [18.011506, 49.725693], [18.010147, 49.724517], [18.008064, 49.722565], [18.006892, 49.721453], [18.005557, 49.720147], [18.004241, 49.718859], [18.002134, 49.716856], [18.000262, 49.714983], [17.998384, 49.713566], [17.998102, 49.713342], [17.996658, 49.711955], [17.995178, 49.710851], [17.991415, 49.708203], [17.983141, 49.711728], [17.979586, 49.71125], [17.977495, 49.710004], [17.976445, 49.709376], [17.975711, 49.709004], [17.975323, 49.708783], [17.97445, 49.707983], [17.96585, 49.709747], [17.963127, 49.711878], [17.960408, 49.715187], [17.957925, 49.717794], [17.952378, 49.719114], [17.950092, 49.716333], [17.950972, 49.715609], [17.95195, 49.71496], [17.952866, 49.714296], [17.95339, 49.714002], [17.955839, 49.712184], [17.95688, 49.711637], [17.957948, 49.710767], [17.958406, 49.710405], [17.958896, 49.710103], [17.960743, 49.709135], [17.96097, 49.70897], [17.961336, 49.708755], [17.964305, 49.704236], [17.957899, 49.698711], [17.955872, 49.699767], [17.954874, 49.700233], [17.951866, 49.702374], [17.951198, 49.703006], [17.949995, 49.704151], [17.949161, 49.704619], [17.941185, 49.70667], [17.940106, 49.709752], [17.939576, 49.710306], [17.939033, 49.710827], [17.935458, 49.712806], [17.932809, 49.718894], [17.931783, 49.722345], [17.929688, 49.721722], [17.921814, 49.721308], [17.919168, 49.722365], [17.916391, 49.723328], [17.91498, 49.723713], [17.913557, 49.724062], [17.912284, 49.724281], [17.911673, 49.720734], [17.915496, 49.714082], [17.915122, 49.707691], [17.914923, 49.706254], [17.916236, 49.7033], [17.916858, 49.702105], [17.918487, 49.700236], [17.923954, 49.696969], [17.931727, 49.695288], [17.932552, 49.694178], [17.933344, 49.688704], [17.933973, 49.687669], [17.931948, 49.679133], [17.931008, 49.678589], [17.928548, 49.676716], [17.926204, 49.674988], [17.923918, 49.673387], [17.921069, 49.671494], [17.914217, 49.670533], [17.909216, 49.67073], [17.905026, 49.672274], [17.904937, 49.672227], [17.903991, 49.670996], [17.902411, 49.668356], [17.902074, 49.665775], [17.897293, 49.658364], [17.895778, 49.657428], [17.89361, 49.656425], [17.891897, 49.655373], [17.889927, 49.654485], [17.882353, 49.657072], [17.882028, 49.659704], [17.880888, 49.659593], [17.880171, 49.659412], [17.879135, 49.658604], [17.877376, 49.657303], [17.873721, 49.655766], [17.872828, 49.655409], [17.8717, 49.654923], [17.869342, 49.654081], [17.86838, 49.653717], [17.868231, 49.653658], [17.866696, 49.652926], [17.865361, 49.652452], [17.863344, 49.652175], [17.862224, 49.651993], [17.861528, 49.651839], [17.861154, 49.651784], [17.854127, 49.65703], [17.85752, 49.663729], [17.85977, 49.665276], [17.859702, 49.665676], [17.859337, 49.6665], [17.858676, 49.66707], [17.858051, 49.667288], [17.853535, 49.670769], [17.853217, 49.679738], [17.85448, 49.681205], [17.851752, 49.683554], [17.847391, 49.680185], [17.846688, 49.679642], [17.844688, 49.677923], [17.843362, 49.676786], [17.835087, 49.67944], [17.833744, 49.680735], [17.833288, 49.680548], [17.832309, 49.679984], [17.830062, 49.67895], [17.823803, 49.676669], [17.82102, 49.67834], [17.819021, 49.679555], [17.81701, 49.680777], [17.816369, 49.681159], [17.814534, 49.68014], [17.814405, 49.67992], [17.814523, 49.678068], [17.817442, 49.674642], [17.815048, 49.666666], [17.81443, 49.665313], [17.814263, 49.664683], [17.814362, 49.663733], [17.815468, 49.661588], [17.816379, 49.655279], [17.816661, 49.654614], [17.817116, 49.6505], [17.817214, 49.650032], [17.817437, 49.646594], [17.817989, 49.646588], [17.822639, 49.639777], [17.819403, 49.637166], [17.812523, 49.636793], [17.811995, 49.637014], [17.807747, 49.641716], [17.807659, 49.643222], [17.805209, 49.644266], [17.799529, 49.643406], [17.79879, 49.639883], [17.792336, 49.634983], [17.790471, 49.635534], [17.789452, 49.632081], [17.7818, 49.632503], [17.78123, 49.633286], [17.779977, 49.634464], [17.777144, 49.639754], [17.776063, 49.642278], [17.775606, 49.643298], [17.775594, 49.643308], [17.772083, 49.644104], [17.771942, 49.643481], [17.772393, 49.641673], [17.772776, 49.640811], [17.773281, 49.639478], [17.773608, 49.636531], [17.775565, 49.633741], [17.778196, 49.628429], [17.778522, 49.625963], [17.778963, 49.624639], [17.776218, 49.617848], [17.77243, 49.616833], [17.77137, 49.616696], [17.770753, 49.616665], [17.769322, 49.616254], [17.767195, 49.614347], [17.766481, 49.612426], [17.761718, 49.605528], [17.760945, 49.605135], [17.759447, 49.603889], [17.758745, 49.602892], [17.753739, 49.597509], [17.751191, 49.596391], [17.74446, 49.596334], [17.743897, 49.596654], [17.741035, 49.604868], [17.742032, 49.605915], [17.743931, 49.607262], [17.748405, 49.614168], [17.749231, 49.614522], [17.749682, 49.614842], [17.75021, 49.615593], [17.750359, 49.616238], [17.750363, 49.616996], [17.751485, 49.622085], [17.756514, 49.624657], [17.758853, 49.627783], [17.758205, 49.6313], [17.758266, 49.632255], [17.758548, 49.634776], [17.758546, 49.635983], [17.758251, 49.636744], [17.757851, 49.637392], [17.757495, 49.637883], [17.756965, 49.638404], [17.755476, 49.639563], [17.752954, 49.647537], [17.75482, 49.649469], [17.755603, 49.650089], [17.757654, 49.651212], [17.758105, 49.651435], [17.759395, 49.65191], [17.760554, 49.652126], [17.761356, 49.652534], [17.761912, 49.65305], [17.762335, 49.653584], [17.762672, 49.654174], [17.761874, 49.662801], [17.762681, 49.666309], [17.761496, 49.666582], [17.761072, 49.666645], [17.760312, 49.666604], [17.757597, 49.666125], [17.755942, 49.666018], [17.754613, 49.665772], [17.748138, 49.671071], [17.746156, 49.674076], [17.744277, 49.672837], [17.736453, 49.673073], [17.732905, 49.672466], [17.730664, 49.667128], [17.729535, 49.664039], [17.729288, 49.662864], [17.72056, 49.663142], [17.716964, 49.662986], [17.710717, 49.659825], [17.705129, 49.664598], [17.704836, 49.665251], [17.704248, 49.672037], [17.704605, 49.673165], [17.704683, 49.673907], [17.704625, 49.674513], [17.70419, 49.677201], [17.70407, 49.677856], [17.703887, 49.67869], [17.703668, 49.679201], [17.703286, 49.679864], [17.700167, 49.678068], [17.700279, 49.67601], [17.700377, 49.671957], [17.692401, 49.670771], [17.691368, 49.671811], [17.689243, 49.672499], [17.688829, 49.671743], [17.688598, 49.671079], [17.68858, 49.670116], [17.688547, 49.669541], [17.689619, 49.667129], [17.69064, 49.664442], [17.69077, 49.663589], [17.690952, 49.663062], [17.692164, 49.658618], [17.692163, 49.658548], [17.692207, 49.65846], [17.692593, 49.65813], [17.693657, 49.657397], [17.698315, 49.656292], [17.701593, 49.651866], [17.701807, 49.650884], [17.702057, 49.650396], [17.703624, 49.645173], [17.703703, 49.644651], [17.703954, 49.643784], [17.704331, 49.642762], [17.705197, 49.638974], [17.701341, 49.633081], [17.70122, 49.630432], [17.701072, 49.628444], [17.701017, 49.628001], [17.701062, 49.626723], [17.701179, 49.625662], [17.701348, 49.624743], [17.700693, 49.619595], [17.700787, 49.616778], [17.700138, 49.613564], [17.69994, 49.612748], [17.699964, 49.611753], [17.703497, 49.612269], [17.710043, 49.607286], [17.708866, 49.601591], [17.701317, 49.59916], [17.699662, 49.599851], [17.698584, 49.60042], [17.697819, 49.600821], [17.697131, 49.601156], [17.694639, 49.602327], [17.69235, 49.603453], [17.690664, 49.604528], [17.689166, 49.605934], [17.686583, 49.610722], [17.685941, 49.613058], [17.685706, 49.621], [17.685949, 49.621754], [17.685899, 49.622838], [17.685581, 49.623657], [17.685066, 49.624486], [17.689648, 49.632095], [17.690894, 49.632297], [17.690699, 49.635892], [17.690161, 49.635863], [17.688678, 49.635697], [17.687866, 49.635615], [17.686352, 49.635353], [17.685471, 49.635242], [17.681465, 49.63577], [17.68045, 49.636092], [17.679491, 49.636452], [17.675969, 49.639908], [17.677979, 49.647681], [17.678252, 49.648146], [17.679792, 49.651253], [17.680579, 49.65294], [17.680637, 49.653196], [17.675693, 49.658001], [17.675107, 49.658328], [17.674207, 49.65844], [17.673879, 49.65839], [17.671492, 49.656748], [17.666022, 49.650194], [17.66529, 49.649891], [17.664531, 49.649454], [17.66392, 49.649035], [17.663037, 49.648353], [17.661957, 49.647563], [17.653608, 49.650438], [17.652794, 49.6527], [17.652722, 49.652932], [17.652041, 49.655957], [17.653296, 49.66248], [17.650785, 49.665059], [17.649104, 49.666521], [17.648156, 49.666946], [17.646773, 49.666103], [17.646601, 49.665226], [17.64641, 49.663121], [17.645849, 49.659708], [17.64539, 49.657423], [17.645525, 49.656132], [17.63805, 49.651869], [17.637663, 49.652072], [17.635522, 49.65304], [17.634819, 49.6533], [17.63215, 49.654337], [17.630664, 49.65333], [17.630018, 49.65248], [17.630228, 49.651293], [17.631136, 49.650719], [17.633156, 49.650025], [17.634234, 49.649678], [17.637668, 49.647427], [17.639463, 49.646001], [17.641762, 49.644257], [17.639399, 49.636284], [17.636315, 49.635137], [17.629325, 49.635336], [17.628213, 49.635844], [17.626551, 49.636206], [17.623644, 49.636795], [17.617113, 49.642438], [17.616827, 49.642807], [17.616085, 49.643964], [17.615477, 49.644837], [17.61409, 49.646545], [17.610927, 49.648266], [17.607782, 49.654426], [17.608803, 49.657425], [17.607633, 49.658044], [17.606473, 49.658531], [17.605898, 49.658769], [17.605281, 49.65892], [17.60451, 49.658967], [17.60399, 49.658929], [17.601454, 49.658092], [17.599319, 49.657424], [17.598929, 49.657307], [17.598473, 49.657117], [17.597795, 49.656619], [17.597245, 49.65597], [17.595968, 49.65469], [17.587928, 49.654055], [17.579746, 49.652863], [17.577631, 49.653018], [17.57503, 49.653046], [17.574616, 49.653074], [17.565887, 49.653625], [17.565007, 49.656649], [17.56471, 49.65689], [17.560327, 49.660117], [17.553083, 49.665429], [17.549886, 49.666301], [17.548612, 49.66614], [17.5454, 49.662997], [17.537887, 49.663404], [17.536583, 49.664182], [17.535856, 49.664525], [17.535251, 49.664755], [17.533976, 49.661388], [17.536441, 49.658795], [17.532928, 49.651625], [17.531523, 49.644179], [17.52857, 49.643274], [17.526344, 49.641943], [17.525704, 49.641659], [17.520743, 49.64028], [17.51777, 49.640055], [17.51484, 49.639832], [17.51191, 49.63961], [17.512183, 49.63602], [17.515113, 49.636242], [17.518042, 49.636465], [17.521016, 49.636691], [17.523989, 49.636916], [17.524966, 49.6372], [17.531277, 49.631109], [17.53471, 49.630208], [17.537059, 49.630191], [17.537758, 49.63004], [17.538674, 49.629946], [17.543628, 49.622957], [17.541366, 49.62039], [17.542489, 49.611864], [17.538931, 49.611322], [17.538737, 49.610963], [17.53553, 49.606224], [17.532549, 49.602015], [17.527763, 49.59914], [17.527154, 49.598484], [17.526678, 49.597867], [17.518859, 49.593695], [17.51643, 49.591038], [17.516788, 49.585419], [17.516523, 49.584528], [17.512277, 49.580332], [17.511232, 49.57979], [17.50393, 49.584241], [17.503067, 49.584466], [17.501429, 49.584925], [17.498191, 49.585998], [17.493612, 49.586787], [17.485998, 49.589132], [17.483116, 49.592104], [17.482485, 49.592636], [17.477512, 49.595568], [17.475051, 49.60398], [17.476052, 49.606805], [17.476689, 49.608226], [17.47678, 49.608366], [17.477001, 49.60887], [17.48565, 49.606516], [17.486999, 49.606814], [17.487332, 49.607012], [17.48801, 49.607405], [17.495607, 49.611227], [17.496937, 49.611649], [17.500805, 49.613533], [17.501196, 49.617112], [17.504549, 49.623031], [17.504562, 49.626631], [17.5037, 49.628811], [17.500004, 49.630467], [17.495972, 49.628391], [17.49484, 49.628169], [17.49373, 49.627803], [17.493082, 49.627617], [17.492033, 49.627203], [17.488092, 49.626489], [17.483944, 49.634299], [17.484106, 49.635024], [17.480593, 49.635811], [17.480425, 49.635617], [17.477795, 49.632645], [17.471232, 49.63135], [17.470782, 49.631454], [17.470042, 49.631434], [17.469377, 49.63123], [17.468705, 49.630898], [17.460351, 49.627917], [17.45963, 49.628468], [17.459352, 49.628612], [17.457701, 49.625412], [17.457872, 49.625028], [17.458114, 49.624483], [17.458511, 49.623874], [17.458932, 49.623421], [17.459686, 49.622896], [17.460379, 49.622581], [17.460926, 49.622411], [17.461428, 49.622315], [17.461835, 49.622267], [17.462585, 49.622248], [17.463142, 49.622272], [17.465799, 49.622481], [17.468401, 49.622686], [17.471949, 49.622951], [17.474319, 49.622446], [17.475053, 49.613725], [17.474497, 49.613092], [17.474048, 49.612171], [17.473743, 49.611113], [17.47192, 49.607688], [17.471485, 49.605949], [17.470667, 49.603215], [17.470158, 49.600796], [17.470066, 49.599167], [17.469529, 49.596462], [17.469112, 49.595399], [17.461808, 49.592573], [17.459979, 49.595673], [17.458841, 49.595506], [17.455774, 49.595249], [17.453329, 49.594506], [17.452744, 49.59431], [17.452156, 49.594103], [17.451513, 49.593888], [17.450885, 49.59367], [17.444427, 49.595841], [17.445946, 49.603234], [17.449104, 49.607056], [17.449353, 49.607195], [17.44945, 49.60732], [17.449321, 49.607438], [17.448464, 49.608032], [17.446689, 49.607383], [17.43904, 49.610912], [17.438098, 49.612511], [17.433055, 49.616441], [17.431162, 49.622753], [17.430181, 49.6237], [17.428951, 49.624816], [17.430303, 49.63304], [17.430858, 49.633428], [17.429849, 49.636071], [17.429599, 49.636155], [17.428797, 49.636379], [17.425235, 49.64464], [17.42519, 49.644671], [17.424461, 49.645003], [17.423855, 49.64514], [17.422682, 49.645265], [17.421715, 49.645377], [17.419663, 49.645649], [17.419299, 49.645713], [17.413601, 49.650124], [17.413399, 49.6531], [17.410963, 49.659023], [17.40968, 49.661156], [17.409541, 49.661224], [17.407462, 49.658185], [17.407728, 49.656691], [17.40797, 49.651811], [17.402807, 49.646877], [17.402395, 49.646683], [17.401911, 49.646399], [17.401265, 49.646046], [17.400589, 49.645624], [17.392271, 49.645119], [17.386303, 49.646935], [17.379091, 49.64518], [17.373122, 49.64429], [17.366262, 49.644138], [17.365414, 49.643245], [17.365249, 49.642883], [17.360607, 49.637499], [17.357331, 49.637243], [17.356414, 49.637356], [17.354175, 49.637513], [17.348028, 49.63613], [17.340298, 49.639881], [17.338111, 49.641197], [17.334494, 49.647813], [17.334463, 49.648078], [17.333877, 49.648868], [17.333375, 49.64923], [17.326176, 49.650494], [17.319789, 49.651451], [17.315615, 49.653417], [17.309504, 49.65563], [17.309476, 49.655626], [17.308019, 49.653437], [17.307957, 49.647001], [17.30731, 49.644957], [17.306667, 49.642924], [17.305674, 49.639852], [17.304678, 49.63677], [17.306247, 49.634412], [17.306672, 49.63438], [17.307117, 49.634425], [17.307495, 49.634523], [17.309989, 49.635472], [17.314403, 49.635282], [17.318765, 49.635156], [17.322195, 49.63344], [17.320843, 49.625615], [17.315722, 49.624267], [17.313845, 49.624079], [17.313364, 49.623974], [17.312919, 49.623811], [17.312591, 49.623649], [17.310505, 49.622507], [17.307745, 49.620999], [17.306171, 49.62013], [17.299295, 49.623921], [17.29972, 49.627365], [17.291516, 49.629424], [17.291177, 49.629679], [17.289967, 49.630752], [17.289378, 49.631471], [17.292106, 49.639858], [17.292116, 49.639908], [17.288584, 49.640604], [17.285648, 49.64058], [17.279935, 49.64098], [17.276554, 49.641274], [17.27456, 49.640858], [17.272971, 49.639574], [17.272912, 49.639407], [17.272953, 49.636749], [17.272957, 49.636679], [17.273234, 49.635825], [17.277689, 49.632822], [17.282513, 49.631407], [17.28303, 49.631148], [17.287165, 49.628491], [17.28877, 49.622624], [17.288777, 49.622497], [17.286473, 49.614746], [17.282359, 49.615306], [17.280422, 49.616293], [17.279865, 49.616455], [17.279301, 49.616482], [17.277354, 49.616373], [17.273755, 49.616278], [17.266276, 49.620513], [17.265994, 49.620688], [17.265441, 49.620938], [17.265023, 49.62107], [17.2646, 49.621166], [17.263913, 49.621236], [17.263409, 49.621229], [17.257924, 49.622664], [17.257657, 49.622603], [17.250041, 49.624197], [17.249122, 49.630491], [17.24286, 49.633092], [17.236103, 49.635017], [17.235522, 49.634689], [17.232936, 49.633307], [17.232741, 49.633003], [17.233622, 49.631433], [17.234492, 49.629857], [17.237781, 49.629655], [17.238731, 49.629421], [17.240365, 49.620677], [17.239907, 49.619124], [17.23961, 49.617157], [17.233285, 49.610969], [17.225931, 49.613276], [17.225165, 49.617337], [17.227518, 49.622441], [17.223491, 49.62561], [17.222631, 49.626879], [17.222187, 49.627615], [17.219106, 49.625753], [17.217761, 49.621471], [17.212461, 49.617338], [17.206479, 49.617748], [17.204778, 49.622816], [17.208997, 49.629833], [17.210249, 49.632015], [17.210975, 49.632843], [17.215295, 49.638184], [17.215963, 49.639588], [17.215997, 49.639757], [17.215488, 49.641779], [17.209789, 49.642903], [17.204653, 49.643446], [17.198074, 49.648857], [17.197924, 49.649084], [17.196916, 49.650878], [17.195542, 49.653785], [17.195263, 49.654344], [17.194941, 49.6549], [17.191826, 49.653096], [17.184027, 49.655519], [17.176291, 49.654066], [17.169482, 49.658051], [17.167723, 49.659567], [17.166322, 49.660053], [17.164791, 49.658575], [17.156815, 49.65626], [17.153756, 49.657341], [17.147086, 49.655523], [17.140435, 49.657878], [17.136894, 49.665843], [17.135065, 49.666889], [17.133639, 49.667473], [17.129836, 49.66499], [17.124616, 49.662684], [17.121591, 49.662783], [17.121335, 49.662837], [17.12078, 49.66285], [17.117626, 49.66335], [17.11034, 49.6685], [17.110927, 49.669727], [17.111397, 49.670412], [17.111612, 49.670869], [17.111788, 49.671428], [17.118824, 49.676343], [17.121312, 49.677065], [17.122761, 49.678621], [17.12378, 49.681667], [17.122865, 49.683942], [17.122097, 49.683976], [17.120751, 49.683686], [17.112316, 49.684036], [17.106733, 49.680977], [17.105481, 49.677602], [17.101902, 49.674728], [17.096448, 49.680218], [17.094167, 49.681955], [17.093205, 49.681781], [17.084819, 49.683566], [17.084128, 49.684248], [17.083476, 49.684963], [17.080238, 49.690362], [17.079202, 49.691042], [17.07531, 49.693433], [17.075291, 49.693443], [17.073779, 49.693471], [17.068163, 49.69303], [17.066452, 49.693074], [17.066325, 49.693078], [17.061149, 49.692528], [17.055293, 49.697889], [17.054625, 49.699037], [17.051259, 49.697555], [17.043406, 49.699056], [17.042364, 49.699927], [17.041009, 49.701018], [17.039027, 49.702504], [17.038199, 49.703106], [17.03735, 49.703696], [17.036512, 49.70427], [17.035082, 49.705212], [17.033626, 49.706129], [17.031385, 49.707474], [17.029793, 49.70837], [17.027665, 49.709511], [17.025251, 49.710715], [17.024, 49.71131], [17.022454, 49.708059]]], "type": "Polygon"}}], "metadata": {"attribution": "openrouteservice.org | OpenStreetMap contributors", "service": "isochrones", "timestamp": 1785652377185, "query": {"profile": "driving-car", "profileName": "driving-car", "locations": [[17.6696, 49.2237]], "range": [3600.0], "range_type": "time"}, "engine": {"version": "9.9.0", "build_date": "2026-06-12T10:08:58Z", "graph_date": "2026-07-26T12:04:00Z", "osm_date": "2026-07-20T00:00:00Z"}}}