{"type": "FeatureCollection", "bbox": [14.337748, 50.099024, 15.516581, 51.225098], "features": [{"type": "Feature", "properties": {"group_index": 0, "value": 3600.0, "center": [15.054016, 50.7670993]}, "geometry": {"coordinates": [[[14.485956, 51.1674], [14.486144, 51.167356], [14.489998, 51.166103], [14.493643, 51.165362], [14.497868, 51.16229], [14.500065, 51.153679], [14.500039, 51.153172], [14.500802, 51.152249], [14.501002, 51.152158], [14.501999, 51.151981], [14.505042, 51.151521], [14.505684, 51.151344], [14.507695, 51.142696], [14.501791, 51.138903], [14.500156, 51.139066], [14.499372, 51.139068], [14.498636, 51.139007], [14.497499, 51.138816], [14.49698, 51.138744], [14.496266, 51.1385], [14.495607, 51.137915], [14.495286, 51.137229], [14.495212, 51.136787], [14.495195, 51.136454], [14.497674, 51.135211], [14.504687, 51.133727], [14.505491, 51.133766], [14.506494, 51.134106], [14.510158, 51.134959], [14.51494, 51.135426], [14.521762, 51.131415], [14.522373, 51.127867], [14.522152, 51.122173], [14.522097, 51.119971], [14.522081, 51.119852], [14.5221, 51.119778], [14.522172, 51.119704], [14.522254, 51.119671], [14.523917, 51.119035], [14.524247, 51.119127], [14.525459, 51.11936], [14.526163, 51.119369], [14.528314, 51.119302], [14.527502, 51.110382], [14.526368, 51.109689], [14.52286, 51.109362], [14.52085, 51.110061], [14.520713, 51.110121], [14.519878, 51.110507], [14.519531, 51.110685], [14.518602, 51.111209], [14.518449, 51.111264], [14.517809, 51.111357], [14.517062, 51.111482], [14.515899, 51.1118], [14.515229, 51.112001], [14.514165, 51.112313], [14.513544, 51.112465], [14.513273, 51.112532], [14.513181, 51.112531], [14.514484, 51.108269], [14.511967, 51.103147], [14.506598, 51.10074], [14.501668, 51.101931], [14.498597, 51.102453], [14.494729, 51.101226], [14.492512, 51.100108], [14.491648, 51.099491], [14.491624, 51.099474], [14.493474, 51.096639], [14.493706, 51.096537], [14.49785, 51.095235], [14.498673, 51.095046], [14.50614, 51.093116], [14.511378, 51.091656], [14.51627, 51.087698], [14.521638, 51.080605], [14.514317, 51.075598], [14.513746, 51.075835], [14.510379, 51.077216], [14.509891, 51.077124], [14.509468, 51.076876], [14.501721, 51.072933], [14.501236, 51.073225], [14.500761, 51.073453], [14.500229, 51.073682], [14.494675, 51.071498], [14.492191, 51.071151], [14.490344, 51.070107], [14.489831, 51.06972], [14.490466, 51.067113], [14.493022, 51.058834], [14.493013, 51.055234], [14.495954, 51.054883], [14.498548, 51.054389], [14.499601, 51.054153], [14.505541, 51.050089], [14.506575, 51.047763], [14.506978, 51.043263], [14.506924, 51.042671], [14.508996, 51.039912], [14.511108, 51.03663], [14.511884, 51.035362], [14.512031, 51.035294], [14.518786, 51.030414], [14.52271, 51.025372], [14.526545, 51.023757], [14.529588, 51.023547], [14.530069, 51.0235], [14.536169, 51.021185], [14.538524, 51.0188], [14.53933, 51.018053], [14.540621, 51.016814], [14.541844, 51.015625], [14.542423, 51.015244], [14.542624, 51.015145], [14.544183, 51.014287], [14.544797, 51.014016], [14.545909, 51.013501], [14.549041, 51.015275], [14.548834, 51.01564], [14.548289, 51.016302], [14.547967, 51.016681], [14.550076, 51.024969], [14.551839, 51.025256], [14.552501, 51.025364], [14.558952, 51.024686], [14.561511, 51.022537], [14.562012, 51.016163], [14.561892, 51.015705], [14.56082, 51.012971], [14.560421, 51.011369], [14.560091, 51.009446], [14.561314, 51.003417], [14.558609, 50.995956], [14.556758, 50.995589], [14.555746, 50.995446], [14.554138, 50.99549], [14.553247, 50.995669], [14.552085, 50.996025], [14.55109, 50.996178], [14.550373, 50.99618], [14.548726, 50.996094], [14.546085, 50.996349], [14.544094, 50.996554], [14.543707, 50.99654], [14.543128, 50.996475], [14.54206, 50.996282], [14.540751, 50.996109], [14.538556, 50.995901], [14.534895, 50.996083], [14.534058, 50.996274], [14.533492, 50.996319], [14.530957, 50.996217], [14.529203, 50.996201], [14.526308, 50.996005], [14.518857, 50.99869], [14.512191, 50.996889], [14.504929, 50.997902], [14.504385, 50.998062], [14.503608, 50.998144], [14.501978, 50.998058], [14.500353, 50.99803], [14.499703, 50.994489], [14.500252, 50.994389], [14.50077, 50.99435], [14.506187, 50.993343], [14.508131, 50.99291], [14.510097, 50.992363], [14.512638, 50.991872], [14.515326, 50.991398], [14.515497, 50.991404], [14.520998, 50.991566], [14.52162, 50.991522], [14.522367, 50.991558], [14.523253, 50.991659], [14.523729, 50.991739], [14.525111, 50.992056], [14.526792, 50.992438], [14.529441, 50.992609], [14.534962, 50.98806], [14.537433, 50.988874], [14.539516, 50.989768], [14.541274, 50.991072], [14.54569, 50.992771], [14.550961, 50.989155], [14.554085, 50.98991], [14.558017, 50.988333], [14.558789, 50.988498], [14.560087, 50.988818], [14.56145, 50.989233], [14.568132, 50.985637], [14.566666, 50.981459], [14.565951, 50.979061], [14.565736, 50.978676], [14.565667, 50.97844], [14.558187, 50.974341], [14.556451, 50.975317], [14.55361, 50.976986], [14.552899, 50.977592], [14.551325, 50.978996], [14.550928, 50.979297], [14.550197, 50.97968], [14.54971, 50.979856], [14.548217, 50.978854], [14.545845, 50.971435], [14.544079, 50.969844], [14.536685, 50.964781], [14.535039, 50.964723], [14.529529, 50.966189], [14.527748, 50.967316], [14.525226, 50.968934], [14.523282, 50.965904], [14.526134, 50.959874], [14.526233, 50.959582], [14.528033, 50.958344], [14.528286, 50.958394], [14.532207, 50.958105], [14.534409, 50.950281], [14.533262, 50.948464], [14.5337, 50.9477], [14.534799, 50.946703], [14.539354, 50.941955], [14.537398, 50.936812], [14.535148, 50.935379], [14.530153, 50.93422], [14.52845, 50.933759], [14.525434, 50.933596], [14.524791, 50.933694], [14.517735, 50.938307], [14.517392, 50.938185], [14.510354, 50.936879], [14.509962, 50.931605], [14.511476, 50.928913], [14.507866, 50.922338], [14.506101, 50.92123], [14.49904, 50.917226], [14.497936, 50.915671], [14.497907, 50.915592], [14.497911, 50.913808], [14.501916, 50.908698], [14.501614, 50.904128], [14.500422, 50.899545], [14.500723, 50.899114], [14.500906, 50.898998], [14.50329, 50.897369], [14.506668, 50.894778], [14.508078, 50.892188], [14.508565, 50.889802], [14.509074, 50.88581], [14.501311, 50.884441], [14.495623, 50.886997], [14.492035, 50.887289], [14.485272, 50.887238], [14.481692, 50.887622], [14.474065, 50.886794], [14.468186, 50.885135], [14.464675, 50.885251], [14.463976, 50.881719], [14.466704, 50.88063], [14.467585, 50.880757], [14.468125, 50.880893], [14.47649, 50.87856], [14.477129, 50.877996], [14.479318, 50.876333], [14.483636, 50.875709], [14.486004, 50.875074], [14.487607, 50.874257], [14.488687, 50.87346], [14.487445, 50.86513], [14.483313, 50.865409], [14.483074, 50.86552], [14.479536, 50.866206], [14.479328, 50.866336], [14.478322, 50.866555], [14.477788, 50.866291], [14.477497, 50.865752], [14.475962, 50.860776], [14.472264, 50.854836], [14.469684, 50.852461], [14.470362, 50.851513], [14.468406, 50.842935], [14.467704, 50.842883], [14.467054, 50.842695], [14.466435, 50.842345], [14.465821, 50.841665], [14.465623, 50.841272], [14.465498, 50.840964], [14.468465, 50.839365], [14.468516, 50.839336], [14.468905, 50.839224], [14.469714, 50.838901], [14.470561, 50.838446], [14.471951, 50.837338], [14.473401, 50.828691], [14.472276, 50.828252], [14.471389, 50.827983], [14.470632, 50.827665], [14.469226, 50.827298], [14.463614, 50.828134], [14.462968, 50.82825], [14.462557, 50.828344], [14.461694, 50.827831], [14.456304, 50.826253], [14.455897, 50.826208], [14.455603, 50.826136], [14.455212, 50.826019], [14.452433, 50.822719], [14.451673, 50.822113], [14.446961, 50.819762], [14.44596, 50.819423], [14.445583, 50.819276], [14.443182, 50.818545], [14.440171, 50.818159], [14.434503, 50.819327], [14.431884, 50.820303], [14.429425, 50.828611], [14.431212, 50.831899], [14.430406, 50.832897], [14.428972, 50.835014], [14.428524, 50.835742], [14.427882, 50.836441], [14.427256, 50.837158], [14.427012, 50.83737], [14.426298, 50.83763], [14.425894, 50.837589], [14.424399, 50.836788], [14.424343, 50.836629], [14.424298, 50.835524], [14.424654, 50.83465], [14.424106, 50.828533], [14.418056, 50.827729], [14.417233, 50.828262], [14.416617, 50.828758], [14.414359, 50.825955], [14.407616, 50.821146], [14.406608, 50.821355], [14.405879, 50.81783], [14.400563, 50.812533], [14.397349, 50.812311], [14.395782, 50.812267], [14.393012, 50.810744], [14.386271, 50.80564], [14.384687, 50.805885], [14.381185, 50.807111], [14.377789, 50.806514], [14.376701, 50.806298], [14.371878, 50.805391], [14.371488, 50.802986], [14.371514, 50.802937], [14.37241, 50.801831], [14.373382, 50.801976], [14.374164, 50.802064], [14.374772, 50.802158], [14.377516, 50.802791], [14.379767, 50.802875], [14.382081, 50.802581], [14.382588, 50.794075], [14.380715, 50.793015], [14.378458, 50.792017], [14.37764, 50.791894], [14.376317, 50.791596], [14.375915, 50.791527], [14.373907, 50.791128], [14.373309, 50.790888], [14.372806, 50.790538], [14.368737, 50.788956], [14.368468, 50.788891], [14.367982, 50.788362], [14.367885, 50.788048], [14.367871, 50.787985], [14.36808, 50.783717], [14.368098, 50.783581], [14.370182, 50.782065], [14.375553, 50.779198], [14.376698, 50.778067], [14.379443, 50.777935], [14.381787, 50.776848], [14.382327, 50.77658], [14.382448, 50.767748], [14.381009, 50.766667], [14.379536, 50.765632], [14.379553, 50.765608], [14.384343, 50.763203], [14.385121, 50.763004], [14.385792, 50.762883], [14.386986, 50.762779], [14.388672, 50.763683], [14.389559, 50.764631], [14.389988, 50.765175], [14.391173, 50.766472], [14.391762, 50.76694], [14.392332, 50.767517], [14.400885, 50.765267], [14.405186, 50.763468], [14.405443, 50.754529], [14.403837, 50.752567], [14.403601, 50.752304], [14.40242, 50.750968], [14.402189, 50.750269], [14.402079, 50.748866], [14.395288, 50.743154], [14.394485, 50.743399], [14.389571, 50.74774], [14.386286, 50.749213], [14.38569, 50.74867], [14.384389, 50.747049], [14.37778, 50.745783], [14.375374, 50.747498], [14.375071, 50.747837], [14.373389, 50.751701], [14.373333, 50.752423], [14.373301, 50.753235], [14.373097, 50.754195], [14.372845, 50.754924], [14.369443, 50.753748], [14.369733, 50.752429], [14.364445, 50.746102], [14.362281, 50.745815], [14.361852, 50.745832], [14.361421, 50.745867], [14.360859, 50.745947], [14.360145, 50.74609], [14.358323, 50.746536], [14.3521, 50.750546], [14.351615, 50.751166], [14.351198, 50.751576], [14.350764, 50.751896], [14.348573, 50.753229], [14.348041, 50.753474], [14.346046, 50.754491], [14.345582, 50.754697], [14.345282, 50.754773], [14.340104, 50.75689], [14.338871, 50.756155], [14.337748, 50.753574], [14.338256, 50.751121], [14.338347, 50.751065], [14.340619, 50.751402], [14.343263, 50.751308], [14.349394, 50.74777], [14.351189, 50.745817], [14.352644, 50.744519], [14.353096, 50.74423], [14.353636, 50.74394], [14.354318, 50.743648], [14.354855, 50.743459], [14.355759, 50.743223], [14.356131, 50.743147], [14.356573, 50.743095], [14.359278, 50.742596], [14.360142, 50.742419], [14.360898, 50.742305], [14.361532, 50.742246], [14.36213, 50.742219], [14.362536, 50.742207], [14.363181, 50.742214], [14.363899, 50.742294], [14.365242, 50.742591], [14.368162, 50.743375], [14.368935, 50.743502], [14.37262, 50.74518], [14.378694, 50.739243], [14.373153, 50.732958], [14.373243, 50.72936], [14.378835, 50.723388], [14.378474, 50.719806], [14.38127, 50.716375], [14.385881, 50.714337], [14.392538, 50.708476], [14.392686, 50.70836], [14.393211, 50.708069], [14.394682, 50.707642], [14.39502, 50.707808], [14.397109, 50.708788], [14.399245, 50.709645], [14.401107, 50.71032], [14.401812, 50.712168], [14.403645, 50.715733], [14.406605, 50.720332], [14.40724, 50.722081], [14.408326, 50.725423], [14.414666, 50.729393], [14.415472, 50.729498], [14.416143, 50.729536], [14.416656, 50.729619], [14.417651, 50.729876], [14.420022, 50.730312], [14.424726, 50.723855], [14.425242, 50.723726], [14.428585, 50.72269], [14.432041, 50.714423], [14.431979, 50.713228], [14.435574, 50.713043], [14.436163, 50.714829], [14.436411, 50.715419], [14.437214, 50.718581], [14.437772, 50.720302], [14.443033, 50.727033], [14.444068, 50.727254], [14.444618, 50.727416], [14.445377, 50.727848], [14.453247, 50.729381], [14.459441, 50.727176], [14.462637, 50.725845], [14.462771, 50.7258], [14.465989, 50.724345], [14.466667, 50.724211], [14.470031, 50.723423], [14.471879, 50.722439], [14.473918, 50.72148], [14.475807, 50.712952], [14.473495, 50.711514], [14.472749, 50.711044], [14.46957, 50.70936], [14.468365, 50.70834], [14.465994, 50.705936], [14.464458, 50.704607], [14.462897, 50.703255], [14.461401, 50.701908], [14.453314, 50.698571], [14.452609, 50.698657], [14.446606, 50.700916], [14.445652, 50.701083], [14.445572, 50.701097], [14.445038, 50.701172], [14.444304, 50.701229], [14.438687, 50.697934], [14.434139, 50.698932], [14.432708, 50.699733], [14.432244, 50.699964], [14.430638, 50.696743], [14.433422, 50.694777], [14.434735, 50.694203], [14.44292, 50.691595], [14.450076, 50.692835], [14.453979, 50.690667], [14.454362, 50.690522], [14.454793, 50.690435], [14.455033, 50.690414], [14.461958, 50.689936], [14.469096, 50.690046], [14.471839, 50.689898], [14.474337, 50.69182], [14.473182, 50.695229], [14.46998, 50.69652], [14.470059, 50.704202], [14.470571, 50.704826], [14.474421, 50.707856], [14.479988, 50.709083], [14.480886, 50.709123], [14.482245, 50.709288], [14.484216, 50.709231], [14.485124, 50.709325], [14.492778, 50.708236], [14.49361, 50.707769], [14.49596, 50.70662], [14.496736, 50.706038], [14.498393, 50.7048], [14.502851, 50.698905], [14.503189, 50.69811], [14.503808, 50.697147], [14.5008, 50.689488], [14.496473, 50.690333], [14.49506, 50.690585], [14.49438, 50.6907], [14.493786, 50.690783], [14.493572, 50.689365], [14.493289, 50.687217], [14.494455, 50.687036], [14.495839, 50.686789], [14.500111, 50.685955], [14.506871, 50.683213], [14.512012, 50.679505], [14.516398, 50.672983], [14.516828, 50.671963], [14.519276, 50.669783], [14.519704, 50.669376], [14.520316, 50.668909], [14.520797, 50.668613], [14.521241, 50.668386], [14.524939, 50.660197], [14.524323, 50.65665], [14.522019, 50.649271], [14.521288, 50.645746], [14.526017, 50.638551], [14.524417, 50.635967], [14.524425, 50.635931], [14.526869, 50.635392], [14.527107, 50.635358], [14.534542, 50.630697], [14.534518, 50.630239], [14.534516, 50.629611], [14.537021, 50.629315], [14.537701, 50.629384], [14.538193, 50.629525], [14.538866, 50.633154], [14.537846, 50.635712], [14.539745, 50.643588], [14.540783, 50.64789], [14.548571, 50.650856], [14.550098, 50.650554], [14.551812, 50.651228], [14.558144, 50.65518], [14.55886, 50.65518], [14.559773, 50.655224], [14.560374, 50.655245], [14.560996, 50.655215], [14.562406, 50.655073], [14.564628, 50.655033], [14.565203, 50.655041], [14.570043, 50.647737], [14.564968, 50.645114], [14.564761, 50.645117], [14.560122, 50.642152], [14.559545, 50.642067], [14.558718, 50.641898], [14.558578, 50.64184], [14.556099, 50.639613], [14.556189, 50.639069], [14.556409, 50.638797], [14.556622, 50.638651], [14.561494, 50.637553], [14.568618, 50.632679], [14.570181, 50.632172], [14.574157, 50.630704], [14.576889, 50.631129], [14.578123, 50.63158], [14.580222, 50.632054], [14.587943, 50.629653], [14.588455, 50.629234], [14.593755, 50.623671], [14.594674, 50.62303], [14.598886, 50.615403], [14.59892, 50.615373], [14.600655, 50.614968], [14.602973, 50.61553], [14.604191, 50.615984], [14.604236, 50.616027], [14.608423, 50.621231], [14.608388, 50.621322], [14.605083, 50.625923], [14.597736, 50.628924], [14.59728, 50.629556], [14.598893, 50.638123], [14.604882, 50.63657], [14.60571, 50.636523], [14.608081, 50.636068], [14.608478, 50.635885], [14.609349, 50.635734], [14.610201, 50.635842], [14.617975, 50.635894], [14.618452, 50.635664], [14.62114, 50.63437], [14.621608, 50.634148], [14.623043, 50.633558], [14.628794, 50.626811], [14.629849, 50.625607], [14.631079, 50.625145], [14.631613, 50.625053], [14.633515, 50.628262], [14.641372, 50.631071], [14.643002, 50.631036], [14.64899, 50.629611], [14.651966, 50.626333], [14.655676, 50.626069], [14.66183, 50.623376], [14.662258, 50.616965], [14.661484, 50.615186], [14.660978, 50.613287], [14.661166, 50.612851], [14.661475, 50.612378], [14.661811, 50.612022], [14.664135, 50.603706], [14.657266, 50.599259], [14.652725, 50.600422], [14.65048, 50.601003], [14.646265, 50.602089], [14.644313, 50.602577], [14.64373, 50.602652], [14.643107, 50.602692], [14.640379, 50.602327], [14.63754, 50.60242], [14.634817, 50.599882], [14.627131, 50.598343], [14.625191, 50.595311], [14.626299, 50.594602], [14.631747, 50.58775], [14.632238, 50.587801], [14.632652, 50.588121], [14.636159, 50.59005], [14.639947, 50.593985], [14.642245, 50.596792], [14.649496, 50.595681], [14.65075, 50.592129], [14.653241, 50.589329], [14.653668, 50.588829], [14.654828, 50.587796], [14.655213, 50.58742], [14.662438, 50.582612], [14.65586, 50.577702], [14.652698, 50.575982], [14.648211, 50.574645], [14.646871, 50.574751], [14.646768, 50.574759], [14.642771, 50.575072], [14.640158, 50.572595], [14.636988, 50.565152], [14.631401, 50.559055], [14.632236, 50.555553], [14.633347, 50.555818], [14.640161, 50.550437], [14.643399, 50.548863], [14.643813, 50.549714], [14.650291, 50.554713], [14.652579, 50.555038], [14.657297, 50.554238], [14.659916, 50.552955], [14.663029, 50.55012], [14.663566, 50.549509], [14.664197, 50.548943], [14.66486, 50.548459], [14.666265, 50.547526], [14.669315, 50.543756], [14.669136, 50.538242], [14.66907, 50.537394], [14.669221, 50.536768], [14.669501, 50.535039], [14.662722, 50.529232], [14.661615, 50.529461], [14.660407, 50.529604], [14.659697, 50.52963], [14.659568, 50.526032], [14.663256, 50.523212], [14.664118, 50.523366], [14.664888, 50.523478], [14.665515, 50.523634], [14.666058, 50.523855], [14.672642, 50.522698], [14.670605, 50.515147], [14.670124, 50.514952], [14.668027, 50.514457], [14.666808, 50.514397], [14.666379, 50.514351], [14.66519, 50.514142], [14.665813, 50.510596], [14.66564, 50.503462], [14.666751, 50.500297], [14.670567, 50.49948], [14.676198, 50.498825], [14.678064, 50.497436], [14.676382, 50.489488], [14.676656, 50.489153], [14.674904, 50.480455], [14.674104, 50.479155], [14.674684, 50.476861], [14.675144, 50.475709], [14.675752, 50.475858], [14.676697, 50.476003], [14.677249, 50.476169], [14.679563, 50.477031], [14.685749, 50.479229], [14.691267, 50.47591], [14.691795, 50.475266], [14.692319, 50.474773], [14.69322, 50.474401], [14.695325, 50.474124], [14.695794, 50.477694], [14.702564, 50.48028], [14.703171, 50.480191], [14.703908, 50.480264], [14.707992, 50.480204], [14.711339, 50.47901], [14.714953, 50.473087], [14.714998, 50.473062], [14.715476, 50.472976], [14.715765, 50.472941], [14.716064, 50.473007], [14.719918, 50.472585], [14.723995, 50.465064], [14.716573, 50.461012], [14.716098, 50.461124], [14.715504, 50.461235], [14.71438, 50.461402], [14.713973, 50.461413], [14.713523, 50.461384], [14.713035, 50.461297], [14.710046, 50.461331], [14.708967, 50.461482], [14.708609, 50.46149], [14.708105, 50.461465], [14.705831, 50.461561], [14.699534, 50.465566], [14.69759, 50.465297], [14.697284, 50.465322], [14.696042, 50.465017], [14.694127, 50.46473], [14.691231, 50.46458], [14.69073, 50.464662], [14.690156, 50.464716], [14.690144, 50.464708], [14.684538, 50.463431], [14.684064, 50.46334], [14.683312, 50.463041], [14.682863, 50.46274], [14.682693, 50.462598], [14.681176, 50.461258], [14.67442, 50.458616], [14.672128, 50.45584], [14.672332, 50.455672], [14.672725, 50.45539], [14.67312, 50.45516], [14.674187, 50.45454], [14.677632, 50.4531], [14.677671, 50.453138], [14.677985, 50.453558], [14.678097, 50.453707], [14.678945, 50.454595], [14.680475, 50.455859], [14.682032, 50.457211], [14.689635, 50.459084], [14.689896, 50.459035], [14.692282, 50.458713], [14.692828, 50.458542], [14.693691, 50.458344], [14.694967, 50.458155], [14.695717, 50.458134], [14.697678, 50.458185], [14.699586, 50.458347], [14.700197, 50.458364], [14.701897, 50.458242], [14.7037, 50.458116], [14.705687, 50.457898], [14.706379, 50.457783], [14.706877, 50.457757], [14.707777, 50.457834], [14.709512, 50.457771], [14.712223, 50.457522], [14.717189, 50.450378], [14.716819, 50.449663], [14.716226, 50.448322], [14.716035, 50.447573], [14.716353, 50.446388], [14.716788, 50.438136], [14.715107, 50.436129], [14.707465, 50.434164], [14.706927, 50.434304], [14.702746, 50.435275], [14.698412, 50.436273], [14.697836, 50.436339], [14.696834, 50.436308], [14.696459, 50.436228], [14.68934, 50.438468], [14.687837, 50.443036], [14.687841, 50.443221], [14.68578, 50.444664], [14.685517, 50.444592], [14.684241, 50.443299], [14.682282, 50.441245], [14.682226, 50.437645], [14.677776, 50.431588], [14.67754, 50.427995], [14.679314, 50.427879], [14.680018, 50.427858], [14.680887, 50.427878], [14.681453, 50.427915], [14.685764, 50.427535], [14.691707, 50.421944], [14.692251, 50.420693], [14.694015, 50.421178], [14.694519, 50.421401], [14.695042, 50.421846], [14.695904, 50.422993], [14.696227, 50.423459], [14.696433, 50.424016], [14.696491, 50.424682], [14.701932, 50.431768], [14.706113, 50.430797], [14.707191, 50.430442], [14.707873, 50.430219], [14.709854, 50.429756], [14.710358, 50.429661], [14.711057, 50.429596], [14.712431, 50.429564], [14.713624, 50.429494], [14.714084, 50.429483], [14.717159, 50.43254], [14.718029, 50.434026], [14.719544, 50.435819], [14.724085, 50.438238], [14.730338, 50.438138], [14.730682, 50.43807], [14.733081, 50.437955], [14.735247, 50.437865], [14.737191, 50.437767], [14.74124, 50.438061], [14.745184, 50.438131], [14.75097, 50.444579], [14.752057, 50.444953], [14.757296, 50.446329], [14.758409, 50.446194], [14.759061, 50.446164], [14.759631, 50.446186], [14.76031, 50.446299], [14.761136, 50.446517], [14.762604, 50.446971], [14.768621, 50.445025], [14.76689, 50.436947], [14.766793, 50.436857], [14.764848, 50.435105], [14.757581, 50.431337], [14.756368, 50.431462], [14.755819, 50.431407], [14.755193, 50.431152], [14.754602, 50.430595], [14.754257, 50.429596], [14.754562, 50.428463], [14.755514, 50.425791], [14.760365, 50.420126], [14.761218, 50.418789], [14.762377, 50.417553], [14.762841, 50.417132], [14.7633, 50.416828], [14.763665, 50.41667], [14.765426, 50.416389], [14.766217, 50.416338], [14.766873, 50.416338], [14.768599, 50.416521], [14.772496, 50.416063], [14.778505, 50.41202], [14.780953, 50.411121], [14.783122, 50.402819], [14.781149, 50.400745], [14.776924, 50.398584], [14.774401, 50.395843], [14.773983, 50.395025], [14.773992, 50.394735], [14.774521, 50.391796], [14.774928, 50.391521], [14.775084, 50.391474], [14.775172, 50.39145], [14.775936, 50.391381], [14.778184, 50.392352], [14.7784, 50.39242], [14.77871, 50.392587], [14.779171, 50.392957], [14.77967, 50.393935], [14.784995, 50.398257], [14.785449, 50.398444], [14.793826, 50.399883], [14.79609, 50.39904], [14.803866, 50.396122], [14.806848, 50.39449], [14.812454, 50.39087], [14.814782, 50.391062], [14.818619, 50.391788], [14.820327, 50.391638], [14.820706, 50.391576], [14.825873, 50.390679], [14.826282, 50.390516], [14.827932, 50.38957], [14.830437, 50.38785], [14.830915, 50.387358], [14.832018, 50.386512], [14.833905, 50.385419], [14.834783, 50.384897], [14.835535, 50.384484], [14.83634, 50.384127], [14.839276, 50.381625], [14.839683, 50.381121], [14.839216, 50.372275], [14.833105, 50.37059], [14.829493, 50.370475], [14.825882, 50.37036], [14.820243, 50.377113], [14.8207, 50.377832], [14.819561, 50.378873], [14.81739, 50.379246], [14.817297, 50.379181], [14.817047, 50.379016], [14.815873, 50.378223], [14.813546, 50.37661], [14.813046, 50.376246], [14.812278, 50.375454], [14.811662, 50.374472], [14.806012, 50.369732], [14.803299, 50.369647], [14.795207, 50.3713], [14.789928, 50.376659], [14.789553, 50.377097], [14.789293, 50.377318], [14.788768, 50.377708], [14.788161, 50.378063], [14.787742, 50.378246], [14.784943, 50.379607], [14.783131, 50.380859], [14.78266, 50.381063], [14.782199, 50.381184], [14.781526, 50.381277], [14.780382, 50.381339], [14.778135, 50.381687], [14.777706, 50.381856], [14.777195, 50.381958], [14.773261, 50.382219], [14.769068, 50.382479], [14.7671, 50.382326], [14.762108, 50.382921], [14.75984, 50.383677], [14.757571, 50.384433], [14.755402, 50.385153], [14.752313, 50.386385], [14.747898, 50.390942], [14.747429, 50.391707], [14.747, 50.392163], [14.745111, 50.393927], [14.743247, 50.395668], [14.741355, 50.398059], [14.740604, 50.399257], [14.74004, 50.400292], [14.738056, 50.404154], [14.737627, 50.404944], [14.736694, 50.406086], [14.735237, 50.407388], [14.733861, 50.408282], [14.73087, 50.4106], [14.729908, 50.411472], [14.728616, 50.412546], [14.724462, 50.418045], [14.724027, 50.418849], [14.723659, 50.41923], [14.71874, 50.418105], [14.717519, 50.417652], [14.713853, 50.415651], [14.713097, 50.41531], [14.712599, 50.413921], [14.712868, 50.413052], [14.715036, 50.412277], [14.71547, 50.412345], [14.716178, 50.412475], [14.716858, 50.41267], [14.725066, 50.410546], [14.726494, 50.409638], [14.7276, 50.408709], [14.729288, 50.406482], [14.729827, 50.40548], [14.735012, 50.4014], [14.736009, 50.399919], [14.737009, 50.398349], [14.737437, 50.397547], [14.731269, 50.391313], [14.729011, 50.392848], [14.726622, 50.394464], [14.725257, 50.39523], [14.723495, 50.39209], [14.715813, 50.390715], [14.714768, 50.389606], [14.714067, 50.388912], [14.706185, 50.387635], [14.705018, 50.388481], [14.704476, 50.388785], [14.702674, 50.389603], [14.701856, 50.390057], [14.70011, 50.386908], [14.700928, 50.386454], [14.702979, 50.385511], [14.706346, 50.378769], [14.706768, 50.370947], [14.706406, 50.369875], [14.706326, 50.368947], [14.70642, 50.367423], [14.704153, 50.361412], [14.701947, 50.359774], [14.701175, 50.358937], [14.692765, 50.361507], [14.692709, 50.362039], [14.693891, 50.365601], [14.694546, 50.366858], [14.694689, 50.367342], [14.694795, 50.368019], [14.694798, 50.368621], [14.694663, 50.369846], [14.694394, 50.370532], [14.693666, 50.371711], [14.692154, 50.373265], [14.690727, 50.374726], [14.689388, 50.376304], [14.688741, 50.377174], [14.687513, 50.378533], [14.687013, 50.378947], [14.686533, 50.379295], [14.685919, 50.379677], [14.682424, 50.382517], [14.680331, 50.390153], [14.679007, 50.390586], [14.678238, 50.390756], [14.674047, 50.392048], [14.671556, 50.39203], [14.671035, 50.391945], [14.670047, 50.390155], [14.67005, 50.390098], [14.670607, 50.389238], [14.670722, 50.389109], [14.671611, 50.388392], [14.676968, 50.384013], [14.670933, 50.377873], [14.670306, 50.377823], [14.669507, 50.377709], [14.667933, 50.377394], [14.666773, 50.377331], [14.666288, 50.377348], [14.666058, 50.377333], [14.66521, 50.375696], [14.665154, 50.375282], [14.665799, 50.373742], [14.665894, 50.373736], [14.66655, 50.373708], [14.668412, 50.373827], [14.670205, 50.374177], [14.671204, 50.374284], [14.673825, 50.374396], [14.676505, 50.374512], [14.677137, 50.374588], [14.677945, 50.374837], [14.678301, 50.374997], [14.686484, 50.374176], [14.687978, 50.372402], [14.68934, 50.364856], [14.68919, 50.364054], [14.689074, 50.362595], [14.689121, 50.361747], [14.689185, 50.361133], [14.689338, 50.360245], [14.689653, 50.358736], [14.690129, 50.356636], [14.690235, 50.355684], [14.684026, 50.350692], [14.68125, 50.352559], [14.678747, 50.353276], [14.670211, 50.353599], [14.66769, 50.356048], [14.66705, 50.357013], [14.666339, 50.358295], [14.665375, 50.359394], [14.66484, 50.359649], [14.663803, 50.360243], [14.662531, 50.360633], [14.661767, 50.360904], [14.661093, 50.361103], [14.656686, 50.357498], [14.654414, 50.354705], [14.649167, 50.348801], [14.64633, 50.350298], [14.644285, 50.351365], [14.642106, 50.352496], [14.638536, 50.35467], [14.635759, 50.354856], [14.632573, 50.354246], [14.632577, 50.354047], [14.632727, 50.353194], [14.632997, 50.352548], [14.633537, 50.351937], [14.634011, 50.351637], [14.635837, 50.35036], [14.636795, 50.350217], [14.637619, 50.350151], [14.639971, 50.34949], [14.640709, 50.349178], [14.642619, 50.348174], [14.644664, 50.347107], [14.642157, 50.338665], [14.636843, 50.33607], [14.633878, 50.334604], [14.63332, 50.334235], [14.632977, 50.333955], [14.628466, 50.331503], [14.623333, 50.32556], [14.621614, 50.324059], [14.623983, 50.321347], [14.625702, 50.322849], [14.632939, 50.325078], [14.635484, 50.327625], [14.638429, 50.332838], [14.643734, 50.335428], [14.647561, 50.337293], [14.649721, 50.338144], [14.652005, 50.339051], [14.660392, 50.337759], [14.66236, 50.334744], [14.663542, 50.335284], [14.665816, 50.337568], [14.665879, 50.337653], [14.67127, 50.342046], [14.677521, 50.346418], [14.684389, 50.347111], [14.687982, 50.347475], [14.68818, 50.347483], [14.690187, 50.347375], [14.692377, 50.347267], [14.695616, 50.347112], [14.698853, 50.346957], [14.701052, 50.346846], [14.701793, 50.346817], [14.70848, 50.342763], [14.708794, 50.342269], [14.709077, 50.341915], [14.709314, 50.341655], [14.711649, 50.339414], [14.70786, 50.33214], [14.705623, 50.331721], [14.704948, 50.331408], [14.700827, 50.330832], [14.700233, 50.330784], [14.697853, 50.330637], [14.694946, 50.330842], [14.692561, 50.331077], [14.691563, 50.331036], [14.690661, 50.330917], [14.687535, 50.330297], [14.686722, 50.330302], [14.685666, 50.330182], [14.68499, 50.330153], [14.685144, 50.326556], [14.680828, 50.322157], [14.681507, 50.318622], [14.685623, 50.313501], [14.689459, 50.312844], [14.692927, 50.311152], [14.693882, 50.310398], [14.697599, 50.30221], [14.697979, 50.29863], [14.699201, 50.29876], [14.700201, 50.29879], [14.702157, 50.298755], [14.702711, 50.298809], [14.705472, 50.298678], [14.710014, 50.300943], [14.713408, 50.302404], [14.718366, 50.302252], [14.719488, 50.302094], [14.721902, 50.301878], [14.723875, 50.301767], [14.725789, 50.30166], [14.729949, 50.30278], [14.730414, 50.303556], [14.736859, 50.307466], [14.738426, 50.307402], [14.74124, 50.310381], [14.741945, 50.310677], [14.744103, 50.311654], [14.744446, 50.311742], [14.746677, 50.312303], [14.747476, 50.312441], [14.749009, 50.312614], [14.75005, 50.312885], [14.751948, 50.31371], [14.752978, 50.314036], [14.753654, 50.314219], [14.755461, 50.31457], [14.757845, 50.315332], [14.760019, 50.316039], [14.761952, 50.316998], [14.763624, 50.317849], [14.765334, 50.318579], [14.76581, 50.318857], [14.766862, 50.319761], [14.774635, 50.322341], [14.776723, 50.322053], [14.779342, 50.321923], [14.783766, 50.315189], [14.785224, 50.314513], [14.785757, 50.314344], [14.788016, 50.313381], [14.790088, 50.312599], [14.791228, 50.312331], [14.793171, 50.312072], [14.79422, 50.303214], [14.790223, 50.302454], [14.787997, 50.300581], [14.779733, 50.297818], [14.778848, 50.298006], [14.775903, 50.298434], [14.772978, 50.298859], [14.769915, 50.299339], [14.767814, 50.299608], [14.765558, 50.299827], [14.763303, 50.300047], [14.761047, 50.300267], [14.75886, 50.300478], [14.755774, 50.301259], [14.754034, 50.301906], [14.749406, 50.302397], [14.747985, 50.300867], [14.746737, 50.299903], [14.745086, 50.298879], [14.744108, 50.298181], [14.742015, 50.296019], [14.741054, 50.294403], [14.734679, 50.291835], [14.734546, 50.29185], [14.732598, 50.292122], [14.731333, 50.292549], [14.730088, 50.292972], [14.729295, 50.293262], [14.726451, 50.291539], [14.725955, 50.291397], [14.725484, 50.291177], [14.724464, 50.290729], [14.724019, 50.290515], [14.72367, 50.290321], [14.723011, 50.289937], [14.722133, 50.28933], [14.720923, 50.288537], [14.71941, 50.287458], [14.713465, 50.285656], [14.711156, 50.281938], [14.709932, 50.28078], [14.708342, 50.279091], [14.706827, 50.277478], [14.705542, 50.276137], [14.697557, 50.279052], [14.697255, 50.282144], [14.697618, 50.283907], [14.697275, 50.283973], [14.696113, 50.28413], [14.695014, 50.284387], [14.687553, 50.280647], [14.684677, 50.280742], [14.677562, 50.281791], [14.669955, 50.277148], [14.667939, 50.275807], [14.659297, 50.2765], [14.65167, 50.279706], [14.64946, 50.281743], [14.648889, 50.282132], [14.647541, 50.282816], [14.645864, 50.283644], [14.644198, 50.284466], [14.642037, 50.285552], [14.639821, 50.286664], [14.634607, 50.291927], [14.633758, 50.291924], [14.631615, 50.292057], [14.629286, 50.292519], [14.626953, 50.292983], [14.624861, 50.293393], [14.624168, 50.289861], [14.626259, 50.28945], [14.633343, 50.286278], [14.634597, 50.285208], [14.634898, 50.284978], [14.640257, 50.279836], [14.640971, 50.278772], [14.642658, 50.276392], [14.644881, 50.275524], [14.645389, 50.275276], [14.64896, 50.268701], [14.642471, 50.262945], [14.639492, 50.262835], [14.638853, 50.260396], [14.632277, 50.254287], [14.625479, 50.250024], [14.618552, 50.25457], [14.618366, 50.25927], [14.618026, 50.259453], [14.617865, 50.259543], [14.617461, 50.259648], [14.616367, 50.25978], [14.614443, 50.259339], [14.614275, 50.259268], [14.606229, 50.256704], [14.605456, 50.256793], [14.60427, 50.256919], [14.603778, 50.256991], [14.600282, 50.257698], [14.599569, 50.254169], [14.604197, 50.252773], [14.610361, 50.250165], [14.611123, 50.250068], [14.617464, 50.247653], [14.618563, 50.239688], [14.618564, 50.239176], [14.620027, 50.231505], [14.621133, 50.225297], [14.621586, 50.225135], [14.623024, 50.224718], [14.623673, 50.224608], [14.624218, 50.22466], [14.62487, 50.224883], [14.627258, 50.226713], [14.631281, 50.227912], [14.634523, 50.220535], [14.636648, 50.219978], [14.640426, 50.213612], [14.640462, 50.212975], [14.640477, 50.212171], [14.640521, 50.211973], [14.640785, 50.209998], [14.641048, 50.208917], [14.64082, 50.201432], [14.635277, 50.20009], [14.633824, 50.200764], [14.631118, 50.201983], [14.629639, 50.198701], [14.627343, 50.190212], [14.627884, 50.186652], [14.628292, 50.17777], [14.627636, 50.177595], [14.626715, 50.177375], [14.625004, 50.177341], [14.62488, 50.177285], [14.623952, 50.175565], [14.623959, 50.1755], [14.623798, 50.166999], [14.620756, 50.165585], [14.617773, 50.164288], [14.61586, 50.163456], [14.613946, 50.162624], [14.615382, 50.159322], [14.612415, 50.152218], [14.609428, 50.149814], [14.604091, 50.148361], [14.60347, 50.148367], [14.597503, 50.141873], [14.596924, 50.14181], [14.596556, 50.141753], [14.594999, 50.141482], [14.593838, 50.141358], [14.594221, 50.137778], [14.595382, 50.137903], [14.597165, 50.138205], [14.597476, 50.138253], [14.597878, 50.138293], [14.598477, 50.138321], [14.599418, 50.138334], [14.603096, 50.130129], [14.602896, 50.129664], [14.602645, 50.128885], [14.597285, 50.123324], [14.595369, 50.122845], [14.593636, 50.122401], [14.5919, 50.122232], [14.58883, 50.121104], [14.588541, 50.121032], [14.58749, 50.120835], [14.586171, 50.120542], [14.583503, 50.119874], [14.580895, 50.119221], [14.574095, 50.12347], [14.571872, 50.127253], [14.567804, 50.128279], [14.567454, 50.128308], [14.567272, 50.128323], [14.567104, 50.128337], [14.565684, 50.128224], [14.56416, 50.128075], [14.562403, 50.12398], [14.557529, 50.121191], [14.556608, 50.121075], [14.555567, 50.120897], [14.554793, 50.120726], [14.554052, 50.120539], [14.551913, 50.119891], [14.549097, 50.118999], [14.540731, 50.117365], [14.536967, 50.115755], [14.531494, 50.117237], [14.529907, 50.117134], [14.529308, 50.117081], [14.529626, 50.113495], [14.531726, 50.113645], [14.540541, 50.11377], [14.541196, 50.113756], [14.541763, 50.113761], [14.542491, 50.11379], [14.543144, 50.113839], [14.543915, 50.113924], [14.544674, 50.114034], [14.545324, 50.114151], [14.546054, 50.11431], [14.547309, 50.114657], [14.550184, 50.115567], [14.557949, 50.111751], [14.55822, 50.111209], [14.55926, 50.110534], [14.559327, 50.110534], [14.559858, 50.110535], [14.560472, 50.110772], [14.560566, 50.110823], [14.564384, 50.113228], [14.564762, 50.113343], [14.565015, 50.113441], [14.571411, 50.115453], [14.57473, 50.108337], [14.575646, 50.107431], [14.578106, 50.10775], [14.582849, 50.108878], [14.587223, 50.105238], [14.587717, 50.104086], [14.588309, 50.102339], [14.589191, 50.100905], [14.59034, 50.099024], [14.593544, 50.100666], [14.593462, 50.100826], [14.591658, 50.104209], [14.590954, 50.10566], [14.590535, 50.106649], [14.590189, 50.10762], [14.589722, 50.109523], [14.589592, 50.110702], [14.589971, 50.115313], [14.594142, 50.118837], [14.596243, 50.119352], [14.598159, 50.119832], [14.603143, 50.12091], [14.605378, 50.121355], [14.612249, 50.118099], [14.612495, 50.11495], [14.612504, 50.114928], [14.614202, 50.113781], [14.614471, 50.113826], [14.617056, 50.114511], [14.623296, 50.111742], [14.624364, 50.11006], [14.624881, 50.109434], [14.625113, 50.10943], [14.626227, 50.109652], [14.626602, 50.109881], [14.629704, 50.114254], [14.635419, 50.115639], [14.635997, 50.115651], [14.638752, 50.11652], [14.638655, 50.120119], [14.637456, 50.121001], [14.636033, 50.121721], [14.634402, 50.123141], [14.636631, 50.131578], [14.637892, 50.132262], [14.639137, 50.132965], [14.640749, 50.133923], [14.642989, 50.135336], [14.644863, 50.136624], [14.646444, 50.137769], [14.652929, 50.14124], [14.655345, 50.145932], [14.656469, 50.147205], [14.658425, 50.149519], [14.660073, 50.151562], [14.662225, 50.154339], [14.665218, 50.156565], [14.67179, 50.156988], [14.672779, 50.15676], [14.675493, 50.156156], [14.676641, 50.15584], [14.67839, 50.155296], [14.680305, 50.154643], [14.681484, 50.154213], [14.682573, 50.153793], [14.686698, 50.148929], [14.686947, 50.148277], [14.683008, 50.140468], [14.682462, 50.140193], [14.682009, 50.13994], [14.680254, 50.138921], [14.678567, 50.137939], [14.675324, 50.137071], [14.675873, 50.133513], [14.677547, 50.133771], [14.678078, 50.133897], [14.678705, 50.134091], [14.679547, 50.134404], [14.680239, 50.134751], [14.682062, 50.135808], [14.683817, 50.136828], [14.692436, 50.135035], [14.693148, 50.134554], [14.693927, 50.134197], [14.696567, 50.134038], [14.696826, 50.134039], [14.698248, 50.134621], [14.703382, 50.141677], [14.705204, 50.142724], [14.708433, 50.143819], [14.707277, 50.147228], [14.704048, 50.146133], [14.703389, 50.145924], [14.703027, 50.145787], [14.702669, 50.145622], [14.702303, 50.145408], [14.701566, 50.144846], [14.693111, 50.145979], [14.6913, 50.14799], [14.689976, 50.150552], [14.689465, 50.1519], [14.689259, 50.15235], [14.688832, 50.153116], [14.688387, 50.153826], [14.688023, 50.154313], [14.686505, 50.161538], [14.688572, 50.165688], [14.694038, 50.170753], [14.695745, 50.171176], [14.702027, 50.170361], [14.707764, 50.166716], [14.708953, 50.165197], [14.709814, 50.164342], [14.715876, 50.164752], [14.715887, 50.164749], [14.715895, 50.164747], [14.717738, 50.16538], [14.719457, 50.16609], [14.720261, 50.168554], [14.720689, 50.169473], [14.719353, 50.170673], [14.718857, 50.170777], [14.714742, 50.173457], [14.713775, 50.177973], [14.720662, 50.180528], [14.720877, 50.180613], [14.723215, 50.181168], [14.728909, 50.177693], [14.72956, 50.174152], [14.734806, 50.173046], [14.734912, 50.173005], [14.736221, 50.173095], [14.736325, 50.173152], [14.736805, 50.1746], [14.743373, 50.179129], [14.743105, 50.182719], [14.745043, 50.191049], [14.745664, 50.19257], [14.745864, 50.193251], [14.745893, 50.19425], [14.746481, 50.196811], [14.746998, 50.198468], [14.755145, 50.200704], [14.757673, 50.201084], [14.758621, 50.201106], [14.760313, 50.201069], [14.767725, 50.201892], [14.77558, 50.205451], [14.782127, 50.202883], [14.782787, 50.20292], [14.783707, 50.207488], [14.789463, 50.209728], [14.793849, 50.206637], [14.794382, 50.206008], [14.795282, 50.199458], [14.799321, 50.191626], [14.799999, 50.188091], [14.803233, 50.184956], [14.805043, 50.184478], [14.805555, 50.185036], [14.805836, 50.185422], [14.8061, 50.18607], [14.813341, 50.19071], [14.818525, 50.188684], [14.822057, 50.187332], [14.824451, 50.187636], [14.825463, 50.187794], [14.826329, 50.187991], [14.828276, 50.188599], [14.829896, 50.189009], [14.837246, 50.187262], [14.843002, 50.183308], [14.844728, 50.183625], [14.845121, 50.183682], [14.845916, 50.183771], [14.849718, 50.184161], [14.851077, 50.183623], [14.850909, 50.174649], [14.850973, 50.174482], [14.853544, 50.172828], [14.854818, 50.173484], [14.856661, 50.174628], [14.861481, 50.179913], [14.869237, 50.182511], [14.874053, 50.181566], [14.874883, 50.181343], [14.875407, 50.18128], [14.875879, 50.181285], [14.883517, 50.181221], [14.885354, 50.182499], [14.885365, 50.182536], [14.883941, 50.184796], [14.883364, 50.185997], [14.885173, 50.194622], [14.88829, 50.194296], [14.89277, 50.191246], [14.894543, 50.188112], [14.895139, 50.18845], [14.895516, 50.188703], [14.89606, 50.189286], [14.904732, 50.191573], [14.906294, 50.191359], [14.906791, 50.193079], [14.906782, 50.194926], [14.910234, 50.203095], [14.913991, 50.206298], [14.913845, 50.209895], [14.910667, 50.213436], [14.910236, 50.213976], [14.909772, 50.214306], [14.909193, 50.21458], [14.909429, 50.223566], [14.911329, 50.223827], [14.913155, 50.224079], [14.913657, 50.224141], [14.915498, 50.224098], [14.915849, 50.224117], [14.916375, 50.22412], [14.917451, 50.224171], [14.918057, 50.224165], [14.924438, 50.220664], [14.9261, 50.218157], [14.927762, 50.215649], [14.928216, 50.214965], [14.930211, 50.215103], [14.930354, 50.215212], [14.936388, 50.218124], [14.940428, 50.215168], [14.944028, 50.215178], [14.947213, 50.217981], [14.955299, 50.220359], [14.958858, 50.219812], [14.960319, 50.222055], [14.968616, 50.224677], [14.970887, 50.223538], [14.972351, 50.222755], [14.973157, 50.222255], [14.973531, 50.213698], [14.97311, 50.212143], [14.976585, 50.211203], [14.978183, 50.213061], [14.986744, 50.214104], [14.98726, 50.213713], [14.988071, 50.21296], [14.988986, 50.211896], [14.989642, 50.211445], [14.992594, 50.209703], [14.99353, 50.209075], [14.996686, 50.208828], [15.003505, 50.208818], [15.004929, 50.209615], [15.005182, 50.209933], [15.00478, 50.212185], [15.004159, 50.21242], [15.002361, 50.213227], [15.001876, 50.213407], [15.001443, 50.213527], [15.001089, 50.213603], [14.996585, 50.215064], [14.989597, 50.216451], [14.98893, 50.216964], [14.987744, 50.224894], [14.989274, 50.226585], [14.99089, 50.228417], [14.991677, 50.231658], [14.997276, 50.236218], [15.000559, 50.236659], [15.000997, 50.236688], [15.0013, 50.240275], [15.008851, 50.243622], [15.011613, 50.242414], [15.014671, 50.236673], [15.015487, 50.233167], [15.022667, 50.230226], [15.023573, 50.228119], [15.024415, 50.226159], [15.026554, 50.22052], [15.027473, 50.219024], [15.02959, 50.218444], [15.03008, 50.218604], [15.030741, 50.219276], [15.03092, 50.222104], [15.030541, 50.222985], [15.030417, 50.223281], [15.030281, 50.230806], [15.032602, 50.233558], [15.031934, 50.240679], [15.032319, 50.244259], [15.029851, 50.244524], [15.025511, 50.248334], [15.029329, 50.254939], [15.028676, 50.258479], [15.026794, 50.258132], [15.024912, 50.257785], [15.024508, 50.257754], [15.022913, 50.256335], [15.020728, 50.252315], [15.020218, 50.251151], [15.013055, 50.245713], [15.010293, 50.24692], [15.011982, 50.255195], [15.012633, 50.258736], [15.011916, 50.258868], [15.011276, 50.259037], [15.007125, 50.266562], [15.008981, 50.268418], [15.015519, 50.269992], [15.020652, 50.271446], [15.021613, 50.271594], [15.023099, 50.27164], [15.023978, 50.271733], [15.025032, 50.271946], [15.02636, 50.272524], [15.02707, 50.27306], [15.027585, 50.273746], [15.02788, 50.274804], [15.030336, 50.280604], [15.03627, 50.281855], [15.038755, 50.281516], [15.040792, 50.281538], [15.04422, 50.281348], [15.050533, 50.278097], [15.051852, 50.276407], [15.05285, 50.275517], [15.056949, 50.271402], [15.060537, 50.271698], [15.060464, 50.272592], [15.058722, 50.275739], [15.056587, 50.284114], [15.056393, 50.284519], [15.055774, 50.285211], [15.053745, 50.289027], [15.053708, 50.292627], [15.051533, 50.292803], [15.050609, 50.292812], [15.046047, 50.295484], [15.045491, 50.29593], [15.04644, 50.304689], [15.048737, 50.305031], [15.051895, 50.304561], [15.053828, 50.305082], [15.056523, 50.304912], [15.058943, 50.30478], [15.05921, 50.304726], [15.062556, 50.304236], [15.06566, 50.303693], [15.066576, 50.303587], [15.067145, 50.303482], [15.067708, 50.303322], [15.073379, 50.29648], [15.069437, 50.293456], [15.074752, 50.288974], [15.075718, 50.287462], [15.076068, 50.287197], [15.078085, 50.285611], [15.080342, 50.288416], [15.088574, 50.291715], [15.089556, 50.291652], [15.090117, 50.291649], [15.090696, 50.291678], [15.091651, 50.291783], [15.099499, 50.287481], [15.103048, 50.286876], [15.104245, 50.291749], [15.105001, 50.295269], [15.104076, 50.295468], [15.10243, 50.295795], [15.098068, 50.303212], [15.098487, 50.304141], [15.098685, 50.304759], [15.095256, 50.305856], [15.092015, 50.307747], [15.091232, 50.315021], [15.093006, 50.31684], [15.101159, 50.315895], [15.102112, 50.31551], [15.109802, 50.315656], [15.112671, 50.31443], [15.114086, 50.31774], [15.121284, 50.321137], [15.123312, 50.320526], [15.124181, 50.320323], [15.127897, 50.31939], [15.129994, 50.318812], [15.130951, 50.322282], [15.139325, 50.325556], [15.139866, 50.324811], [15.140029, 50.324746], [15.14154, 50.324138], [15.141678, 50.324185], [15.142886, 50.326084], [15.144038, 50.32758], [15.149279, 50.331539], [15.154951, 50.33219], [15.156719, 50.335325], [15.154964, 50.336315], [15.152703, 50.34128], [15.160537, 50.345087], [15.163185, 50.342085], [15.166074, 50.342424], [15.166828, 50.345944], [15.167034, 50.351939], [15.168427, 50.357299], [15.170538, 50.359716], [15.177608, 50.363839], [15.181418, 50.360027], [15.18328, 50.356495], [15.185018, 50.360086], [15.19042, 50.364208], [15.196222, 50.359625], [15.195747, 50.356056], [15.197992, 50.355757], [15.201827, 50.348426], [15.200544, 50.346265], [15.199171, 50.342938], [15.194911, 50.338862], [15.196573, 50.335668], [15.198574, 50.335818], [15.200025, 50.336324], [15.202925, 50.339025], [15.211676, 50.338668], [15.212585, 50.338223], [15.215251, 50.340643], [15.217048, 50.342386], [15.217889, 50.343216], [15.215664, 50.345629], [15.214414, 50.350557], [15.214546, 50.353368], [15.214573, 50.353579], [15.215164, 50.356435], [15.215953, 50.359079], [15.216154, 50.360401], [15.22441, 50.363], [15.224825, 50.362651], [15.225378, 50.362369], [15.229763, 50.354523], [15.229471, 50.353368], [15.228645, 50.349633], [15.228634, 50.34894], [15.228712, 50.348374], [15.228948, 50.34713], [15.22915, 50.346526], [15.229577, 50.345877], [15.229918, 50.345562], [15.230218, 50.345348], [15.231292, 50.344716], [15.231933, 50.344479], [15.233719, 50.343662], [15.235929, 50.342471], [15.236711, 50.342046], [15.237514, 50.341668], [15.239109, 50.340979], [15.240537, 50.344284], [15.238942, 50.344973], [15.238245, 50.345302], [15.237659, 50.345627], [15.236935, 50.346066], [15.235963, 50.346617], [15.233639, 50.354682], [15.233727, 50.354902], [15.234509, 50.35651], [15.234634, 50.356829], [15.234744, 50.35732], [15.234687, 50.358131], [15.233305, 50.360325], [15.230428, 50.363609], [15.230378, 50.363656], [15.229005, 50.37219], [15.232025, 50.37323], [15.232298, 50.373513], [15.232731, 50.374039], [15.24072, 50.377743], [15.241442, 50.377522], [15.243196, 50.377099], [15.244892, 50.376691], [15.246525, 50.376244], [15.247463, 50.375922], [15.249156, 50.375185], [15.25134, 50.374335], [15.25218, 50.374148], [15.25363, 50.373808], [15.254307, 50.373644], [15.260212, 50.371413], [15.264257, 50.36707], [15.267129, 50.369241], [15.269203, 50.371894], [15.269618, 50.374635], [15.269612, 50.374642], [15.269131, 50.375042], [15.267023, 50.376384], [15.266119, 50.376959], [15.265565, 50.37713], [15.261303, 50.384959], [15.261913, 50.388507], [15.261249, 50.397281], [15.260822, 50.400855], [15.266832, 50.405937], [15.269152, 50.404853], [15.270221, 50.404255], [15.272212, 50.402326], [15.274077, 50.400103], [15.275606, 50.399799], [15.276407, 50.399552], [15.277686, 50.399043], [15.283506, 50.393559], [15.286081, 50.391531], [15.287431, 50.390095], [15.28822, 50.389505], [15.290377, 50.392387], [15.289071, 50.394081], [15.28877, 50.394521], [15.28647, 50.397483], [15.28818, 50.405214], [15.288699, 50.405666], [15.290097, 50.407294], [15.297851, 50.409344], [15.301121, 50.408802], [15.30192, 50.412312], [15.307346, 50.417081], [15.314621, 50.417566], [15.315349, 50.417419], [15.31918, 50.4175], [15.324298, 50.413595], [15.32605, 50.412159], [15.326484, 50.411832], [15.328175, 50.411336], [15.328544, 50.411649], [15.328846, 50.411966], [15.332258, 50.413538], [15.334128, 50.414265], [15.337833, 50.406462], [15.335493, 50.401241], [15.334495, 50.397782], [15.337021, 50.394196], [15.34061, 50.39392], [15.343255, 50.396726], [15.349504, 50.400296], [15.352083, 50.402808], [15.351225, 50.403689], [15.349778, 50.405234], [15.346578, 50.413627], [15.347018, 50.415471], [15.3539, 50.42016], [15.35551, 50.419866], [15.35608, 50.419779], [15.357793, 50.419833], [15.358759, 50.419904], [15.360123, 50.419965], [15.366799, 50.417567], [15.369464, 50.414192], [15.371117, 50.412394], [15.376235, 50.4107], [15.377763, 50.410452], [15.37905, 50.412944], [15.378572, 50.41396], [15.37526, 50.420244], [15.382774, 50.424097], [15.383297, 50.423944], [15.383755, 50.423878], [15.384209, 50.423858], [15.387196, 50.423923], [15.389934, 50.423729], [15.391388, 50.423348], [15.393399, 50.422911], [15.395409, 50.422475], [15.397146, 50.42933], [15.397039, 50.432928], [15.394851, 50.441301], [15.395076, 50.442077], [15.3952, 50.442726], [15.395708, 50.445645], [15.396213, 50.448548], [15.396774, 50.451746], [15.397241, 50.454446], [15.397327, 50.455208], [15.397339, 50.455669], [15.401147, 50.462078], [15.404642, 50.46294], [15.409077, 50.462229], [15.409934, 50.461835], [15.411203, 50.461025], [15.411711, 50.460727], [15.412465, 50.460348], [15.413937, 50.459829], [15.415871, 50.458914], [15.416113, 50.458834], [15.417095, 50.458877], [15.417493, 50.459166], [15.417244, 50.462252], [15.41617, 50.469427], [15.416934, 50.471637], [15.414072, 50.476296], [15.413796, 50.477183], [15.413428, 50.477906], [15.412271, 50.47782], [15.406215, 50.480716], [15.404843, 50.483631], [15.407524, 50.490533], [15.415162, 50.494756], [15.417418, 50.491456], [15.418276, 50.490827], [15.425986, 50.491823], [15.427163, 50.491642], [15.428472, 50.495261], [15.428531, 50.495433], [15.426199, 50.497555], [15.423199, 50.498189], [15.422835, 50.498259], [15.421579, 50.498066], [15.416243, 50.49918], [15.414361, 50.500274], [15.413723, 50.500618], [15.412976, 50.500888], [15.411489, 50.501288], [15.4107, 50.50137], [15.40735, 50.501451], [15.404013, 50.50326], [15.402353, 50.504656], [15.401958, 50.504916], [15.400179, 50.505872], [15.397614, 50.507789], [15.397093, 50.50832], [15.39623, 50.508937], [15.395374, 50.509457], [15.392732, 50.512034], [15.39024, 50.51333], [15.392255, 50.521867], [15.393195, 50.522309], [15.393455, 50.5224], [15.394066, 50.522791], [15.402066, 50.52241], [15.403514, 50.521594], [15.406776, 50.519259], [15.413087, 50.513762], [15.413314, 50.512789], [15.41394, 50.511923], [15.41523, 50.510049], [15.415977, 50.509863], [15.417047, 50.509769], [15.417992, 50.509608], [15.426147, 50.513346], [15.428592, 50.513086], [15.430703, 50.512435], [15.431211, 50.512179], [15.431771, 50.511948], [15.432545, 50.511583], [15.433408, 50.51108], [15.434236, 50.510654], [15.438209, 50.506666], [15.438459, 50.506325], [15.441398, 50.50835], [15.442671, 50.514099], [15.441696, 50.516782], [15.441612, 50.517083], [15.439789, 50.5185], [15.439224, 50.51828], [15.437924, 50.517962], [15.437502, 50.517833], [15.429989, 50.517784], [15.426888, 50.519612], [15.423605, 50.518161], [15.422852, 50.518114], [15.41777, 50.520505], [15.416457, 50.520744], [15.414332, 50.521196], [15.412203, 50.522304], [15.411743, 50.522631], [15.410395, 50.523393], [15.409854, 50.523734], [15.412777, 50.532226], [15.413388, 50.532213], [15.416363, 50.531522], [15.417692, 50.531122], [15.418471, 50.530999], [15.420017, 50.530501], [15.421735, 50.529506], [15.422759, 50.529132], [15.42321, 50.529058], [15.423979, 50.528961], [15.425566, 50.528544], [15.427553, 50.529206], [15.42866, 50.529275], [15.429868, 50.52955], [15.431674, 50.53004], [15.437732, 50.536505], [15.441807, 50.535047], [15.442218, 50.534793], [15.442524, 50.534629], [15.444721, 50.533664], [15.445137, 50.533806], [15.445295, 50.533873], [15.445943, 50.535753], [15.445936, 50.535777], [15.44554, 50.537377], [15.444583, 50.539117], [15.444358, 50.539624], [15.443846, 50.540251], [15.443464, 50.540537], [15.443046, 50.540751], [15.442495, 50.540919], [15.438739, 50.543315], [15.438086, 50.54378], [15.437304, 50.544142], [15.434978, 50.543354], [15.429603, 50.548814], [15.429962, 50.550396], [15.436621, 50.5562], [15.439486, 50.555636], [15.44258, 50.554854], [15.446154, 50.55442], [15.452094, 50.553052], [15.452106, 50.553048], [15.452614, 50.552961], [15.452731, 50.552966], [15.453219, 50.556472], [15.448952, 50.559651], [15.445714, 50.561224], [15.440182, 50.559168], [15.438458, 50.567673], [15.437535, 50.571152], [15.436404, 50.573938], [15.439526, 50.580261], [15.442842, 50.581121], [15.443897, 50.581105], [15.444377, 50.581156], [15.444899, 50.581286], [15.447101, 50.581675], [15.448431, 50.582113], [15.448881, 50.582411], [15.449033, 50.582545], [15.449525, 50.583979], [15.447002, 50.586547], [15.441099, 50.585194], [15.435213, 50.58807], [15.434477, 50.588938], [15.433956, 50.589283], [15.432358, 50.590291], [15.43203, 50.590389], [15.427931, 50.589063], [15.425257, 50.586654], [15.42467, 50.584221], [15.424076, 50.583042], [15.423893, 50.582409], [15.422197, 50.579071], [15.422087, 50.578966], [15.420817, 50.577622], [15.419466, 50.576726], [15.414098, 50.583642], [15.413198, 50.586215], [15.413118, 50.586625], [15.412654, 50.587458], [15.412021, 50.58796], [15.409753, 50.593258], [15.414289, 50.597827], [15.415888, 50.59832], [15.4166, 50.598515], [15.41815, 50.599126], [15.419185, 50.599602], [15.419427, 50.599745], [15.417591, 50.602842], [15.422007, 50.608449], [15.423969, 50.608261], [15.427237, 50.610525], [15.427309, 50.61056], [15.433615, 50.615481], [15.438458, 50.614966], [15.440537, 50.615009], [15.446976, 50.618025], [15.453412, 50.617342], [15.456409, 50.615347], [15.463886, 50.613924], [15.464949, 50.613678], [15.465852, 50.6147], [15.46576, 50.617185], [15.461606, 50.622862], [15.465319, 50.630797], [15.470001, 50.628748], [15.471393, 50.628516], [15.472241, 50.628441], [15.472852, 50.628368], [15.477223, 50.628626], [15.483145, 50.622499], [15.483389, 50.620711], [15.483976, 50.619411], [15.487257, 50.620894], [15.49361, 50.623765], [15.497317, 50.620638], [15.49803, 50.619404], [15.499224, 50.618214], [15.499918, 50.617761], [15.50827, 50.615964], [15.516032, 50.619797], [15.516581, 50.623355], [15.510029, 50.626468], [15.509137, 50.626172], [15.508443, 50.626012], [15.508131, 50.625698], [15.501559, 50.623558], [15.499031, 50.625532], [15.496583, 50.627159], [15.497268, 50.635769], [15.498105, 50.6363], [15.499675, 50.636928], [15.503035, 50.637895], [15.504277, 50.63854], [15.504704, 50.640351], [15.504395, 50.641323], [15.502499, 50.641455], [15.497005, 50.642102], [15.491949, 50.646872], [15.488362, 50.646559], [15.485362, 50.640349], [15.484742, 50.638325], [15.484257, 50.636997], [15.477293, 50.632226], [15.473588, 50.631892], [15.472699, 50.632011], [15.471717, 50.632102], [15.470606, 50.632297], [15.464729, 50.63569], [15.467741, 50.642243], [15.468602, 50.642767], [15.467271, 50.645939], [15.461496, 50.64843], [15.461195, 50.648801], [15.460965, 50.655533], [15.466924, 50.658123], [15.467979, 50.658022], [15.469997, 50.657916], [15.471274, 50.65792], [15.473397, 50.657539], [15.474629, 50.657156], [15.475305, 50.657126], [15.478102, 50.657366], [15.479215, 50.657846], [15.480268, 50.658218], [15.48149, 50.658655], [15.482299, 50.658818], [15.482801, 50.658955], [15.48408, 50.659322], [15.485662, 50.659452], [15.486581, 50.65975], [15.486964, 50.659986], [15.4887, 50.661246], [15.489479, 50.661919], [15.487126, 50.664644], [15.486259, 50.670984], [15.490745, 50.677205], [15.492252, 50.678598], [15.492687, 50.679115], [15.492776, 50.679352], [15.492778, 50.679612], [15.492294, 50.680866], [15.489934, 50.681435], [15.487653, 50.680799], [15.486762, 50.680714], [15.486096, 50.680698], [15.485539, 50.680599], [15.484769, 50.680193], [15.477347, 50.679955], [15.477771, 50.688162], [15.481021, 50.688701], [15.481999, 50.68917], [15.482667, 50.689491], [15.483126, 50.689722], [15.48553, 50.691152], [15.487611, 50.692363], [15.488093, 50.692516], [15.489698, 50.693497], [15.490634, 50.694028], [15.495824, 50.696118], [15.496271, 50.696154], [15.496803, 50.696314], [15.498322, 50.69714], [15.498736, 50.697336], [15.499067, 50.697543], [15.502502, 50.699361], [15.503889, 50.702683], [15.503471, 50.702858], [15.50293, 50.703019], [15.502442, 50.703105], [15.501893, 50.703161], [15.501117, 50.703208], [15.500469, 50.703195], [15.499922, 50.703135], [15.499403, 50.703028], [15.498924, 50.702878], [15.498362, 50.702683], [15.497896, 50.70246], [15.491519, 50.703751], [15.492943, 50.711262], [15.49355, 50.713148], [15.493201, 50.713822], [15.492906, 50.714042], [15.491463, 50.714544], [15.489859, 50.714385], [15.484411, 50.720745], [15.487383, 50.726958], [15.487673, 50.727163], [15.488131, 50.728216], [15.48823, 50.728443], [15.487356, 50.729792], [15.483447, 50.732303], [15.480613, 50.732787], [15.473506, 50.73691], [15.471408, 50.736833], [15.470966, 50.736824], [15.466381, 50.735674], [15.459805, 50.736516], [15.458993, 50.736062], [15.458098, 50.735474], [15.457259, 50.735013], [15.451264, 50.741632], [15.45255, 50.744994], [15.448813, 50.749965], [15.448399, 50.750539], [15.448115, 50.750779], [15.446356, 50.752462], [15.443296, 50.751677], [15.434422, 50.752116], [15.43411, 50.752499], [15.433492, 50.753109], [15.433138, 50.75337], [15.432772, 50.7536], [15.43227, 50.753866], [15.431813, 50.754045], [15.431502, 50.754133], [15.430852, 50.754274], [15.430135, 50.754485], [15.429722, 50.754568], [15.424402, 50.752141], [15.42218, 50.751614], [15.422335, 50.744935], [15.421943, 50.743835], [15.42159, 50.741264], [15.417462, 50.733628], [15.412947, 50.733945], [15.412749, 50.734025], [15.411496, 50.734475], [15.411005, 50.734616], [15.410741, 50.734662], [15.406459, 50.736562], [15.405893, 50.736662], [15.405147, 50.736651], [15.403395, 50.736616], [15.402731, 50.736563], [15.401518, 50.736377], [15.400796, 50.736307], [15.399973, 50.736207], [15.392712, 50.74097], [15.392614, 50.744576], [15.390062, 50.749219], [15.388735, 50.752565], [15.39244, 50.760298], [15.395017, 50.760519], [15.399602, 50.758869], [15.400557, 50.758111], [15.400988, 50.757895], [15.401414, 50.757732], [15.402113, 50.757543], [15.403272, 50.757378], [15.404521, 50.757108], [15.408874, 50.75475], [15.411909, 50.756724], [15.411533, 50.757178], [15.410503, 50.758169], [15.409933, 50.758673], [15.409384, 50.759068], [15.408842, 50.759404], [15.408222, 50.759728], [15.407476, 50.760037], [15.406299, 50.760384], [15.405351, 50.760611], [15.404415, 50.769324], [15.405295, 50.769802], [15.406217, 50.770539], [15.407145, 50.771353], [15.407789, 50.772388], [15.416619, 50.773637], [15.420501, 50.76959], [15.421213, 50.769317], [15.421558, 50.769163], [15.423154, 50.768401], [15.427792, 50.767017], [15.43544, 50.766574], [15.436364, 50.765875], [15.436701, 50.765667], [15.437209, 50.765415], [15.438194, 50.764984], [15.441603, 50.766474], [15.445368, 50.769044], [15.449235, 50.77065], [15.450193, 50.771322], [15.449388, 50.772794], [15.448124, 50.774269], [15.440323, 50.775739], [15.436297, 50.778836], [15.43557, 50.779264], [15.435154, 50.779463], [15.434746, 50.779624], [15.432697, 50.780484], [15.428095, 50.784259], [15.424878, 50.786616], [15.422206, 50.792364], [15.422743, 50.795928], [15.42327, 50.799436], [15.427893, 50.80395], [15.430284, 50.804459], [15.436426, 50.805794], [15.437741, 50.805826], [15.438453, 50.805828], [15.44321, 50.805304], [15.44427, 50.808745], [15.442566, 50.8093], [15.441565, 50.809562], [15.436374, 50.816909], [15.434761, 50.820127], [15.432363, 50.819184], [15.426773, 50.816248], [15.426312, 50.815935], [15.425573, 50.814874], [15.422425, 50.80929], [15.419347, 50.806297], [15.419856, 50.800762], [15.419728, 50.800083], [15.413999, 50.793356], [15.413172, 50.792947], [15.410621, 50.791108], [15.409788, 50.790281], [15.409544, 50.789781], [15.409401, 50.789047], [15.409673, 50.787983], [15.406529, 50.781348], [15.400548, 50.783907], [15.39992, 50.785187], [15.396688, 50.7836], [15.394711, 50.781557], [15.387566, 50.781088], [15.383585, 50.781989], [15.383102, 50.78208], [15.382437, 50.778542], [15.377889, 50.770886], [15.376089, 50.770335], [15.369698, 50.772015], [15.367549, 50.780307], [15.368543, 50.781624], [15.368888, 50.782335], [15.369191, 50.783497], [15.369096, 50.784665], [15.368932, 50.785128], [15.367735, 50.789945], [15.367733, 50.790542], [15.367735, 50.791563], [15.367606, 50.792248], [15.367435, 50.792755], [15.367035, 50.79349], [15.365751, 50.7955], [15.365295, 50.796082], [15.364569, 50.796733], [15.360061, 50.800851], [15.359569, 50.801304], [15.358908, 50.801655], [15.358494, 50.801779], [15.353882, 50.809124], [15.354715, 50.811908], [15.354881, 50.812767], [15.354719, 50.813768], [15.354121, 50.815034], [15.353896, 50.81536], [15.353107, 50.816255], [15.352597, 50.816611], [15.347809, 50.819701], [15.347209, 50.820018], [15.343824, 50.821844], [15.340081, 50.828529], [15.33989, 50.829026], [15.33966, 50.829447], [15.336501, 50.827719], [15.335361, 50.82432], [15.336136, 50.823268], [15.34125, 50.819327], [15.342308, 50.818206], [15.342586, 50.81795], [15.343018, 50.81765], [15.343746, 50.817262], [15.346791, 50.815351], [15.350188, 50.807574], [15.350204, 50.806768], [15.35019, 50.805352], [15.350217, 50.804924], [15.350347, 50.80434], [15.350959, 50.796771], [15.34993, 50.791042], [15.346773, 50.78625], [15.345695, 50.784846], [15.3373, 50.783123], [15.336646, 50.783322], [15.33368, 50.783259], [15.329283, 50.783181], [15.324583, 50.790242], [15.324404, 50.790819], [15.322071, 50.791333], [15.321847, 50.791364], [15.31916, 50.791646], [15.318655, 50.791656], [15.318012, 50.791524], [15.317537, 50.791292], [15.317075, 50.790878], [15.316648, 50.790012], [15.315919, 50.786084], [15.315779, 50.785553], [15.314487, 50.781625], [15.313801, 50.779882], [15.313375, 50.778392], [15.312517, 50.776351], [15.30385, 50.777691], [15.302799, 50.781134], [15.300387, 50.781021], [15.297637, 50.778698], [15.297838, 50.77846], [15.298732, 50.776748], [15.299235, 50.775021], [15.291256, 50.771211], [15.290661, 50.77126], [15.290277, 50.771264], [15.289525, 50.77117], [15.288651, 50.77111], [15.287817, 50.771098], [15.287421, 50.771067], [15.287118, 50.771021], [15.27881, 50.773892], [15.278188, 50.774947], [15.277364, 50.775584], [15.27562, 50.777294], [15.273317, 50.77574], [15.264909, 50.773277], [15.263436, 50.774144], [15.261535, 50.775417], [15.26097, 50.775881], [15.260137, 50.7762], [15.25973, 50.776256], [15.259253, 50.776269], [15.258478, 50.776123], [15.253245, 50.776431], [15.248221, 50.778493], [15.244609, 50.785212], [15.244478, 50.785645], [15.244322, 50.786239], [15.244013, 50.786423], [15.237821, 50.790517], [15.236179, 50.791793], [15.235733, 50.79205], [15.229132, 50.797975], [15.228642, 50.798588], [15.227651, 50.799351], [15.227016, 50.799692], [15.225145, 50.799419], [15.224775, 50.799221], [15.224143, 50.798772], [15.223618, 50.798266], [15.223156, 50.797641], [15.221044, 50.795343], [15.220124, 50.794745], [15.219439, 50.794405], [15.218622, 50.793978], [15.211596, 50.792483], [15.210495, 50.793158], [15.20813, 50.794662], [15.210195, 50.802428], [15.210752, 50.802692], [15.213007, 50.803376], [15.21422, 50.80417], [15.214819, 50.804881], [15.215214, 50.80561], [15.215387, 50.806147], [15.215633, 50.807184], [15.215892, 50.809536], [15.215928, 50.809697], [15.217789, 50.817562], [15.224696, 50.822292], [15.225144, 50.822469], [15.225429, 50.822643], [15.226692, 50.823605], [15.227295, 50.824272], [15.234057, 50.830203], [15.234841, 50.833527], [15.231459, 50.836773], [15.230329, 50.838167], [15.229925, 50.838525], [15.229588, 50.838736], [15.226692, 50.840172], [15.223762, 50.841624], [15.222054, 50.842466], [15.220402, 50.843278], [15.216822, 50.844288], [15.21368, 50.84479], [15.211698, 50.844947], [15.209007, 50.844814], [15.202452, 50.848424], [15.201144, 50.850812], [15.200555, 50.851158], [15.200018, 50.851426], [15.199536, 50.851631], [15.198949, 50.8518], [15.197323, 50.852232], [15.195927, 50.852647], [15.189741, 50.855114], [15.189222, 50.85556], [15.185919, 50.858113], [15.185387, 50.858601], [15.184173, 50.860292], [15.183939, 50.860681], [15.182194, 50.862383], [15.181612, 50.863103], [15.18007, 50.864586], [15.179932, 50.870886], [15.188767, 50.869451], [15.195869, 50.870579], [15.200357, 50.867352], [15.203097, 50.865683], [15.203204, 50.865635], [15.203806, 50.866173], [15.209113, 50.8722], [15.215529, 50.873466], [15.218972, 50.871629], [15.222121, 50.870562], [15.223606, 50.869872], [15.22403, 50.869749], [15.224356, 50.869696], [15.229881, 50.869613], [15.234709, 50.867176], [15.236891, 50.866134], [15.237401, 50.866341], [15.246071, 50.866041], [15.25057, 50.861521], [15.256636, 50.855498], [15.259086, 50.852879], [15.259846, 50.85207], [15.260547, 50.851262], [15.261727, 50.850049], [15.262711, 50.849285], [15.267184, 50.845321], [15.267701, 50.844689], [15.268413, 50.844154], [15.274164, 50.838079], [15.274532, 50.837614], [15.278705, 50.831185], [15.280012, 50.829337], [15.283883, 50.826322], [15.284782, 50.825572], [15.285569, 50.82501], [15.286622, 50.824396], [15.2893, 50.815895], [15.289222, 50.815345], [15.289245, 50.814774], [15.289405, 50.814136], [15.290998, 50.812135], [15.291588, 50.811682], [15.293194, 50.810523], [15.296329, 50.810776], [15.29645, 50.811565], [15.296165, 50.812564], [15.294048, 50.81968], [15.293415, 50.821345], [15.29262, 50.823476], [15.292394, 50.824043], [15.290533, 50.826204], [15.290194, 50.826521], [15.289748, 50.826832], [15.285155, 50.830624], [15.282819, 50.834993], [15.281962, 50.83641], [15.281299, 50.837107], [15.276789, 50.842512], [15.271706, 50.846885], [15.269637, 50.849371], [15.26927, 50.849782], [15.269118, 50.849936], [15.263772, 50.855843], [15.261999, 50.859585], [15.26053, 50.861003], [15.25883, 50.862889], [15.257962, 50.86369], [15.251767, 50.867238], [15.251144, 50.867733], [15.249588, 50.868532], [15.245972, 50.870925], [15.23913, 50.874584], [15.232892, 50.873739], [15.228108, 50.878114], [15.227735, 50.878491], [15.227366, 50.878738], [15.226353, 50.878498], [15.224687, 50.878187], [15.217617, 50.877083], [15.216643, 50.877451], [15.216132, 50.877572], [15.215237, 50.877704], [15.214769, 50.877754], [15.21401, 50.877877], [15.212194, 50.877758], [15.211287, 50.877875], [15.210592, 50.878038], [15.203963, 50.877532], [15.200519, 50.878066], [15.200308, 50.878185], [15.199944, 50.878317], [15.199268, 50.878455], [15.198568, 50.878488], [15.197929, 50.887462], [15.198378, 50.887524], [15.200104, 50.887595], [15.201811, 50.887651], [15.202465, 50.887771], [15.206182, 50.890069], [15.208179, 50.890799], [15.211316, 50.890807], [15.214602, 50.889212], [15.215629, 50.888922], [15.216275, 50.888632], [15.216973, 50.888432], [15.217584, 50.888355], [15.220736, 50.889632], [15.222592, 50.889705], [15.223344, 50.88972], [15.223958, 50.889855], [15.225672, 50.895574], [15.222369, 50.897039], [15.221829, 50.896962], [15.220968, 50.896673], [15.219541, 50.896369], [15.212537, 50.900506], [15.212056, 50.901749], [15.211575, 50.903021], [15.211169, 50.903859], [15.210567, 50.907975], [15.216436, 50.914366], [15.222475, 50.919762], [15.226675, 50.922863], [15.231624, 50.919996], [15.235389, 50.918835], [15.237066, 50.92208], [15.245081, 50.920965], [15.246415, 50.920002], [15.255379, 50.920552], [15.258103, 50.919582], [15.258636, 50.919419], [15.259236, 50.919285], [15.261286, 50.919015], [15.262278, 50.918895], [15.263003, 50.918853], [15.263588, 50.918866], [15.270465, 50.913465], [15.270792, 50.911987], [15.271149, 50.910147], [15.271405, 50.909354], [15.272006, 50.908071], [15.272485, 50.907445], [15.273189, 50.907009], [15.274813, 50.906096], [15.275121, 50.905949], [15.275942, 50.905619], [15.278104, 50.90486], [15.279109, 50.904904], [15.280003, 50.904988], [15.28102, 50.905184], [15.283824, 50.9056], [15.291288, 50.906288], [15.294986, 50.904876], [15.295129, 50.904801], [15.295154, 50.904806], [15.299903, 50.909336], [15.300844, 50.910286], [15.301242, 50.91062], [15.310104, 50.910992], [15.310626, 50.910745], [15.314573, 50.908828], [15.315136, 50.908724], [15.316953, 50.908629], [15.324511, 50.90591], [15.327757, 50.905325], [15.332478, 50.899586], [15.337042, 50.897686], [15.341995, 50.897463], [15.346191, 50.895261], [15.353889, 50.891509], [15.357204, 50.890878], [15.361791, 50.889428], [15.362475, 50.889893], [15.363038, 50.890433], [15.36328, 50.890643], [15.364023, 50.891392], [15.364221, 50.891628], [15.369016, 50.893713], [15.373178, 50.889783], [15.374384, 50.889206], [15.375174, 50.888915], [15.375667, 50.888799], [15.383858, 50.885703], [15.384827, 50.885226], [15.385272, 50.885056], [15.386123, 50.884781], [15.386644, 50.88467], [15.386979, 50.884613], [15.394033, 50.882795], [15.394732, 50.882573], [15.395313, 50.882416], [15.397508, 50.881773], [15.398648, 50.885188], [15.397577, 50.885546], [15.396538, 50.885941], [15.392251, 50.887288], [15.391596, 50.887496], [15.390907, 50.887672], [15.39037, 50.88778], [15.383272, 50.890336], [15.381608, 50.891373], [15.381242, 50.89156], [15.380752, 50.891752], [15.38022, 50.891904], [15.373183, 50.895968], [15.37132, 50.899049], [15.370077, 50.89907], [15.369494, 50.899047], [15.369102, 50.898993], [15.36866, 50.898873], [15.366321, 50.898419], [15.362652, 50.897347], [15.357437, 50.900162], [15.355221, 50.900946], [15.352734, 50.902342], [15.350724, 50.902333], [15.346232, 50.905515], [15.34832, 50.911076], [15.348317, 50.911345], [15.348209, 50.91191], [15.34786, 50.912964], [15.350119, 50.921013], [15.352534, 50.92144], [15.358537, 50.917918], [15.361184, 50.916634], [15.366114, 50.916555], [15.369874, 50.916979], [15.373048, 50.918452], [15.381038, 50.920516], [15.388867, 50.922712], [15.390035, 50.926117], [15.39552, 50.929077], [15.397001, 50.929236], [15.398362, 50.92933], [15.39944, 50.929459], [15.399012, 50.933033], [15.392993, 50.93529], [15.390964, 50.936124], [15.388975, 50.936789], [15.385507, 50.93903], [15.384366, 50.94026], [15.382598, 50.948459], [15.383022, 50.952034], [15.383351, 50.956257], [15.384592, 50.961383], [15.389599, 50.968168], [15.390819, 50.971555], [15.389339, 50.974487], [15.389003, 50.974633], [15.387908, 50.974558], [15.381059, 50.972501], [15.373038, 50.969371], [15.367609, 50.975041], [15.362648, 50.978846], [15.36116, 50.982326], [15.357619, 50.982975], [15.352748, 50.981184], [15.349862, 50.980405], [15.349188, 50.98042], [15.348589, 50.980327], [15.342811, 50.981667], [15.343911, 50.990001], [15.344531, 50.990598], [15.345819, 50.991712], [15.346238, 50.992112], [15.348851, 50.994093], [15.350211, 50.995213], [15.35099, 50.995986], [15.358125, 50.998061], [15.358724, 50.998156], [15.358981, 50.998242], [15.359986, 50.998509], [15.360358, 50.998593], [15.361638, 50.998959], [15.369221, 51.002908], [15.370861, 51.002679], [15.372987, 51.003541], [15.376902, 51.008646], [15.382869, 51.012115], [15.385701, 51.013273], [15.386445, 51.013559], [15.3881, 51.01416], [15.386871, 51.017544], [15.385216, 51.016943], [15.384412, 51.016635], [15.381507, 51.015447], [15.378963, 51.014506], [15.370969, 51.013866], [15.368937, 51.013034], [15.360155, 51.01194], [15.359761, 51.01212], [15.359229, 51.012303], [15.35851, 51.012468], [15.353709, 51.013291], [15.350005, 51.013434], [15.349177, 51.013509], [15.348595, 51.01352], [15.348049, 51.013494], [15.346795, 51.013363], [15.338441, 51.01459], [15.337966, 51.01572], [15.333677, 51.021702], [15.332502, 51.021531], [15.325518, 51.023065], [15.320643, 51.030598], [15.316002, 51.03818], [15.312524, 51.039523], [15.310475, 51.040356], [15.306908, 51.040841], [15.299054, 51.042204], [15.296666, 51.043427], [15.291411, 51.049276], [15.290935, 51.049728], [15.29013, 51.050226], [15.289437, 51.050536], [15.286796, 51.052553], [15.286083, 51.059282], [15.293699, 51.060267], [15.29433, 51.059786], [15.295118, 51.059055], [15.2965, 51.057902], [15.297283, 51.057445], [15.298925, 51.056516], [15.300008, 51.055495], [15.301052, 51.054766], [15.302075, 51.054023], [15.302828, 51.053447], [15.303996, 51.052568], [15.304393, 51.052432], [15.305773, 51.051731], [15.306934, 51.051258], [15.313442, 51.05335], [15.314974, 51.053712], [15.317969, 51.053672], [15.318828, 51.0537], [15.31871, 51.057298], [15.313425, 51.058716], [15.307445, 51.058408], [15.304585, 51.05917], [15.303483, 51.059429], [15.302419, 51.059586], [15.299364, 51.067739], [15.301024, 51.072724], [15.30178, 51.07531], [15.301666, 51.076266], [15.301522, 51.082673], [15.301545, 51.083651], [15.297508, 51.087782], [15.297179, 51.08776], [15.295917, 51.087395], [15.294134, 51.085093], [15.293283, 51.081174], [15.293135, 51.080479], [15.293144, 51.079969], [15.293376, 51.078356], [15.291829, 51.073817], [15.285039, 51.072447], [15.281872, 51.070736], [15.281008, 51.069266], [15.276902, 51.064046], [15.269858, 51.059274], [15.269488, 51.058665], [15.261762, 51.054415], [15.259088, 51.055011], [15.256666, 51.055378], [15.256127, 51.051819], [15.249937, 51.046117], [15.248325, 51.045967], [15.247658, 51.045966], [15.246219, 51.04591], [15.245541, 51.045855], [15.244377, 51.045728], [15.243967, 51.045652], [15.239901, 51.045202], [15.237575, 51.045271], [15.232045, 51.038934], [15.230439, 51.039189], [15.230087, 51.039209], [15.228849, 51.039215], [15.227771, 51.039247], [15.225185, 51.039823], [15.224797, 51.039858], [15.22436, 51.039862], [15.223885, 51.039798], [15.221536, 51.040009], [15.220964, 51.040133], [15.220508, 51.040165], [15.220126, 51.040145], [15.22007, 51.040143], [15.217928, 51.040444], [15.216983, 51.048832], [15.220136, 51.049803], [15.221294, 51.050167], [15.22139, 51.05185], [15.221291, 51.052127], [15.220213, 51.053601], [15.216528, 51.053102], [15.213585, 51.051622], [15.213273, 51.051563], [15.21183, 51.051131], [15.20907, 51.051314], [15.205469, 51.057594], [15.207714, 51.06155], [15.208273, 51.065474], [15.205162, 51.067285], [15.202506, 51.068027], [15.199828, 51.064676], [15.192446, 51.062799], [15.187934, 51.065654], [15.184482, 51.066677], [15.175976, 51.06525], [15.171771, 51.069197], [15.166607, 51.075784], [15.164888, 51.078947], [15.162063, 51.077412], [15.157537, 51.084619], [15.159561, 51.087595], [15.163589, 51.089907], [15.164391, 51.090014], [15.164986, 51.09013], [15.166943, 51.090567], [15.169281, 51.09106], [15.174733, 51.091146], [15.177635, 51.092372], [15.180984, 51.093409], [15.183778, 51.093904], [15.186324, 51.094343], [15.18888, 51.094783], [15.191735, 51.095293], [15.191103, 51.098837], [15.188247, 51.098327], [15.185712, 51.09789], [15.183167, 51.097451], [15.180356, 51.096954], [15.177554, 51.096457], [15.176112, 51.096181], [15.173213, 51.09557], [15.170875, 51.095076], [15.168537, 51.094583], [15.166199, 51.094089], [15.164202, 51.093644], [15.163129, 51.093477], [15.158064, 51.093558], [15.157132, 51.093633], [15.148964, 51.097013], [15.148293, 51.097446], [15.14697, 51.098078], [15.141311, 51.104957], [15.143698, 51.106555], [15.143935, 51.106706], [15.143888, 51.109212], [15.143298, 51.10978], [15.1428, 51.109945], [15.141997, 51.10974], [15.138578, 51.107881], [15.13477, 51.105077], [15.130208, 51.103745], [15.128962, 51.103453], [15.128077, 51.103111], [15.127254, 51.102822], [15.126074, 51.102338], [15.124944, 51.101821], [15.123672, 51.100701], [15.121669, 51.098492], [15.114575, 51.096048], [15.114228, 51.096057], [15.113559, 51.09603], [15.108209, 51.096561], [15.106139, 51.096777], [15.104299, 51.096953], [15.103014, 51.096891], [15.102848, 51.096837], [15.102173, 51.096426], [15.097008, 51.094212], [15.094502, 51.094338], [15.092306, 51.094983], [15.08868, 51.095962], [15.085575, 51.10406], [15.08828, 51.105431], [15.096092, 51.107941], [15.09726, 51.107702], [15.09873, 51.107445], [15.101584, 51.109451], [15.102867, 51.112815], [15.100433, 51.115349], [15.096313, 51.118033], [15.095307, 51.117253], [15.094434, 51.116572], [15.087482, 51.113016], [15.082217, 51.112909], [15.079722, 51.112843], [15.074702, 51.111158], [15.067699, 51.113733], [15.066414, 51.11477], [15.064506, 51.116349], [15.064897, 51.12457], [15.06617, 51.1254], [15.066962, 51.126192], [15.067467, 51.126845], [15.06683, 51.129699], [15.066206, 51.129965], [15.06479, 51.129252], [15.057729, 51.129694], [15.055597, 51.131615], [15.054898, 51.131046], [15.054601, 51.130751], [15.054173, 51.129958], [15.046003, 51.127426], [15.04424, 51.128305], [15.041617, 51.129539], [15.040259, 51.130152], [15.038572, 51.131386], [15.036352, 51.138624], [15.036509, 51.144686], [15.036885, 51.146099], [15.035989, 51.146792], [15.032777, 51.148853], [15.032234, 51.149206], [15.030647, 51.14873], [15.022226, 51.145707], [15.021615, 51.145234], [15.017789, 51.143329], [15.012536, 51.143926], [15.010916, 51.14436], [15.010256, 51.144476], [15.010174, 51.144462], [15.008909, 51.143735], [15.007069, 51.14153], [15.006488, 51.140401], [15.00382, 51.13529], [15.003575, 51.134897], [15.003505, 51.134754], [15.003521, 51.134264], [15.003571, 51.13359], [15.003225, 51.130716], [15.003223, 51.130701], [15.002832, 51.127509], [15.002659, 51.126], [15.003271, 51.118843], [15.003228, 51.117758], [14.996227, 51.112955], [14.990777, 51.11922], [14.99076, 51.119323], [14.990499, 51.120092], [14.990342, 51.120406], [14.989843, 51.121001], [14.986218, 51.125518], [14.988134, 51.130626], [14.988414, 51.131224], [14.984214, 51.136187], [14.984023, 51.136525], [14.980889, 51.134754], [14.978171, 51.128997], [14.970951, 51.128543], [14.968561, 51.129939], [14.961104, 51.131058], [14.959785, 51.13121], [14.959303, 51.130901], [14.958197, 51.128934], [14.958329, 51.128754], [14.956348, 51.121299], [14.953334, 51.121042], [14.951418, 51.120868], [14.949493, 51.120692], [14.946705, 51.120426], [14.943478, 51.120116], [14.937174, 51.121921], [14.933833, 51.120075], [14.930237, 51.116616], [14.929409, 51.116006], [14.92282, 51.116286], [14.920842, 51.119293], [14.914882, 51.121604], [14.910636, 51.120127], [14.908243, 51.117403], [14.905849, 51.114679], [14.899189, 51.120127], [14.898273, 51.123608], [14.893611, 51.127409], [14.89214, 51.130695], [14.889048, 51.132024], [14.882549, 51.134832], [14.878455, 51.136111], [14.877904, 51.135703], [14.875977, 51.134239], [14.875342, 51.131701], [14.875578, 51.130484], [14.877604, 51.12417], [14.877554, 51.123447], [14.877446, 51.120244], [14.876919, 51.116683], [14.87785, 51.112974], [14.876931, 51.110451], [14.869861, 51.108758], [14.868917, 51.109317], [14.86815, 51.1097], [14.866893, 51.110172], [14.866183, 51.11038], [14.865126, 51.110623], [14.863119, 51.111], [14.86075, 51.11911], [14.860044, 51.120833], [14.858807, 51.126662], [14.858765, 51.127409], [14.858761, 51.127469], [14.857808, 51.128753], [14.85763, 51.128878], [14.857039, 51.129106], [14.856885, 51.129098], [14.850625, 51.128889], [14.845894, 51.127672], [14.840244, 51.121435], [14.838471, 51.120849], [14.82995, 51.120954], [14.827929, 51.122049], [14.827008, 51.122518], [14.823006, 51.124147], [14.816695, 51.126944], [14.812658, 51.12896], [14.811208, 51.129683], [14.809575, 51.126475], [14.810904, 51.125798], [14.81125, 51.125646], [14.814561, 51.123891], [14.815744, 51.123008], [14.816411, 51.12256], [14.817209, 51.122168], [14.821976, 51.115738], [14.82142, 51.112664], [14.813743, 51.10942], [14.80725, 51.109641], [14.804846, 51.112581], [14.803392, 51.115487], [14.800574, 51.115495], [14.798584, 51.115913], [14.796642, 51.116319], [14.791084, 51.122357], [14.790049, 51.124191], [14.789863, 51.130957], [14.794155, 51.135894], [14.796516, 51.13711], [14.796981, 51.137332], [14.79751, 51.137559], [14.797958, 51.137959], [14.799681, 51.139071], [14.801658, 51.140099], [14.802046, 51.142153], [14.804658, 51.147146], [14.805375, 51.150674], [14.803009, 51.151154], [14.800362, 51.159379], [14.799897, 51.159706], [14.799251, 51.160061], [14.794722, 51.161384], [14.792045, 51.159768], [14.792031, 51.158993], [14.792582, 51.156208], [14.786871, 51.150688], [14.783434, 51.150151], [14.779997, 51.149613], [14.773039, 51.15469], [14.775232, 51.158287], [14.774738, 51.161853], [14.771613, 51.16142], [14.765117, 51.163587], [14.764608, 51.163825], [14.761892, 51.165208], [14.76004, 51.166321], [14.756003, 51.169356], [14.754719, 51.168851], [14.753771, 51.166179], [14.754214, 51.165803], [14.754885, 51.165069], [14.750094, 51.157782], [14.747058, 51.15735], [14.741541, 51.158421], [14.739565, 51.16029], [14.737337, 51.162145], [14.74063, 51.169994], [14.74189, 51.170123], [14.741524, 51.173704], [14.738144, 51.17972], [14.739475, 51.1827], [14.742565, 51.184647], [14.742645, 51.184681], [14.744022, 51.186916], [14.744771, 51.189869], [14.74473, 51.18991], [14.743179, 51.190416], [14.74304, 51.190383], [14.737032, 51.188392], [14.733348, 51.182581], [14.731961, 51.181534], [14.730721, 51.180561], [14.730271, 51.180174], [14.729954, 51.179844], [14.720978, 51.179286], [14.717813, 51.181001], [14.715699, 51.189452], [14.721672, 51.191189], [14.722089, 51.192294], [14.722423, 51.19471], [14.720948, 51.195024], [14.719667, 51.1952], [14.713127, 51.200472], [14.709829, 51.201914], [14.709672, 51.210824], [14.711184, 51.211103], [14.712383, 51.211298], [14.713597, 51.211454], [14.714481, 51.211548], [14.715212, 51.211604], [14.715929, 51.211642], [14.716888, 51.211667], [14.717618, 51.211662], [14.718278, 51.211635], [14.719102, 51.211583], [14.7205, 51.211435], [14.722125, 51.21115], [14.723431, 51.210833], [14.724792, 51.210407], [14.726107, 51.209906], [14.728345, 51.208947], [14.730583, 51.207989], [14.732, 51.211298], [14.729763, 51.212257], [14.727525, 51.213215], [14.726077, 51.21377], [14.724512, 51.214266], [14.722986, 51.214646], [14.72113, 51.214979], [14.719491, 51.215162], [14.718515, 51.215228], [14.717758, 51.215259], [14.716919, 51.215267], [14.715839, 51.215241], [14.715024, 51.215199], [14.714209, 51.215138], [14.713219, 51.215034], [14.711923, 51.214868], [14.710611, 51.214657], [14.709018, 51.214364], [14.707372, 51.214031], [14.70481, 51.21347], [14.702009, 51.21285], [14.699359, 51.212264], [14.69677, 51.211695], [14.694514, 51.211195], [14.692258, 51.210696], [14.690002, 51.210196], [14.684193, 51.20891], [14.681293, 51.208299], [14.680392, 51.208127], [14.679229, 51.207954], [14.672989, 51.210673], [14.672417, 51.219305], [14.673358, 51.220084], [14.673461, 51.220272], [14.67278, 51.22256], [14.670688, 51.224109], [14.668007, 51.225046], [14.667506, 51.225098], [14.666957, 51.225077], [14.666188, 51.221917], [14.660998, 51.21831], [14.658165, 51.216089], [14.658444, 51.215733], [14.657902, 51.208312], [14.653019, 51.208509], [14.649468, 51.208642], [14.648231, 51.208716], [14.647737, 51.208751], [14.647113, 51.208829], [14.645971, 51.208997], [14.645, 51.209195], [14.64136, 51.216747], [14.641472, 51.21934], [14.640199, 51.220155], [14.635102, 51.220454], [14.627084, 51.220166], [14.624161, 51.222267], [14.623736, 51.221676], [14.617585, 51.216936], [14.609242, 51.217378], [14.600491, 51.218585], [14.598759, 51.215429], [14.594565, 51.210856], [14.596274, 51.207687], [14.598151, 51.199068], [14.592909, 51.196765], [14.585225, 51.196978], [14.584487, 51.197284], [14.583702, 51.1975], [14.582023, 51.198015], [14.581818, 51.198076], [14.58082, 51.198421], [14.578651, 51.199189], [14.570886, 51.203355], [14.570146, 51.206465], [14.569537, 51.208864], [14.568088, 51.210142], [14.567354, 51.210292], [14.56207, 51.211101], [14.560957, 51.207678], [14.562223, 51.202449], [14.559284, 51.198745], [14.553287, 51.195664], [14.549998, 51.200581], [14.5499, 51.201029], [14.549302, 51.202879], [14.548703, 51.204729], [14.545278, 51.203621], [14.545876, 51.201771], [14.542005, 51.194882], [14.537735, 51.19511], [14.533793, 51.194224], [14.531652, 51.193975], [14.532068, 51.190399], [14.53421, 51.190649], [14.540128, 51.189129], [14.543724, 51.188953], [14.55053, 51.191024], [14.551318, 51.191065], [14.553744, 51.191173], [14.554422, 51.191165], [14.556309, 51.1911], [14.558241, 51.191033], [14.55885, 51.190969], [14.560634, 51.190698], [14.562193, 51.182434], [14.564855, 51.176774], [14.564509, 51.171289], [14.564107, 51.167712], [14.558479, 51.163961], [14.555579, 51.163873], [14.553032, 51.163822], [14.553104, 51.160222], [14.546976, 51.156577], [14.543762, 51.155647], [14.543655, 51.155617], [14.536184, 51.157473], [14.536372, 51.161677], [14.536744, 51.165258], [14.533641, 51.168788], [14.530398, 51.170403], [14.527112, 51.168933], [14.525138, 51.167612], [14.523508, 51.164403], [14.517161, 51.162584], [14.514309, 51.165683], [14.513643, 51.166567], [14.507387, 51.170986], [14.506609, 51.171673], [14.504807, 51.173476], [14.503279, 51.173259], [14.501022, 51.170454], [14.494603, 51.168831], [14.492069, 51.169532], [14.486968, 51.17086], [14.48678, 51.170904], [14.486382, 51.170976], [14.486049, 51.170766], [14.485956, 51.1674]]], "type": "Polygon"}}], "metadata": {"attribution": "openrouteservice.org | OpenStreetMap contributors", "service": "isochrones", "timestamp": 1785652328476, "query": {"profile": "driving-car", "profileName": "driving-car", "locations": [[15.0543, 50.7663]], "range": [3600.0], "range_type": "time"}, "engine": {"version": "9.9.0", "build_date": "2026-06-12T10:08:58Z", "graph_date": "2026-07-26T12:04:00Z", "osm_date": "2026-07-20T00:00:00Z"}}}