{"type": "FeatureCollection", "bbox": [13.819362, 48.45027, 15.149042, 49.671007], "features": [{"type": "Feature", "properties": {"group_index": 0, "value": 3600.0, "center": [14.474204696264175, 48.97408024219314]}, "geometry": {"coordinates": [[[13.926951, 49.248932], [13.927546, 49.248819], [13.931199, 49.24828], [13.935672, 49.244875], [13.933367, 49.238801], [13.933055, 49.235214], [13.939402, 49.233726], [13.93997, 49.233561], [13.940554, 49.233463], [13.948511, 49.229871], [13.951456, 49.2278], [13.950988, 49.221184], [13.950914, 49.221009], [13.952568, 49.218497], [13.952774, 49.218521], [13.958603, 49.217698], [13.958635, 49.217687], [13.964424, 49.212551], [13.964737, 49.208965], [13.962285, 49.200441], [13.962451, 49.196845], [13.967216, 49.195216], [13.970676, 49.190461], [13.9711, 49.189568], [13.971343, 49.189003], [13.973007, 49.186263], [13.973415, 49.185616], [13.975864, 49.185095], [13.978308, 49.185915], [13.97917, 49.186072], [13.983438, 49.185886], [13.985649, 49.18421], [13.983973, 49.176155], [13.978372, 49.175433], [13.977539, 49.175675], [13.976972, 49.175778], [13.975587, 49.175922], [13.975026, 49.175924], [13.973964, 49.175881], [13.973286, 49.175879], [13.97227, 49.175918], [13.971692, 49.175899], [13.971233, 49.175849], [13.97003, 49.175805], [13.969678, 49.175773], [13.968113, 49.175565], [13.96734, 49.175551], [13.966427, 49.175581], [13.961946, 49.176528], [13.961095, 49.176853], [13.960943, 49.176905], [13.960286, 49.1771], [13.955037, 49.178917], [13.953727, 49.179996], [13.953417, 49.180218], [13.95277, 49.180696], [13.951608, 49.181434], [13.950442, 49.182107], [13.949291, 49.182454], [13.947593, 49.182658], [13.946275, 49.182852], [13.938586, 49.17926], [13.933943, 49.179839], [13.932831, 49.176415], [13.9252, 49.17261], [13.923387, 49.17296], [13.922899, 49.173006], [13.922059, 49.172952], [13.91844, 49.172404], [13.916076, 49.172352], [13.910842, 49.165971], [13.90913, 49.165778], [13.907652, 49.165904], [13.905287, 49.166138], [13.904297, 49.166202], [13.903637, 49.166295], [13.902499, 49.166587], [13.897109, 49.173149], [13.896133, 49.17517], [13.895175, 49.17883], [13.895174, 49.178838], [13.893388, 49.178613], [13.891601, 49.178403], [13.891072, 49.176356], [13.884255, 49.172613], [13.883627, 49.17272], [13.883342, 49.172743], [13.882582, 49.171534], [13.880863, 49.166583], [13.88087, 49.166499], [13.882394, 49.164928], [13.883699, 49.16387], [13.884964, 49.162925], [13.889924, 49.156925], [13.890682, 49.153405], [13.891055, 49.153486], [13.892209, 49.153641], [13.896092, 49.153251], [13.897021, 49.153351], [13.897686, 49.153452], [13.90224, 49.152918], [13.902476, 49.145354], [13.900259, 49.142119], [13.899463, 49.141402], [13.89858, 49.140546], [13.898064, 49.140121], [13.896364, 49.138916], [13.894023, 49.137175], [13.896172, 49.134286], [13.898513, 49.136027], [13.899481, 49.136619], [13.899848, 49.136857], [13.900072, 49.137024], [13.901318, 49.138047], [13.90494, 49.139869], [13.90561, 49.140275], [13.914182, 49.141392], [13.914576, 49.141285], [13.915591, 49.141146], [13.919038, 49.140788], [13.921059, 49.132305], [13.920672, 49.130883], [13.919524, 49.127471], [13.920205, 49.126409], [13.922142, 49.123946], [13.922277, 49.123944], [13.925522, 49.123305], [13.928208, 49.115963], [13.928103, 49.111874], [13.922542, 49.104872], [13.920336, 49.106509], [13.919798, 49.106909], [13.919207, 49.107447], [13.916537, 49.107014], [13.91602, 49.103451], [13.917448, 49.096692], [13.917536, 49.096025], [13.917713, 49.09577], [13.918213, 49.095255], [13.919742, 49.094121], [13.920131, 49.093867], [13.920257, 49.093805], [13.919363, 49.084865], [13.915906, 49.085721], [13.915635, 49.085814], [13.915043, 49.085931], [13.914464, 49.085923], [13.913228, 49.085828], [13.912771, 49.08572], [13.904002, 49.083839], [13.900658, 49.085174], [13.896558, 49.084148], [13.895871, 49.083976], [13.893386, 49.083318], [13.889615, 49.082282], [13.890496, 49.078791], [13.893623, 49.07958], [13.894193, 49.079597], [13.899714, 49.07857], [13.906561, 49.073308], [13.90258, 49.065636], [13.901065, 49.065475], [13.900518, 49.065366], [13.899935, 49.065149], [13.898776, 49.064722], [13.89797, 49.064347], [13.89726, 49.063952], [13.896101, 49.063208], [13.888519, 49.062916], [13.888257, 49.063027], [13.880108, 49.066176], [13.880108, 49.066896], [13.880868, 49.069183], [13.88088, 49.069329], [13.881034, 49.071415], [13.880579, 49.071579], [13.88008, 49.071694], [13.879613, 49.071748], [13.8793, 49.071754], [13.878142, 49.0717], [13.871534, 49.071774], [13.870913, 49.071895], [13.870156, 49.071952], [13.869885, 49.068363], [13.871394, 49.059706], [13.871124, 49.059156], [13.87, 49.056833], [13.869373, 49.055502], [13.868993, 49.054535], [13.868872, 49.054047], [13.868884, 49.053329], [13.869113, 49.052607], [13.869287, 49.052271], [13.865557, 49.044257], [13.861717, 49.045048], [13.854953, 49.05017], [13.854693, 49.050876], [13.852861, 49.053183], [13.851565, 49.056391], [13.850961, 49.057594], [13.850353, 49.058018], [13.848863, 49.058946], [13.845781, 49.057085], [13.845815, 49.056998], [13.846068, 49.056493], [13.84267, 49.048726], [13.839823, 49.049678], [13.839462, 49.049823], [13.836744, 49.049857], [13.833233, 49.050653], [13.832636, 49.050751], [13.832023, 49.050806], [13.831274, 49.050803], [13.823979, 49.051271], [13.823532, 49.051355], [13.82282, 49.051428], [13.82218, 49.051432], [13.821423, 49.051368], [13.820688, 49.051226], [13.820037, 49.051033], [13.819362, 49.050779], [13.82063, 49.04741], [13.826418, 49.046896], [13.827125, 49.046831], [13.827689, 49.046825], [13.828055, 49.046847], [13.831126, 49.047181], [13.832627, 49.047104], [13.835945, 49.046346], [13.841289, 49.040202], [13.84158, 49.038604], [13.84283, 49.03689], [13.84353, 49.036451], [13.844654, 49.035742], [13.845364, 49.035319], [13.853618, 49.032232], [13.854257, 49.032051], [13.862332, 49.030934], [13.864197, 49.030428], [13.86458, 49.030817], [13.864807, 49.031087], [13.865086, 49.031579], [13.866566, 49.034589], [13.873471, 49.035363], [13.876323, 49.035582], [13.883175, 49.033074], [13.890467, 49.036453], [13.890926, 49.0367], [13.893852, 49.037757], [13.895779, 49.038174], [13.902912, 49.032857], [13.902798, 49.032428], [13.902144, 49.02934], [13.902552, 49.029251], [13.90311, 49.029182], [13.909325, 49.026955], [13.912714, 49.01883], [13.912366, 49.018461], [13.911802, 49.017721], [13.911387, 49.017103], [13.914376, 49.015096], [13.917569, 49.015704], [13.918134, 49.015734], [13.918781, 49.015845], [13.920323, 49.01609], [13.927026, 49.010149], [13.927161, 49.009343], [13.927377, 49.008777], [13.930951, 49.008346], [13.931001, 49.008766], [13.93189, 49.01207], [13.932557, 49.013577], [13.93284, 49.014692], [13.938943, 49.018291], [13.942568, 49.015817], [13.942694, 49.015866], [13.943502, 49.016185], [13.944142, 49.016952], [13.944398, 49.017827], [13.946902, 49.022715], [13.955458, 49.024502], [13.956173, 49.024263], [13.957746, 49.023692], [13.961736, 49.017139], [13.961073, 49.0136], [13.961961, 49.013397], [13.96494, 49.012502], [13.966284, 49.012118], [13.968108, 49.011786], [13.969238, 49.011766], [13.970437, 49.011747], [13.976457, 49.015074], [13.98008, 49.011018], [13.980227, 49.010424], [13.981476, 49.002544], [13.973532, 48.998595], [13.972915, 48.997831], [13.972145, 48.996587], [13.971708, 48.995912], [13.971366, 48.995095], [13.970582, 48.993256], [13.969702, 48.991311], [13.969516, 48.990849], [13.969458, 48.990225], [13.969479, 48.98998], [13.97093, 48.988023], [13.971378, 48.987555], [13.971993, 48.987032], [13.973797, 48.984634], [13.975193, 48.980096], [13.969091, 48.974414], [13.965737, 48.976533], [13.965334, 48.976952], [13.964596, 48.977563], [13.963062, 48.978478], [13.962651, 48.97865], [13.960614, 48.979849], [13.954851, 48.979554], [13.951459, 48.975228], [13.952287, 48.971725], [13.946911, 48.965576], [13.946409, 48.965394], [13.946186, 48.965292], [13.946177, 48.965251], [13.946167, 48.965207], [13.946208, 48.965008], [13.9465, 48.9638], [13.939874, 48.958146], [13.939833, 48.958156], [13.938938, 48.958221], [13.938204, 48.95801], [13.937483, 48.957825], [13.935714, 48.95742], [13.934021, 48.95703], [13.926535, 48.95736], [13.92254, 48.955752], [13.921963, 48.95557], [13.921295, 48.955155], [13.920718, 48.954345], [13.920613, 48.953326], [13.920657, 48.953091], [13.923448, 48.952269], [13.923834, 48.95228], [13.924141, 48.952331], [13.924486, 48.952428], [13.930978, 48.951035], [13.931316, 48.950726], [13.931752, 48.950404], [13.932088, 48.95018], [13.936592, 48.942483], [13.935015, 48.940648], [13.928855, 48.939564], [13.928543, 48.939569], [13.927929, 48.939542], [13.927123, 48.939551], [13.926272, 48.939584], [13.925213, 48.939612], [13.925006, 48.936018], [13.924943, 48.929532], [13.922435, 48.926617], [13.918988, 48.925022], [13.918272, 48.92436], [13.917935, 48.923689], [13.920098, 48.920679], [13.920306, 48.920821], [13.923923, 48.923339], [13.924591, 48.923699], [13.927233, 48.925376], [13.928295, 48.926671], [13.928779, 48.927492], [13.929685, 48.929393], [13.931354, 48.932], [13.933069, 48.933338], [13.933896, 48.933946], [13.934518, 48.934551], [13.936168, 48.936466], [13.937745, 48.938302], [13.939322, 48.940137], [13.940899, 48.941972], [13.941243, 48.942469], [13.942687, 48.945642], [13.94353, 48.947337], [13.947833, 48.94987], [13.952483, 48.94223], [13.950097, 48.939079], [13.948925, 48.937153], [13.950428, 48.935494], [13.945607, 48.928069], [13.944913, 48.928084], [13.944287, 48.928006], [13.94343, 48.927782], [13.942391, 48.927325], [13.941952, 48.927029], [13.941368, 48.926681], [13.940769, 48.926385], [13.940098, 48.92599], [13.941923, 48.922887], [13.946702, 48.923274], [13.952931, 48.916862], [13.95343, 48.917062], [13.958431, 48.917891], [13.959208, 48.921406], [13.962862, 48.928379], [13.967852, 48.928545], [13.969638, 48.928936], [13.971081, 48.929118], [13.972102, 48.929154], [13.973119, 48.929282], [13.979282, 48.922958], [13.978802, 48.921718], [13.978691, 48.920448], [13.97856, 48.919725], [13.971584, 48.914098], [13.969728, 48.914066], [13.96809, 48.913229], [13.965792, 48.908001], [13.964583, 48.90669], [13.963931, 48.904577], [13.964302, 48.903151], [13.966786, 48.902471], [13.974378, 48.905028], [13.979222, 48.901685], [13.97977, 48.901051], [13.980097, 48.900769], [13.980597, 48.900461], [13.985004, 48.898159], [13.985634, 48.897855], [13.986936, 48.897453], [13.989937, 48.889935], [13.991094, 48.884227], [13.991127, 48.882437], [13.989668, 48.878234], [13.983108, 48.874835], [13.981973, 48.871419], [13.983474, 48.870921], [13.988094, 48.86987], [13.989729, 48.869582], [13.992508, 48.86919], [13.999561, 48.873437], [14.001135, 48.873269], [14.00185, 48.873239], [14.005116, 48.87271], [14.00708, 48.872076], [14.007559, 48.871996], [14.008145, 48.871938], [14.009015, 48.871917], [14.010064, 48.871893], [14.010578, 48.871926], [14.01416, 48.871957], [14.014681, 48.875519], [14.0179, 48.883476], [14.020591, 48.882698], [14.021083, 48.882478], [14.02165, 48.882325], [14.022223, 48.882245], [14.027155, 48.882176], [14.028123, 48.881892], [14.03192, 48.882202], [14.034396, 48.882432], [14.034827, 48.882501], [14.038115, 48.883763], [14.042532, 48.884911], [14.044469, 48.885071], [14.046111, 48.88502], [14.05065, 48.884071], [14.051202, 48.883807], [14.053041, 48.883068], [14.057491, 48.884311], [14.062313, 48.881969], [14.065356, 48.881558], [14.065749, 48.88146], [14.065975, 48.881416], [14.066163, 48.881413], [14.066302, 48.88144], [14.072322, 48.88471], [14.079126, 48.890425], [14.080247, 48.89064], [14.082268, 48.891832], [14.083793, 48.892804], [14.087166, 48.89348], [14.092442, 48.887856], [14.092782, 48.88652], [14.093104, 48.886035], [14.09363, 48.885375], [14.094302, 48.884557], [14.094573, 48.884233], [14.095823, 48.882626], [14.095905, 48.882635], [14.098843, 48.884716], [14.097888, 48.890268], [14.098141, 48.891367], [14.105602, 48.895863], [14.109198, 48.896037], [14.11059, 48.897267], [14.111231, 48.897803], [14.111327, 48.897927], [14.110389, 48.899394], [14.109547, 48.900984], [14.110454, 48.909829], [14.110992, 48.90997], [14.111618, 48.910214], [14.112189, 48.910534], [14.112691, 48.910938], [14.116295, 48.912875], [14.116811, 48.913028], [14.11787, 48.913497], [14.118571, 48.913961], [14.121983, 48.915362], [14.123428, 48.915466], [14.129035, 48.912931], [14.130514, 48.909001], [14.132385, 48.909679], [14.136, 48.90908], [14.135382, 48.900716], [14.132661, 48.898407], [14.128037, 48.89093], [14.127621, 48.890766], [14.126758, 48.890002], [14.125991, 48.889062], [14.12531, 48.888195], [14.123815, 48.88667], [14.122921, 48.8857], [14.120352, 48.883366], [14.119894, 48.881737], [14.115918, 48.874027], [14.115171, 48.873873], [14.114023, 48.873517], [14.105909, 48.871978], [14.103626, 48.871727], [14.102117, 48.871067], [14.101742, 48.870897], [14.101119, 48.870456], [14.094994, 48.869436], [14.093556, 48.869722], [14.091964, 48.869658], [14.088578, 48.869693], [14.08542, 48.870026], [14.084095, 48.870012], [14.082373, 48.869776], [14.080621, 48.869346], [14.078881, 48.868918], [14.07651, 48.868355], [14.074152, 48.867795], [14.07218, 48.867342], [14.070081, 48.866855], [14.068999, 48.86651], [14.067402, 48.865826], [14.065302, 48.864902], [14.063903, 48.864541], [14.063052, 48.864409], [14.060816, 48.864209], [14.057867, 48.863469], [14.054739, 48.863584], [14.053811, 48.863753], [14.052796, 48.863822], [14.049812, 48.864628], [14.049045, 48.864715], [14.048826, 48.864702], [14.048166, 48.864563], [14.046765, 48.864365], [14.045584, 48.864214], [14.042674, 48.864369], [14.041729, 48.864458], [14.039885, 48.864688], [14.039095, 48.864736], [14.037781, 48.864731], [14.037797, 48.861131], [14.041277, 48.860887], [14.043013, 48.860676], [14.044248, 48.860517], [14.045129, 48.860536], [14.052679, 48.856754], [14.053344, 48.855841], [14.056255, 48.857959], [14.064437, 48.860981], [14.06618, 48.861411], [14.06882, 48.862517], [14.072986, 48.863833], [14.074958, 48.864286], [14.077342, 48.864852], [14.079714, 48.865416], [14.088188, 48.866114], [14.094278, 48.865908], [14.097301, 48.865408], [14.09821, 48.865364], [14.099059, 48.865415], [14.101404, 48.86594], [14.107539, 48.866856], [14.109043, 48.8667], [14.110431, 48.866959], [14.112836, 48.867879], [14.113596, 48.868201], [14.114199, 48.868586], [14.118899, 48.870629], [14.119934, 48.870666], [14.120742, 48.870756], [14.121223, 48.87086], [14.122518, 48.871665], [14.123101, 48.872343], [14.1239, 48.873851], [14.126596, 48.876634], [14.127579, 48.878108], [14.127362, 48.879492], [14.128217, 48.885971], [14.13085, 48.887994], [14.131979, 48.888488], [14.132502, 48.888654], [14.136519, 48.889686], [14.138077, 48.889676], [14.138486, 48.889694], [14.144161, 48.882775], [14.143963, 48.881927], [14.143964, 48.88169], [14.143871, 48.880097], [14.143684, 48.878905], [14.143773, 48.878394], [14.147305, 48.879016], [14.147551, 48.881383], [14.147929, 48.882577], [14.148162, 48.883257], [14.148675, 48.885459], [14.153901, 48.889842], [14.161881, 48.885854], [14.163667, 48.881854], [14.164449, 48.881014], [14.166871, 48.87737], [14.164877, 48.869791], [14.162644, 48.868797], [14.160212, 48.867338], [14.156812, 48.865641], [14.156116, 48.865492], [14.155134, 48.865255], [14.154053, 48.864817], [14.151132, 48.863582], [14.150082, 48.863033], [14.146641, 48.862009], [14.143094, 48.862292], [14.141873, 48.862705], [14.14121, 48.862786], [14.140672, 48.86276], [14.137251, 48.861167], [14.134574, 48.858988], [14.133862, 48.858615], [14.131725, 48.857672], [14.131122, 48.857291], [14.127637, 48.855955], [14.127028, 48.855826], [14.12636, 48.855564], [14.123679, 48.85509], [14.122529, 48.854828], [14.121164, 48.854674], [14.120377, 48.854504], [14.119791, 48.854206], [14.12085, 48.850754], [14.123237, 48.851298], [14.124479, 48.85158], [14.126984, 48.852018], [14.129379, 48.852308], [14.130036, 48.85236], [14.130777, 48.852495], [14.131571, 48.852847], [14.132147, 48.853312], [14.134916, 48.855014], [14.136599, 48.855804], [14.137161, 48.856039], [14.137778, 48.856432], [14.139149, 48.857374], [14.144273, 48.858241], [14.150498, 48.85288], [14.150888, 48.851947], [14.151216, 48.843449], [14.149894, 48.842073], [14.148925, 48.840187], [14.151383, 48.837557], [14.152115, 48.83824], [14.155301, 48.841269], [14.15626, 48.842398], [14.156606, 48.843899], [14.156732, 48.844388], [14.157073, 48.845303], [14.157568, 48.846989], [14.158063, 48.848132], [14.158001, 48.849001], [14.157587, 48.849805], [14.156751, 48.851237], [14.155305, 48.8559], [14.159224, 48.862612], [14.162065, 48.864252], [14.170367, 48.864368], [14.171665, 48.863407], [14.173045, 48.862355], [14.173335, 48.862094], [14.177084, 48.85519], [14.176463, 48.851665], [14.177595, 48.851245], [14.178409, 48.850758], [14.177301, 48.842147], [14.174896, 48.841579], [14.173828, 48.841695], [14.173429, 48.841784], [14.172151, 48.841986], [14.169929, 48.842372], [14.169503, 48.84242], [14.169385, 48.842413], [14.168257, 48.840431], [14.168163, 48.840278], [14.168002, 48.839731], [14.168828, 48.838856], [14.169478, 48.838801], [14.171531, 48.83844], [14.173622, 48.83798], [14.174043, 48.837876], [14.17447, 48.837822], [14.175033, 48.837855], [14.176068, 48.838175], [14.178115, 48.838641], [14.183284, 48.838794], [14.183874, 48.838579], [14.185091, 48.838316], [14.18604, 48.838048], [14.187973, 48.837635], [14.188297, 48.83758], [14.188727, 48.837548], [14.191898, 48.829396], [14.189395, 48.828232], [14.188692, 48.827498], [14.184616, 48.825028], [14.184566, 48.824985], [14.184411, 48.824451], [14.184248, 48.823403], [14.184457, 48.821974], [14.184807, 48.821187], [14.186531, 48.82184], [14.189208, 48.823177], [14.190146, 48.823417], [14.191189, 48.82458], [14.193344, 48.826099], [14.195576, 48.827211], [14.199267, 48.827321], [14.201828, 48.818743], [14.199372, 48.816619], [14.198845, 48.816381], [14.198017, 48.815857], [14.197075, 48.815208], [14.195698, 48.814536], [14.194802, 48.814175], [14.192085, 48.813538], [14.191665, 48.813462], [14.190417, 48.813342], [14.189864, 48.813239], [14.189022, 48.812952], [14.188516, 48.81266], [14.187811, 48.811996], [14.184005, 48.809503], [14.183428, 48.809384], [14.18184, 48.809173], [14.180835, 48.808994], [14.180465, 48.808934], [14.17907, 48.808871], [14.177787, 48.80878], [14.177195, 48.808768], [14.175211, 48.808879], [14.167534, 48.812203], [14.167068, 48.812106], [14.166396, 48.81182], [14.165869, 48.811386], [14.160844, 48.806837], [14.159008, 48.805607], [14.157188, 48.804387], [14.152695, 48.80191], [14.150007, 48.800814], [14.143332, 48.802751], [14.136159, 48.805143], [14.134483, 48.806058], [14.132214, 48.807246], [14.130519, 48.808154], [14.128546, 48.809252], [14.12664, 48.810593], [14.12457, 48.812046], [14.119929, 48.815978], [14.117875, 48.817763], [14.11626, 48.819107], [14.115716, 48.81948], [14.115099, 48.81973], [14.113303, 48.820239], [14.110791, 48.820815], [14.109646, 48.817402], [14.110317, 48.817177], [14.110808, 48.816995], [14.111692, 48.816761], [14.115571, 48.814997], [14.117568, 48.813261], [14.119726, 48.810954], [14.116003, 48.803881], [14.113705, 48.803928], [14.112968, 48.803944], [14.112378, 48.803925], [14.111795, 48.803836], [14.108249, 48.802854], [14.104967, 48.801925], [14.103721, 48.801832], [14.10316, 48.801817], [14.102579, 48.801824], [14.098771, 48.802265], [14.095012, 48.809997], [14.094883, 48.810546], [14.094645, 48.811107], [14.092951, 48.814136], [14.089809, 48.812378], [14.091433, 48.806276], [14.088288, 48.801873], [14.083858, 48.800115], [14.08308, 48.799306], [14.082488, 48.798204], [14.082334, 48.797458], [14.082309, 48.796586], [14.081031, 48.791688], [14.082638, 48.790876], [14.084244, 48.790065], [14.081096, 48.781883], [14.079857, 48.78219], [14.079325, 48.782274], [14.079161, 48.782308], [14.076225, 48.783391], [14.072209, 48.784895], [14.069905, 48.78543], [14.063703, 48.784513], [14.061528, 48.782181], [14.061121, 48.781569], [14.059992, 48.779785], [14.058972, 48.778444], [14.058544, 48.777775], [14.061576, 48.775834], [14.069002, 48.779969], [14.072473, 48.780323], [14.077617, 48.779056], [14.078243, 48.778841], [14.079204, 48.77865], [14.080198, 48.778386], [14.080597, 48.778318], [14.082645, 48.778037], [14.083244, 48.77786], [14.083953, 48.76938], [14.080355, 48.769278], [14.077094, 48.767665], [14.076068, 48.767555], [14.075503, 48.765595], [14.073775, 48.757278], [14.071484, 48.756162], [14.06758, 48.755877], [14.062173, 48.754194], [14.061534, 48.754179], [14.055379, 48.755643], [14.048661, 48.755863], [14.048142, 48.756064], [14.047803, 48.756168], [14.047262, 48.756292], [14.046387, 48.756405], [14.045028, 48.756465], [14.0432, 48.765217], [14.043524, 48.765909], [14.046534, 48.768991], [14.046301, 48.772583], [14.039744, 48.775909], [14.036817, 48.778005], [14.03618, 48.777116], [14.035383, 48.775946], [14.031762, 48.77259], [14.026168, 48.774352], [14.026099, 48.77438], [14.020146, 48.779069], [14.017262, 48.780424], [14.01693, 48.780531], [14.015523, 48.780116], [14.015289, 48.779813], [14.015408, 48.775851], [14.015497, 48.775156], [14.018691, 48.76902], [14.019065, 48.761545], [14.020211, 48.758133], [14.021549, 48.758582], [14.02451, 48.759508], [14.029325, 48.758823], [14.03399, 48.751505], [14.035592, 48.748435], [14.03598, 48.748225], [14.036452, 48.748002], [14.037227, 48.747753], [14.040744, 48.749441], [14.043669, 48.750457], [14.052201, 48.749572], [14.052576, 48.749432], [14.053038, 48.749304], [14.053548, 48.74919], [14.053998, 48.749123], [14.05478, 48.749075], [14.055547, 48.749104], [14.055994, 48.749156], [14.056587, 48.749257], [14.056923, 48.749332], [14.065574, 48.749507], [14.066686, 48.749234], [14.068139, 48.748961], [14.071078, 48.749344], [14.076911, 48.746247], [14.076934, 48.746217], [14.078242, 48.74464], [14.078308, 48.744587], [14.078426, 48.744576], [14.080742, 48.744193], [14.08174, 48.743853], [14.082836, 48.743512], [14.083061, 48.743424], [14.085989, 48.742788], [14.086221, 48.742702], [14.087085, 48.742419], [14.087858, 48.742159], [14.0881, 48.742092], [14.088407, 48.742029], [14.088859, 48.741987], [14.090438, 48.741875], [14.090698, 48.741877], [14.093424, 48.733317], [14.093235, 48.733205], [14.091347, 48.732314], [14.087916, 48.729263], [14.083633, 48.728549], [14.081163, 48.727282], [14.080592, 48.724813], [14.075861, 48.718169], [14.072791, 48.717267], [14.072492, 48.716585], [14.072517, 48.716526], [14.076135, 48.715224], [14.076434, 48.715051], [14.076946, 48.71481], [14.077068, 48.714785], [14.079849, 48.714717], [14.08054, 48.714872], [14.082842, 48.715116], [14.08577, 48.715642], [14.089848, 48.709114], [14.088489, 48.706669], [14.086186, 48.704385], [14.0847, 48.703643], [14.083707, 48.703204], [14.081161, 48.702529], [14.080209, 48.702551], [14.079491, 48.702603], [14.078884, 48.702663], [14.078482, 48.702721], [14.0776, 48.702791], [14.076996, 48.702767], [14.076375, 48.702641], [14.075874, 48.702445], [14.075405, 48.702202], [14.072997, 48.699107], [14.072312, 48.694153], [14.0747, 48.691459], [14.081589, 48.695371], [14.082191, 48.695645], [14.087788, 48.701161], [14.095517, 48.70221], [14.09739, 48.701732], [14.099376, 48.701351], [14.100297, 48.70125], [14.102165, 48.701162], [14.103526, 48.701149], [14.10444, 48.701365], [14.105014, 48.701692], [14.105899, 48.702429], [14.106535, 48.703584], [14.106559, 48.704438], [14.106479, 48.706031], [14.103153, 48.707411], [14.098773, 48.705191], [14.094913, 48.712794], [14.096091, 48.715221], [14.101606, 48.717985], [14.102403, 48.718092], [14.103263, 48.718076], [14.104095, 48.717995], [14.105508, 48.717671], [14.106494, 48.71723], [14.107018, 48.71706], [14.108739, 48.71605], [14.109244, 48.715838], [14.114905, 48.718655], [14.116469, 48.718862], [14.12417, 48.723197], [14.126262, 48.721866], [14.129973, 48.717872], [14.130875, 48.713707], [14.130883, 48.712925], [14.131044, 48.71237], [14.131236, 48.712009], [14.132405, 48.708514], [14.132751, 48.70743], [14.130434, 48.700225], [14.1271, 48.69889], [14.121719, 48.696398], [14.119615, 48.695844], [14.119375, 48.694987], [14.118492, 48.690827], [14.115861, 48.686843], [14.115199, 48.686233], [14.114685, 48.685624], [14.11152, 48.678527], [14.111138, 48.677745], [14.11109, 48.677174], [14.111204, 48.676586], [14.111395, 48.676161], [14.111548, 48.67582], [14.111895, 48.675231], [14.112298, 48.674862], [14.114594, 48.673265], [14.116796, 48.673402], [14.117097, 48.673556], [14.117899, 48.673944], [14.118006, 48.674585], [14.117961, 48.675165], [14.117482, 48.676139], [14.117297, 48.679455], [14.118935, 48.68265], [14.126483, 48.679723], [14.128053, 48.676455], [14.128513, 48.676725], [14.135695, 48.671496], [14.138583, 48.669347], [14.143911, 48.672199], [14.144262, 48.672336], [14.144761, 48.672565], [14.145824, 48.673078], [14.148007, 48.673818], [14.149878, 48.674325], [14.150564, 48.674439], [14.151067, 48.674614], [14.151528, 48.674871], [14.152125, 48.675452], [14.160003, 48.675794], [14.160723, 48.669076], [14.163167, 48.665978], [14.162868, 48.660148], [14.162401, 48.656579], [14.16301, 48.656499], [14.163656, 48.656369], [14.164518, 48.65624], [14.165437, 48.656164], [14.170613, 48.648977], [14.170405, 48.648231], [14.170353, 48.64753], [14.170474, 48.646754], [14.170666, 48.646257], [14.171728, 48.643499], [14.17203, 48.642671], [14.172375, 48.642025], [14.172904, 48.64136], [14.175222, 48.639343], [14.179804, 48.635853], [14.180436, 48.635384], [14.181149, 48.635025], [14.187037, 48.631682], [14.189354, 48.630065], [14.189966, 48.629663], [14.191876, 48.630626], [14.192003, 48.630934], [14.192031, 48.631055], [14.191943, 48.632672], [14.191331, 48.633074], [14.189032, 48.634679], [14.187987, 48.635489], [14.187051, 48.636351], [14.186632, 48.636672], [14.185758, 48.637228], [14.185187, 48.637505], [14.184656, 48.637706], [14.181165, 48.640136], [14.180633, 48.640669], [14.180163, 48.641002], [14.178748, 48.648145], [14.181773, 48.650098], [14.18138, 48.652926], [14.186478, 48.660078], [14.187293, 48.660028], [14.18877, 48.659848], [14.189516, 48.659829], [14.190562, 48.659884], [14.190812, 48.663476], [14.194807, 48.669501], [14.198931, 48.66795], [14.200127, 48.667145], [14.201528, 48.667253], [14.201702, 48.667439], [14.204177, 48.670204], [14.204269, 48.673803], [14.20382, 48.673814], [14.201481, 48.674121], [14.200969, 48.674257], [14.199992, 48.67432], [14.1988, 48.674297], [14.19566, 48.673402], [14.190505, 48.678915], [14.194253, 48.685476], [14.19709, 48.685873], [14.198389, 48.685997], [14.199218, 48.686106], [14.200165, 48.686286], [14.201222, 48.686563], [14.204118, 48.687547], [14.204841, 48.687846], [14.205611, 48.688278], [14.206304, 48.688717], [14.207644, 48.689405], [14.210308, 48.689913], [14.211603, 48.689809], [14.215034, 48.689377], [14.21715, 48.681282], [14.216932, 48.680397], [14.217098, 48.679397], [14.218061, 48.677788], [14.224693, 48.676571], [14.225597, 48.676412], [14.228553, 48.676457], [14.229162, 48.676475], [14.229534, 48.676538], [14.232973, 48.677202], [14.234923, 48.677541], [14.236639, 48.677865], [14.23759, 48.678068], [14.238854, 48.678329], [14.239701, 48.678434], [14.240229, 48.678521], [14.244811, 48.678845], [14.245306, 48.678831], [14.246351, 48.678858], [14.247986, 48.678703], [14.249239, 48.67864], [14.255405, 48.675066], [14.257326, 48.672959], [14.254809, 48.665567], [14.252606, 48.664076], [14.252084, 48.663767], [14.251949, 48.662542], [14.251367, 48.655236], [14.256469, 48.65155], [14.256609, 48.651616], [14.257174, 48.651883], [14.263971, 48.646246], [14.264579, 48.646099], [14.265839, 48.645746], [14.268706, 48.644119], [14.275041, 48.64166], [14.276413, 48.642011], [14.27735, 48.642268], [14.278691, 48.642413], [14.280199, 48.642483], [14.280612, 48.642517], [14.283508, 48.642054], [14.285466, 48.634511], [14.282194, 48.632724], [14.279542, 48.632464], [14.279098, 48.632168], [14.278724, 48.631834], [14.278182, 48.631094], [14.273645, 48.626288], [14.270165, 48.625565], [14.269182, 48.625316], [14.268687, 48.625161], [14.262363, 48.62602], [14.259249, 48.63195], [14.257947, 48.634772], [14.253975, 48.636827], [14.251382, 48.638871], [14.250994, 48.638773], [14.242279, 48.6389], [14.239946, 48.639589], [14.23694, 48.640172], [14.235686, 48.639969], [14.234796, 48.639866], [14.226655, 48.640452], [14.224677, 48.640154], [14.223693, 48.638512], [14.218813, 48.632327], [14.216891, 48.631444], [14.215823, 48.630782], [14.214124, 48.629728], [14.212679, 48.628954], [14.210579, 48.628064], [14.21092, 48.624481], [14.211347, 48.624521], [14.212414, 48.624786], [14.21437, 48.625776], [14.218303, 48.62665], [14.221103, 48.627241], [14.223879, 48.626973], [14.227255, 48.626194], [14.228336, 48.625859], [14.230775, 48.627714], [14.238887, 48.629231], [14.240723, 48.623832], [14.240684, 48.622932], [14.23777, 48.617418], [14.237289, 48.616895], [14.228858, 48.615866], [14.228629, 48.616032], [14.228121, 48.616343], [14.224962, 48.616319], [14.224868, 48.615704], [14.224933, 48.614868], [14.225213, 48.614252], [14.225489, 48.61389], [14.227389, 48.6113], [14.231572, 48.610042], [14.23264, 48.609812], [14.233226, 48.609784], [14.234061, 48.609779], [14.234537, 48.60983], [14.239156, 48.610174], [14.239667, 48.610134], [14.241338, 48.609947], [14.241837, 48.610067], [14.243457, 48.611129], [14.244044, 48.611679], [14.244533, 48.612254], [14.250885, 48.614956], [14.251749, 48.614907], [14.252432, 48.614949], [14.252925, 48.615028], [14.253656, 48.615214], [14.262207, 48.617466], [14.264118, 48.618592], [14.264611, 48.618835], [14.267451, 48.620495], [14.269118, 48.621424], [14.271041, 48.622073], [14.274375, 48.622762], [14.281523, 48.619285], [14.283176, 48.617663], [14.285299, 48.609788], [14.282679, 48.608452], [14.281239, 48.607593], [14.279964, 48.605923], [14.27255, 48.602859], [14.271744, 48.602753], [14.269314, 48.602378], [14.268854, 48.602379], [14.26814, 48.602409], [14.266817, 48.602406], [14.265716, 48.602466], [14.264692, 48.602451], [14.263948, 48.602356], [14.263086, 48.602265], [14.262498, 48.602145], [14.261475, 48.601879], [14.260959, 48.601702], [14.258621, 48.601113], [14.258143, 48.601031], [14.257894, 48.600968], [14.256923, 48.600798], [14.25635, 48.600548], [14.255538, 48.600023], [14.253446, 48.59908], [14.253737, 48.595492], [14.254244, 48.595533], [14.254792, 48.595629], [14.255685, 48.595858], [14.255929, 48.595931], [14.256371, 48.596114], [14.260766, 48.597751], [14.26814, 48.598809], [14.268696, 48.598783], [14.269538, 48.598757], [14.270547, 48.598746], [14.271157, 48.598799], [14.274954, 48.598801], [14.282012, 48.593653], [14.284197, 48.590792], [14.285863, 48.589713], [14.288589, 48.582542], [14.288087, 48.578977], [14.289917, 48.572839], [14.29047, 48.572167], [14.291137, 48.571311], [14.292571, 48.562638], [14.293574, 48.561409], [14.293833, 48.561118], [14.294239, 48.560774], [14.297697, 48.556872], [14.298042, 48.55688], [14.299522, 48.556838], [14.304776, 48.550345], [14.300809, 48.54309], [14.298934, 48.541425], [14.295501, 48.537771], [14.29535, 48.533699], [14.296223, 48.532705], [14.296967, 48.532275], [14.298528, 48.532007], [14.304592, 48.534069], [14.305489, 48.537556], [14.312062, 48.539415], [14.312498, 48.539278], [14.317292, 48.540755], [14.323816, 48.542573], [14.328444, 48.545374], [14.328705, 48.545621], [14.329011, 48.545988], [14.333357, 48.552525], [14.338624, 48.555584], [14.338937, 48.555737], [14.340911, 48.557371], [14.343364, 48.559933], [14.343646, 48.560276], [14.344424, 48.561733], [14.345573, 48.563411], [14.345809, 48.563683], [14.346018, 48.563986], [14.34623, 48.564411], [14.346391, 48.564996], [14.35012, 48.569269], [14.357969, 48.565571], [14.360279, 48.564406], [14.360814, 48.564428], [14.361015, 48.564444], [14.361399, 48.564477], [14.36879, 48.564659], [14.37121, 48.566242], [14.373143, 48.569233], [14.37883, 48.575832], [14.379755, 48.575716], [14.380327, 48.575736], [14.381852, 48.577182], [14.382775, 48.580192], [14.386128, 48.584645], [14.386924, 48.585632], [14.387577, 48.586933], [14.388241, 48.588414], [14.388451, 48.588974], [14.388568, 48.589676], [14.393467, 48.595914], [14.395205, 48.595999], [14.395841, 48.595967], [14.396841, 48.596099], [14.397591, 48.596345], [14.398101, 48.596603], [14.398649, 48.597014], [14.399915, 48.597912], [14.4077, 48.594315], [14.41133, 48.586466], [14.411233, 48.584649], [14.407779, 48.577475], [14.406631, 48.574062], [14.408754, 48.573349], [14.406136, 48.56477], [14.405603, 48.564739], [14.40536, 48.564703], [14.400642, 48.563379], [14.400068, 48.563378], [14.397781, 48.562042], [14.397197, 48.561746], [14.397038, 48.561624], [14.397391, 48.554144], [14.395388, 48.551025], [14.394871, 48.549878], [14.394672, 48.549017], [14.394686, 48.548562], [14.394815, 48.547533], [14.398387, 48.547983], [14.405303, 48.544766], [14.406842, 48.543185], [14.409488, 48.541262], [14.410861, 48.540211], [14.419785, 48.540681], [14.426309, 48.537942], [14.431058, 48.532911], [14.432009, 48.532176], [14.434731, 48.52982], [14.438014, 48.529419], [14.445591, 48.532127], [14.452145, 48.532172], [14.455728, 48.531831], [14.461458, 48.525163], [14.461388, 48.522907], [14.461855, 48.522426], [14.465421, 48.519017], [14.469349, 48.515682], [14.474793, 48.512376], [14.478133, 48.511695], [14.478456, 48.511713], [14.47986, 48.51338], [14.482552, 48.515176], [14.489517, 48.510652], [14.486202, 48.502583], [14.484787, 48.50255], [14.484075, 48.50253], [14.483049, 48.500964], [14.482836, 48.500481], [14.481322, 48.495795], [14.481319, 48.495779], [14.482506, 48.493777], [14.482565, 48.493758], [14.483328, 48.49369], [14.483446, 48.493714], [14.489762, 48.491252], [14.485598, 48.483769], [14.485271, 48.483703], [14.484739, 48.482306], [14.484347, 48.481183], [14.484364, 48.481149], [14.485972, 48.480172], [14.4863, 48.480237], [14.490677, 48.48024], [14.496311, 48.474673], [14.499583, 48.469751], [14.500159, 48.461509], [14.499691, 48.460404], [14.499328, 48.459629], [14.498695, 48.458377], [14.498142, 48.45735], [14.497151, 48.455752], [14.494849, 48.452303], [14.494843, 48.452293], [14.49782, 48.45027], [14.497827, 48.45028], [14.500153, 48.453765], [14.5012, 48.455451], [14.50186, 48.456661], [14.50254, 48.458004], [14.502949, 48.458872], [14.503479, 48.460116], [14.504145, 48.461875], [14.504719, 48.463912], [14.504789, 48.464426], [14.504819, 48.464971], [14.504772, 48.465842], [14.504604, 48.466724], [14.503828, 48.469479], [14.503492, 48.471008], [14.503328, 48.471956], [14.503328, 48.4758], [14.503346, 48.475954], [14.503599, 48.477667], [14.505345, 48.483646], [14.510011, 48.484504], [14.511669, 48.483995], [14.511836, 48.484018], [14.51324, 48.486189], [14.516744, 48.492319], [14.517073, 48.492788], [14.517301, 48.493168], [14.517668, 48.49401], [14.517913, 48.494876], [14.51803, 48.495464], [14.519726, 48.500325], [14.525952, 48.504472], [14.527314, 48.504689], [14.531708, 48.505723], [14.535656, 48.505684], [14.537043, 48.505499], [14.539606, 48.505365], [14.540493, 48.505277], [14.541984, 48.511363], [14.544681, 48.515178], [14.544698, 48.515447], [14.551413, 48.521232], [14.552821, 48.520929], [14.554869, 48.520285], [14.558297, 48.521507], [14.559358, 48.522056], [14.560776, 48.523248], [14.559159, 48.526464], [14.551343, 48.526682], [14.545684, 48.53198], [14.546092, 48.535557], [14.549594, 48.540496], [14.549241, 48.549115], [14.547417, 48.550739], [14.542656, 48.557454], [14.545204, 48.565196], [14.551791, 48.564917], [14.554736, 48.564652], [14.555169, 48.564784], [14.556074, 48.565506], [14.556453, 48.565806], [14.556676, 48.566032], [14.559216, 48.573929], [14.559661, 48.574629], [14.55977, 48.574997], [14.562856, 48.581457], [14.569178, 48.583082], [14.569281, 48.583126], [14.569859, 48.585881], [14.577781, 48.589473], [14.580229, 48.588769], [14.581758, 48.588524], [14.584027, 48.588077], [14.584228, 48.588389], [14.584638, 48.589239], [14.585066, 48.590699], [14.584866, 48.592827], [14.584708, 48.592868], [14.584211, 48.592934], [14.579553, 48.598306], [14.582293, 48.603198], [14.582757, 48.60398], [14.583619, 48.605381], [14.58598, 48.613952], [14.59159, 48.618928], [14.592146, 48.619208], [14.592535, 48.619496], [14.592972, 48.619942], [14.596147, 48.623393], [14.596689, 48.624337], [14.596835, 48.625117], [14.604252, 48.630113], [14.604684, 48.629901], [14.605131, 48.629738], [14.606734, 48.629072], [14.607463, 48.628726], [14.609309, 48.628012], [14.610788, 48.627163], [14.612175, 48.626068], [14.613031, 48.625407], [14.613467, 48.625111], [14.618372, 48.621978], [14.622601, 48.617249], [14.622901, 48.616852], [14.623471, 48.616306], [14.625734, 48.614175], [14.62723, 48.612978], [14.627927, 48.612878], [14.628926, 48.612808], [14.633704, 48.613894], [14.640001, 48.611096], [14.642076, 48.608154], [14.645154, 48.608093], [14.648931, 48.608118], [14.651892, 48.610167], [14.651501, 48.610732], [14.654518, 48.618912], [14.662004, 48.615635], [14.663942, 48.612509], [14.665974, 48.611621], [14.66669, 48.611296], [14.667317, 48.611123], [14.674652, 48.608143], [14.678819, 48.608468], [14.686599, 48.605611], [14.689135, 48.60309], [14.69229, 48.602606], [14.696389, 48.602004], [14.696939, 48.60198], [14.697313, 48.602014], [14.699228, 48.602265], [14.698761, 48.605834], [14.695473, 48.606052], [14.694699, 48.606179], [14.694089, 48.606209], [14.690445, 48.607339], [14.68988, 48.614459], [14.689933, 48.618058], [14.689137, 48.61807], [14.688559, 48.618034], [14.688001, 48.617947], [14.687402, 48.617797], [14.685669, 48.616547], [14.679006, 48.622427], [14.681433, 48.625085], [14.680016, 48.626379], [14.681721, 48.634444], [14.682413, 48.637507], [14.682323, 48.637994], [14.681528, 48.640997], [14.681418, 48.648074], [14.69011, 48.647249], [14.69058, 48.64368], [14.693731, 48.640074], [14.693998, 48.639565], [14.694942, 48.639513], [14.694942, 48.639513], [14.695517, 48.639482], [14.696408, 48.640133], [14.702956, 48.643125], [14.705206, 48.644844], [14.705887, 48.648379], [14.705359, 48.648481], [14.701224, 48.650714], [14.696585, 48.658393], [14.697646, 48.661833], [14.701919, 48.669298], [14.702879, 48.669544], [14.706635, 48.669471], [14.711322, 48.665078], [14.712486, 48.663445], [14.715822, 48.66237], [14.715977, 48.662771], [14.716102, 48.663586], [14.716528, 48.668829], [14.716612, 48.67026], [14.717359, 48.676628], [14.722966, 48.682133], [14.723304, 48.685718], [14.728925, 48.691405], [14.729158, 48.691546], [14.7299, 48.692734], [14.73452, 48.698463], [14.735115, 48.699213], [14.742781, 48.70219], [14.746233, 48.703367], [14.753114, 48.70336], [14.753687, 48.704053], [14.754003, 48.704606], [14.758077, 48.71149], [14.762338, 48.714988], [14.763106, 48.715425], [14.763782, 48.716163], [14.765002, 48.717394], [14.765203, 48.720486], [14.765331, 48.721672], [14.765699, 48.723391], [14.765924, 48.723963], [14.766233, 48.724562], [14.775072, 48.722995], [14.775586, 48.722214], [14.776648, 48.718231], [14.778202, 48.718175], [14.782368, 48.710712], [14.782554, 48.710199], [14.782911, 48.709626], [14.783386, 48.709173], [14.784215, 48.708762], [14.787116, 48.707766], [14.790795, 48.701561], [14.791992, 48.699498], [14.792381, 48.699458], [14.797148, 48.699307], [14.798624, 48.700811], [14.804338, 48.706065], [14.807232, 48.70574], [14.81024, 48.705406], [14.811099, 48.705377], [14.81612, 48.704808], [14.817133, 48.708263], [14.816107, 48.708564], [14.814693, 48.709052], [14.814154, 48.70918], [14.813443, 48.709265], [14.812794, 48.709185], [14.81133, 48.708998], [14.810415, 48.709002], [14.807634, 48.709318], [14.800403, 48.714054], [14.800212, 48.714246], [14.799915, 48.714495], [14.798285, 48.71629], [14.797994, 48.71626], [14.796741, 48.715608], [14.789269, 48.719553], [14.790155, 48.726665], [14.790767, 48.727506], [14.797487, 48.730806], [14.798877, 48.730998], [14.805723, 48.726225], [14.806136, 48.72617], [14.807679, 48.726028], [14.809062, 48.725928], [14.809666, 48.72594], [14.811437, 48.72602], [14.811877, 48.726], [14.812833, 48.726181], [14.81337, 48.726386], [14.814084, 48.72676], [14.822999, 48.727096], [14.829814, 48.721786], [14.830445, 48.721667], [14.83614, 48.715346], [14.837846, 48.714271], [14.839296, 48.712847], [14.839937, 48.711934], [14.84013, 48.703564], [14.840722, 48.700013], [14.845963, 48.70013], [14.846573, 48.700139], [14.847371, 48.70022], [14.848243, 48.700412], [14.848858, 48.700613], [14.856215, 48.701865], [14.861673, 48.700206], [14.862335, 48.700158], [14.862478, 48.700173], [14.871, 48.701303], [14.871614, 48.701281], [14.872183, 48.701275], [14.873084, 48.701299], [14.873939, 48.70135], [14.875994, 48.701536], [14.882549, 48.698432], [14.886348, 48.697762], [14.894002, 48.695836], [14.89418, 48.695939], [14.896219, 48.697184], [14.89701, 48.697798], [14.897395, 48.698253], [14.89776, 48.698795], [14.897677, 48.707154], [14.899101, 48.708839], [14.899487, 48.709449], [14.90256, 48.713701], [14.910038, 48.717113], [14.911482, 48.717198], [14.911763, 48.717307], [14.912574, 48.718888], [14.91344, 48.725802], [14.910748, 48.728192], [14.909695, 48.727581], [14.901306, 48.729556], [14.900896, 48.73017], [14.900484, 48.730566], [14.899043, 48.7327], [14.898692, 48.733148], [14.901996, 48.741333], [14.902224, 48.741394], [14.902668, 48.741566], [14.903299, 48.741996], [14.906775, 48.7446], [14.911483, 48.747131], [14.91522, 48.75244], [14.914697, 48.75309], [14.91211, 48.75859], [14.911547, 48.759283], [14.908877, 48.762099], [14.908456, 48.762568], [14.907528, 48.763343], [14.90691, 48.763712], [14.906291, 48.763979], [14.906215, 48.764017], [14.904006, 48.765805], [14.903683, 48.766018], [14.903211, 48.766235], [14.90175, 48.767153], [14.901338, 48.767503], [14.900835, 48.767817], [14.900463, 48.767977], [14.897744, 48.770631], [14.89753, 48.770917], [14.89722, 48.771219], [14.896739, 48.771513], [14.896138, 48.771706], [14.895773, 48.77176], [14.894214, 48.772242], [14.893783, 48.772422], [14.889225, 48.777281], [14.889485, 48.782286], [14.896288, 48.783888], [14.898194, 48.78297], [14.8991, 48.78256], [14.902256, 48.781309], [14.905421, 48.780054], [14.908221, 48.77475], [14.910682, 48.772123], [14.911207, 48.772615], [14.919061, 48.775125], [14.922661, 48.775125], [14.927711, 48.775039], [14.929598, 48.774538], [14.930521, 48.778018], [14.928634, 48.778519], [14.926747, 48.77902], [14.923857, 48.779651], [14.921046, 48.780263], [14.920278, 48.780437], [14.919806, 48.780561], [14.917313, 48.781318], [14.916954, 48.781409], [14.916252, 48.781522], [14.910367, 48.784993], [14.907917, 48.792292], [14.908891, 48.796923], [14.91141, 48.801397], [14.9201, 48.803114], [14.920574, 48.798967], [14.923558, 48.796953], [14.932002, 48.794138], [14.932963, 48.791183], [14.93333, 48.790151], [14.936721, 48.791359], [14.93705, 48.795687], [14.941904, 48.802811], [14.944844, 48.804889], [14.943807, 48.809151], [14.943139, 48.809492], [14.942387, 48.809751], [14.941967, 48.809844], [14.939014, 48.810807], [14.933751, 48.811048], [14.932776, 48.811554], [14.932226, 48.811847], [14.931706, 48.812039], [14.926712, 48.817777], [14.926378, 48.818486], [14.924999, 48.822286], [14.924968, 48.822863], [14.92486, 48.823476], [14.924754, 48.828409], [14.925067, 48.829288], [14.925287, 48.830411], [14.925484, 48.831796], [14.925509, 48.832444], [14.925406, 48.833168], [14.925198, 48.833735], [14.924918, 48.834234], [14.924262, 48.834962], [14.923761, 48.835329], [14.923283, 48.835594], [14.922779, 48.835816], [14.921309, 48.836384], [14.920822, 48.836631], [14.920307, 48.836957], [14.919032, 48.837829], [14.915816, 48.840034], [14.914575, 48.841251], [14.920963, 48.847588], [14.921318, 48.847409], [14.922651, 48.847665], [14.925694, 48.847432], [14.927547, 48.846599], [14.931022, 48.841754], [14.931294, 48.841684], [14.936453, 48.839233], [14.937763, 48.837185], [14.938506, 48.836183], [14.93956, 48.828174], [14.939213, 48.826564], [14.939584, 48.82581], [14.940024, 48.825365], [14.942703, 48.822406], [14.943247, 48.821461], [14.943579, 48.820794], [14.944293, 48.819318], [14.945253, 48.819305], [14.945588, 48.819373], [14.946031, 48.819455], [14.946671, 48.819743], [14.954964, 48.817044], [14.954011, 48.813547], [14.955701, 48.810327], [14.956578, 48.807063], [14.956873, 48.806251], [14.960256, 48.807483], [14.963513, 48.813498], [14.969219, 48.813478], [14.969464, 48.813952], [14.970039, 48.815724], [14.976749, 48.820636], [14.977777, 48.820642], [14.979544, 48.820676], [14.980084, 48.820725], [14.980746, 48.820824], [14.981506, 48.820961], [14.983305, 48.821411], [14.989573, 48.822264], [14.991437, 48.822263], [14.993315, 48.822262], [14.995984, 48.822281], [14.99744, 48.822268], [15.002563, 48.821905], [15.008082, 48.820574], [15.008425, 48.820532], [15.009623, 48.820969], [15.009735, 48.823885], [15.008716, 48.824453], [15.006792, 48.825113], [15.00605, 48.825289], [15.005709, 48.825368], [15.004087, 48.825585], [15.003198, 48.825703], [14.999196, 48.826343], [14.998795, 48.82632], [14.998215, 48.826266], [14.99786, 48.826217], [14.99329, 48.825862], [14.991439, 48.825863], [14.989575, 48.825864], [14.988218, 48.825841], [14.987438, 48.825802], [14.986699, 48.82574], [14.979065, 48.828606], [14.977964, 48.830418], [14.976845, 48.83247], [14.976109, 48.833504], [14.973884, 48.840626], [14.974841, 48.844577], [14.975988, 48.852938], [14.979539, 48.853533], [14.979543, 48.857047], [14.978347, 48.860443], [14.975052, 48.864024], [14.971469, 48.864374], [14.971323, 48.864324], [14.966772, 48.862407], [14.965698, 48.862446], [14.963918, 48.8626], [14.960913, 48.86395], [14.958461, 48.865441], [14.956954, 48.867408], [14.956514, 48.868089], [14.955765, 48.868733], [14.954701, 48.869179], [14.954546, 48.869266], [14.952418, 48.871353], [14.952234, 48.871567], [14.957798, 48.878601], [14.958251, 48.878341], [14.958749, 48.878124], [14.959321, 48.877941], [14.960081, 48.877889], [14.963672, 48.877028], [14.965208, 48.87641], [14.965858, 48.87624], [14.967078, 48.877999], [14.966395, 48.8798], [14.966192, 48.879872], [14.96504, 48.880358], [14.96214, 48.881502], [14.959514, 48.885976], [14.960732, 48.890402], [14.965172, 48.894578], [14.96865, 48.895504], [14.972803, 48.897408], [14.974929, 48.897742], [14.975469, 48.897847], [14.976096, 48.898065], [14.976704, 48.898425], [14.978064, 48.899565], [14.978817, 48.900142], [14.979725, 48.900899], [14.977549, 48.909042], [14.977031, 48.909513], [14.975576, 48.911267], [14.981934, 48.917326], [14.984051, 48.917228], [14.986162, 48.917144], [14.989694, 48.916047], [14.992647, 48.915991], [14.994729, 48.915967], [14.996805, 48.915944], [14.998358, 48.91592], [14.998626, 48.916237], [14.999458, 48.922016], [14.999488, 48.925616], [15.003643, 48.930329], [15.004652, 48.933785], [15.003712, 48.934115], [15.002419, 48.934536], [15.001931, 48.934664], [15.001429, 48.934738], [15.000695, 48.93477], [15.000236, 48.934753], [14.996568, 48.934818], [14.996112, 48.934937], [14.994883, 48.935163], [14.994496, 48.935224], [14.994111, 48.935261], [14.993554, 48.935236], [14.992415, 48.935035], [14.991774, 48.9348], [14.991252, 48.934442], [14.990832, 48.933962], [14.990577, 48.933422], [14.989302, 48.929544], [14.988954, 48.929129], [14.985435, 48.926472], [14.984578, 48.926154], [14.98253, 48.92462], [14.97952, 48.923715], [14.97886, 48.92378], [14.978314, 48.92374], [14.977769, 48.923605], [14.977221, 48.923356], [14.976704, 48.922993], [14.972683, 48.922206], [14.972075, 48.922239], [14.969439, 48.921859], [14.96857, 48.921992], [14.967165, 48.922092], [14.961765, 48.925286], [14.95595, 48.929852], [14.955331, 48.931316], [14.954793, 48.932542], [14.954532, 48.933149], [14.953388, 48.935607], [14.952532, 48.937133], [14.951654, 48.938877], [14.951685, 48.944683], [14.94994, 48.946174], [14.949584, 48.94651], [14.947917, 48.947877], [14.947244, 48.955677], [14.953402, 48.955961], [14.9566, 48.953504], [14.957519, 48.951867], [14.958223, 48.951221], [14.959481, 48.950537], [14.960884, 48.949785], [14.963131, 48.942456], [14.964401, 48.939088], [14.966809, 48.934767], [14.969572, 48.932458], [14.975055, 48.932348], [14.978373, 48.933412], [14.978008, 48.935606], [14.977821, 48.939202], [14.975946, 48.946884], [14.97598, 48.947205], [14.977521, 48.952159], [14.978814, 48.954559], [14.987184, 48.956374], [14.987623, 48.95615], [14.988063, 48.955983], [14.989845, 48.955503], [14.99184, 48.954978], [14.994642, 48.953872], [14.99507, 48.953664], [14.995657, 48.953525], [15.000368, 48.950722], [15.000652, 48.95073], [15.002855, 48.950876], [15.004275, 48.951036], [15.007765, 48.950473], [15.008176, 48.950441], [15.008742, 48.950431], [15.011705, 48.95028], [15.012402, 48.950129], [15.012924, 48.950085], [15.013248, 48.950085], [15.013583, 48.950106], [15.017114, 48.949759], [15.019544, 48.948782], [15.020058, 48.94863], [15.020472, 48.94856], [15.020922, 48.94851], [15.025274, 48.940863], [15.025079, 48.940271], [15.025101, 48.939464], [15.025334, 48.93867], [15.025369, 48.938613], [15.028888, 48.937857], [15.033826, 48.934684], [15.035633, 48.931635], [15.036087, 48.930679], [15.036403, 48.930129], [15.037801, 48.929752], [15.041377, 48.930164], [15.043378, 48.934075], [15.047113, 48.937842], [15.055645, 48.938945], [15.056287, 48.93843], [15.056619, 48.938124], [15.058067, 48.936542], [15.060723, 48.938972], [15.061517, 48.944835], [15.061193, 48.94726], [15.060456, 48.947926], [15.060176, 48.948176], [15.054549, 48.953163], [15.053699, 48.953773], [15.050199, 48.960735], [15.052421, 48.966147], [15.051107, 48.96772], [15.052955, 48.975801], [15.051979, 48.979266], [15.056302, 48.985093], [15.057835, 48.986095], [15.061239, 48.987467], [15.062368, 48.988856], [15.062584, 48.990807], [15.063328, 48.996154], [15.062481, 48.99813], [15.061852, 48.999438], [15.060979, 49.0002], [15.06091, 49.000257], [15.056845, 49.000625], [15.056308, 49.000435], [15.055623, 49.000168], [15.055443, 49.000036], [15.048084, 48.996386], [15.047049, 48.995979], [15.041096, 48.995235], [15.040683, 48.995292], [15.040222, 48.995297], [15.039862, 48.995253], [15.039417, 48.995122], [15.039017, 48.994924], [15.038605, 48.994603], [15.037834, 48.993462], [15.037098, 48.992052], [15.036254, 48.990334], [15.029645, 48.987163], [15.025758, 48.990518], [15.024935, 48.991269], [15.024231, 48.991666], [15.021793, 49.000127], [15.02274, 49.003601], [15.020764, 49.006209], [15.017949, 49.008453], [15.016896, 49.007132], [15.016677, 49.006827], [15.016384, 49.006179], [15.016313, 49.005272], [15.016439, 49.003598], [15.016407, 49.003255], [15.010543, 48.999048], [15.007239, 49.003123], [15.007097, 49.003778], [15.006561, 49.005063], [15.005747, 49.006339], [15.002668, 49.004473], [14.995283, 49.004258], [14.992481, 49.004083], [14.991355, 49.004235], [14.989642, 49.012793], [14.990092, 49.016365], [14.995068, 49.023272], [14.995855, 49.023346], [14.996433, 49.023484], [15.003915, 49.022984], [15.004608, 49.022697], [15.005027, 49.022605], [15.009684, 49.022315], [15.010059, 49.022229], [15.010395, 49.02217], [15.011266, 49.021986], [15.011935, 49.021898], [15.012338, 49.021899], [15.015061, 49.021655], [15.015843, 49.021494], [15.016773, 49.021195], [15.017636, 49.022], [15.018134, 49.022473], [15.025945, 49.018389], [15.029003, 49.01816], [15.029529, 49.018147], [15.029981, 49.018177], [15.030531, 49.018266], [15.030799, 49.018319], [15.033719, 49.018527], [15.034554, 49.018469], [15.037229, 49.018065], [15.037663, 49.018008], [15.038281, 49.017958], [15.038849, 49.017997], [15.039348, 49.018133], [15.041917, 49.018922], [15.042327, 49.019005], [15.042824, 49.01914], [15.044944, 49.019766], [15.04557, 49.019874], [15.046086, 49.019992], [15.047534, 49.020252], [15.050515, 49.020546], [15.05096, 49.020576], [15.054661, 49.020433], [15.055241, 49.020312], [15.056198, 49.020241], [15.056833, 49.0203], [15.060332, 49.019921], [15.061049, 49.019887], [15.061526, 49.019906], [15.065872, 49.019704], [15.070915, 49.015751], [15.07456, 49.017244], [15.075143, 49.01745], [15.083511, 49.019836], [15.087247, 49.020041], [15.095205, 49.019224], [15.09686, 49.017718], [15.09766, 49.017255], [15.097902, 49.017172], [15.100422, 49.01631], [15.106813, 49.016329], [15.107918, 49.017618], [15.110584, 49.022044], [15.110286, 49.024571], [15.109719, 49.025539], [15.105823, 49.028833], [15.103369, 49.036629], [15.107364, 49.044437], [15.107841, 49.044587], [15.108075, 49.044688], [15.114983, 49.044713], [15.118397, 49.045856], [15.124737, 49.046799], [15.12509, 49.046802], [15.127951, 49.04685], [15.127999, 49.05045], [15.130668, 49.056166], [15.137063, 49.061425], [15.138777, 49.061409], [15.139357, 49.061408], [15.146203, 49.059532], [15.149042, 49.063077], [15.148885, 49.066674], [15.147847, 49.066856], [15.146808, 49.066827], [15.143636, 49.066082], [15.135874, 49.06708], [15.134135, 49.068122], [15.132785, 49.076099], [15.132415, 49.076884], [15.12877, 49.082714], [15.127835, 49.084592], [15.127639, 49.084959], [15.126496, 49.085655], [15.126152, 49.085647], [15.125232, 49.085417], [15.124667, 49.085306], [15.124589, 49.085278], [15.118142, 49.083027], [15.117739, 49.083067], [15.115429, 49.083396], [15.11475, 49.083557], [15.114526, 49.083622], [15.114156, 49.083695], [15.112436, 49.084361], [15.112075, 49.084508], [15.111391, 49.093397], [15.114058, 49.095814], [15.113714, 49.096195], [15.113166, 49.096657], [15.112567, 49.097041], [15.110662, 49.097999], [15.109588, 49.098462], [15.108548, 49.098875], [15.107896, 49.099078], [15.107482, 49.099175], [15.10653, 49.099331], [15.106042, 49.099376], [15.1056, 49.099368], [15.105207, 49.099314], [15.104244, 49.099101], [15.103753, 49.098959], [15.103327, 49.098784], [15.102653, 49.098372], [15.101492, 49.097566], [15.10118, 49.097301], [15.094455, 49.095191], [15.091623, 49.096283], [15.091071, 49.096454], [15.090669, 49.096526], [15.085596, 49.103703], [15.089389, 49.107239], [15.089066, 49.110825], [15.086589, 49.110601], [15.086108, 49.110609], [15.081305, 49.11193], [15.076676, 49.118293], [15.077072, 49.122969], [15.077206, 49.123316], [15.080109, 49.126929], [15.08539, 49.127382], [15.089031, 49.124542], [15.090318, 49.124122], [15.091424, 49.123712], [15.093686, 49.122795], [15.095948, 49.121878], [15.09821, 49.120961], [15.100544, 49.120016], [15.101082, 49.119831], [15.101442, 49.119748], [15.101739, 49.119707], [15.107827, 49.11735], [15.108237, 49.11711], [15.108751, 49.116857], [15.109215, 49.116657], [15.109801, 49.116448], [15.110515, 49.116272], [15.112858, 49.115667], [15.113626, 49.115453], [15.114592, 49.118921], [15.113041, 49.11944], [15.112136, 49.119666], [15.107529, 49.121928], [15.102897, 49.12934], [15.103247, 49.132923], [15.102165, 49.140105], [15.105849, 49.141884], [15.107802, 49.141876], [15.107817, 49.145476], [15.10648, 49.146819], [15.102908, 49.146885], [15.10066, 49.145389], [15.093107, 49.142724], [15.092416, 49.142611], [15.091978, 49.142515], [15.086332, 49.142018], [15.085769, 49.142035], [15.08515, 49.142026], [15.084589, 49.141986], [15.083327, 49.141771], [15.079817, 49.141707], [15.076922, 49.141734], [15.07626, 49.141667], [15.070099, 49.145121], [15.069987, 49.148136], [15.068297, 49.150834], [15.066794, 49.154105], [15.058897, 49.157728], [15.058052, 49.159132], [15.057404, 49.160404], [15.059378, 49.16827], [15.06035, 49.17027], [15.060974, 49.171497], [15.059292, 49.173366], [15.058257, 49.174777], [15.055741, 49.180431], [15.059806, 49.184102], [15.060982, 49.184899], [15.062909, 49.186545], [15.063028, 49.186651], [15.065343, 49.189285], [15.063405, 49.192319], [15.055934, 49.191139], [15.053752, 49.191969], [15.047934, 49.18633], [15.041752, 49.181506], [15.040656, 49.178077], [15.039005, 49.169511], [15.033725, 49.171612], [15.0317, 49.173439], [15.03099, 49.174677], [15.027684, 49.176104], [15.024565, 49.178043], [15.021864, 49.178559], [15.01962, 49.178614], [15.014739, 49.180172], [15.011613, 49.187487], [15.00997, 49.189509], [15.009834, 49.1895], [15.009351, 49.189412], [15.008215, 49.188674], [15.008068, 49.188254], [15.005531, 49.184878], [15.005161, 49.181297], [15.007271, 49.175634], [15.003118, 49.171022], [15.003269, 49.169228], [15.001791, 49.164685], [15.001352, 49.164188], [14.99736, 49.159812], [14.989906, 49.164762], [14.990123, 49.167148], [14.989384, 49.168152], [14.986672, 49.170996], [14.986145, 49.171481], [14.984902, 49.172475], [14.982891, 49.173977], [14.980238, 49.177251], [14.980011, 49.177649], [14.983668, 49.185285], [14.986019, 49.185121], [14.988361, 49.184957], [14.989345, 49.184884], [14.993354, 49.183572], [14.994378, 49.182978], [14.996373, 49.186037], [14.996407, 49.186072], [14.995085, 49.187294], [14.99383, 49.188585], [14.989726, 49.188463], [14.988632, 49.188547], [14.98627, 49.188712], [14.983786, 49.18892], [14.980827, 49.189868], [14.978419, 49.190697], [14.977633, 49.191016], [14.97745, 49.191096], [14.974117, 49.191881], [14.972175, 49.190072], [14.964286, 49.191891], [14.961289, 49.197171], [14.961417, 49.198704], [14.968997, 49.203495], [14.969958, 49.202967], [14.970544, 49.20289], [14.970979, 49.202911], [14.972938, 49.202842], [14.973816, 49.202753], [14.975348, 49.202526], [14.975876, 49.206087], [14.973417, 49.214455], [14.969277, 49.220511], [14.972762, 49.224095], [14.971681, 49.227528], [14.969872, 49.226959], [14.96537, 49.23403], [14.965823, 49.234685], [14.966057, 49.235163], [14.966237, 49.235775], [14.972181, 49.240461], [14.97291, 49.24058], [14.973353, 49.24069], [14.974647, 49.241137], [14.973471, 49.24454], [14.975518, 49.251177], [14.983816, 49.252116], [14.98443, 49.251747], [14.9857, 49.251185], [14.991958, 49.254936], [14.994348, 49.254917], [14.997052, 49.254922], [15.005247, 49.252242], [15.00577, 49.251965], [15.006596, 49.251777], [15.006991, 49.25177], [15.010949, 49.256365], [15.009515, 49.259667], [15.008381, 49.260825], [15.007078, 49.261206], [15.005867, 49.261712], [15.004991, 49.262036], [15.001824, 49.261764], [14.998641, 49.261149], [14.995515, 49.259362], [14.990394, 49.258857], [14.988351, 49.259385], [14.986485, 49.259858], [14.985425, 49.260306], [14.983002, 49.261353], [14.982027, 49.261739], [14.9781, 49.264851], [14.976845, 49.266087], [14.976406, 49.266362], [14.975352, 49.267176], [14.972605, 49.267748], [14.972066, 49.267868], [14.971644, 49.267903], [14.969968, 49.267948], [14.967417, 49.268531], [14.96584, 49.276324], [14.969316, 49.280341], [14.968354, 49.28381], [14.966419, 49.283758], [14.965651, 49.283825], [14.964651, 49.283782], [14.963194, 49.28333], [14.962315, 49.283211], [14.960186, 49.283157], [14.959475, 49.283203], [14.958722, 49.283126], [14.952591, 49.286941], [14.954423, 49.295245], [14.957228, 49.295347], [14.957729, 49.295403], [14.958112, 49.295464], [14.962823, 49.295127], [14.968445, 49.294956], [14.969616, 49.294498], [14.97059, 49.29388], [14.971056, 49.293662], [14.972651, 49.292895], [14.973357, 49.292367], [14.973784, 49.292215], [14.975139, 49.291742], [14.977374, 49.290184], [14.977917, 49.289677], [14.978722, 49.28926], [14.981046, 49.287221], [14.986207, 49.282033], [14.987543, 49.278463], [14.989589, 49.277621], [14.991677, 49.276762], [14.993982, 49.275882], [15.001362, 49.278929], [15.001622, 49.278918], [15.003138, 49.280021], [15.003207, 49.280425], [15.008404, 49.287455], [15.011531, 49.288686], [15.015029, 49.288967], [15.016146, 49.28889], [15.017085, 49.289028], [15.02045, 49.289826], [15.022168, 49.290238], [15.021633, 49.293798], [15.02948, 49.295744], [15.029904, 49.295601], [15.031415, 49.295667], [15.037276, 49.293935], [15.039482, 49.293292], [15.041046, 49.293128], [15.0436, 49.293175], [15.043533, 49.296775], [15.051096, 49.301633], [15.052396, 49.301261], [15.055095, 49.299756], [15.060757, 49.29948], [15.061319, 49.303035], [15.059179, 49.303374], [15.05681, 49.303688], [15.05387, 49.304551], [15.04894, 49.310097], [15.048569, 49.31328], [15.048362, 49.313372], [15.04787, 49.313534], [15.047297, 49.313356], [15.046239, 49.312935], [15.043995, 49.311859], [15.036204, 49.313738], [15.035457, 49.314321], [15.032479, 49.322723], [15.033346, 49.325421], [15.032958, 49.326568], [15.024813, 49.328391], [15.018658, 49.327159], [15.017985, 49.334616], [15.016232, 49.337761], [15.01924, 49.345733], [15.020195, 49.349204], [15.019563, 49.352704], [15.016197, 49.353329], [15.009808, 49.358844], [15.008746, 49.359998], [15.006113, 49.367739], [15.008523, 49.370184], [15.00898, 49.370509], [15.009556, 49.371102], [15.018477, 49.371482], [15.019014, 49.37066], [15.01952, 49.370168], [15.020225, 49.369339], [15.020592, 49.369037], [15.022278, 49.367067], [15.022571, 49.366749], [15.025221, 49.369185], [15.028662, 49.3715], [15.028877, 49.371818], [15.029666, 49.373365], [15.034059, 49.38098], [15.039833, 49.376301], [15.040401, 49.375238], [15.040927, 49.374824], [15.041502, 49.374561], [15.044298, 49.373384], [15.047354, 49.375286], [15.048408, 49.3839], [15.049428, 49.384865], [15.049727, 49.385284], [15.050883, 49.386988], [15.050246, 49.389097], [15.05, 49.389345], [15.04986, 49.389411], [15.048289, 49.389484], [15.042017, 49.387755], [15.038423, 49.387563], [15.034851, 49.382254], [15.028488, 49.38346], [15.027902, 49.38344], [15.024571, 49.383058], [15.023981, 49.382975], [15.021641, 49.382414], [15.014744, 49.387859], [15.014184, 49.389626], [15.008938, 49.38983], [15.00619, 49.395752], [15.007937, 49.400862], [15.006249, 49.404042], [15.00636, 49.407951], [15.007891, 49.410894], [15.015206, 49.41086], [15.018686, 49.411781], [15.025653, 49.406462], [15.025801, 49.405857], [15.026049, 49.405167], [15.0265, 49.404163], [15.027304, 49.403992], [15.030437, 49.405171], [15.030398, 49.405318], [15.030218, 49.405776], [15.028979, 49.408371], [15.028245, 49.410254], [15.032723, 49.416924], [15.03995, 49.417819], [15.043313, 49.410046], [15.046571, 49.408515], [15.050253, 49.412222], [15.053667, 49.414276], [15.059995, 49.420493], [15.061336, 49.421295], [15.06401, 49.422949], [15.064951, 49.423503], [15.067328, 49.42484], [15.07561, 49.426909], [15.076976, 49.426774], [15.077684, 49.426725], [15.078937, 49.4267], [15.079794, 49.426732], [15.082843, 49.426928], [15.084859, 49.426956], [15.084868, 49.430556], [15.083891, 49.430558], [15.078504, 49.431454], [15.073393, 49.434177], [15.070724, 49.43176], [15.068006, 49.42935], [15.065563, 49.427977], [15.05885, 49.428439], [15.055296, 49.427866], [15.047744, 49.424746], [15.044619, 49.43051], [15.044624, 49.431109], [15.044697, 49.431937], [15.046317, 49.43605], [15.046614, 49.436488], [15.043636, 49.438511], [15.04252, 49.43801], [15.041275, 49.437569], [15.040757, 49.437286], [15.032613, 49.440985], [15.032859, 49.442581], [15.032627, 49.443259], [15.03225, 49.44375], [15.031879, 49.444048], [15.029173, 49.444753], [15.028774, 49.444225], [15.028405, 49.443146], [15.027908, 49.440146], [15.019347, 49.438961], [15.016046, 49.446318], [15.016095, 49.447016], [15.016127, 49.447266], [15.016139, 49.447746], [15.016047, 49.448365], [15.015681, 49.449646], [15.0144, 49.453303], [15.019084, 49.458978], [15.020006, 49.459424], [15.026971, 49.459901], [15.027743, 49.459654], [15.031188, 49.461846], [15.03073, 49.465417], [15.030392, 49.465373], [15.027786, 49.465528], [15.02554, 49.46651], [15.023994, 49.467684], [15.025452, 49.476158], [15.027811, 49.477426], [15.034053, 49.477878], [15.036423, 49.478511], [15.038179, 49.478694], [15.040022, 49.478763], [15.041861, 49.478831], [15.043723, 49.478898], [15.045586, 49.478964], [15.045457, 49.482562], [15.043595, 49.482496], [15.041732, 49.482429], [15.039887, 49.48236], [15.036941, 49.482393], [15.034049, 49.482134], [15.031766, 49.482045], [15.029482, 49.481955], [15.029075, 49.481921], [15.028564, 49.481817], [15.028149, 49.481674], [15.026111, 49.4806], [15.023748, 49.479329], [15.017965, 49.480541], [15.019109, 49.488478], [15.020845, 49.489257], [15.021361, 49.49282], [15.019671, 49.493065], [15.019271, 49.493088], [15.018423, 49.492909], [15.017863, 49.492568], [15.010146, 49.488922], [15.009265, 49.48862], [15.008573, 49.488212], [15.002034, 49.486036], [14.999618, 49.486272], [14.994338, 49.488378], [14.992178, 49.489848], [14.990019, 49.491318], [14.987993, 49.488342], [14.983192, 49.483074], [14.978532, 49.485288], [14.977816, 49.486085], [14.97716, 49.486494], [14.974754, 49.487681], [14.97392, 49.487977], [14.972045, 49.488564], [14.97017, 49.489151], [14.965588, 49.489686], [14.9624, 49.488013], [14.962588, 49.486188], [14.965349, 49.482603], [14.959334, 49.475956], [14.957513, 49.4758], [14.957024, 49.475764], [14.956487, 49.475681], [14.955222, 49.475142], [14.954083, 49.474507], [14.946917, 49.479207], [14.947518, 49.481381], [14.947921, 49.482985], [14.948265, 49.485459], [14.94906, 49.487267], [14.948971, 49.48812], [14.948619, 49.48896], [14.947968, 49.489901], [14.947171, 49.491126], [14.946539, 49.492322], [14.943356, 49.490639], [14.943989, 49.489443], [14.944712, 49.486041], [14.944459, 49.483969], [14.938565, 49.478728], [14.936509, 49.477894], [14.935457, 49.477349], [14.932658, 49.476676], [14.925842, 49.481494], [14.925159, 49.485029], [14.925997, 49.493781], [14.928311, 49.493505], [14.92901, 49.493233], [14.929826, 49.493021], [14.930411, 49.492895], [14.931172, 49.496413], [14.929218, 49.49705], [14.928541, 49.497273], [14.92797, 49.497406], [14.927319, 49.497459], [14.924172, 49.497374], [14.923608, 49.497343], [14.919465, 49.496973], [14.915783, 49.494661], [14.914945, 49.492896], [14.914966, 49.491946], [14.913056, 49.487874], [14.906836, 49.488044], [14.905017, 49.489445], [14.904398, 49.490157], [14.903474, 49.491238], [14.900282, 49.498781], [14.900184, 49.498903], [14.899338, 49.499408], [14.898851, 49.499518], [14.895812, 49.500135], [14.886931, 49.499752], [14.885961, 49.499912], [14.884837, 49.500075], [14.880945, 49.495019], [14.874271, 49.497196], [14.873892, 49.497525], [14.869862, 49.504895], [14.869815, 49.509426], [14.869384, 49.51211], [14.865969, 49.513249], [14.865199, 49.511594], [14.864659, 49.510059], [14.864553, 49.509567], [14.865134, 49.506478], [14.860329, 49.500557], [14.856731, 49.500689], [14.850461, 49.495792], [14.844693, 49.498638], [14.843624, 49.500401], [14.843105, 49.501288], [14.842761, 49.501615], [14.842481, 49.501837], [14.840251, 49.49901], [14.837146, 49.49488], [14.837371, 49.491287], [14.840245, 49.488404], [14.835696, 49.480736], [14.83388, 49.481981], [14.831541, 49.483807], [14.830301, 49.484758], [14.829754, 49.484906], [14.829044, 49.48503], [14.82362, 49.488669], [14.822825, 49.489586], [14.820996, 49.491183], [14.820475, 49.491671], [14.818316, 49.494009], [14.81825, 49.49409], [14.816168, 49.494457], [14.813795, 49.495529], [14.810091, 49.501066], [14.815214, 49.506009], [14.816715, 49.505885], [14.817616, 49.505892], [14.818844, 49.505789], [14.820509, 49.505781], [14.821256, 49.505867], [14.82192, 49.505998], [14.822953, 49.506192], [14.823665, 49.506474], [14.82582, 49.507681], [14.827869, 49.508497], [14.828754, 49.509], [14.829083, 49.509306], [14.828585, 49.511832], [14.828405, 49.511921], [14.827963, 49.512096], [14.82766, 49.512103], [14.826166, 49.512043], [14.824229, 49.510984], [14.817367, 49.515082], [14.817978, 49.518638], [14.823324, 49.522169], [14.82368, 49.522162], [14.823979, 49.522139], [14.829735, 49.52393], [14.830135, 49.523826], [14.830788, 49.52374], [14.831144, 49.523744], [14.833043, 49.5235], [14.833897, 49.523233], [14.835348, 49.522834], [14.83837, 49.524791], [14.842323, 49.526785], [14.842802, 49.528342], [14.84286, 49.528856], [14.842883, 49.529433], [14.842264, 49.530385], [14.840986, 49.530364], [14.84038, 49.530341], [14.839663, 49.530206], [14.83809, 49.529525], [14.837593, 49.529334], [14.835655, 49.52871], [14.834135, 49.52814], [14.827967, 49.529814], [14.828779, 49.53821], [14.833345, 49.539854], [14.833563, 49.539991], [14.834155, 49.540961], [14.834178, 49.541202], [14.831647, 49.543039], [14.827865, 49.541692], [14.825523, 49.541493], [14.819274, 49.542523], [14.81618, 49.54701], [14.812991, 49.547924], [14.812685, 49.547875], [14.812355, 49.547617], [14.811792, 49.547096], [14.811347, 49.546136], [14.803058, 49.54287], [14.802413, 49.544002], [14.80206, 49.544436], [14.800293, 49.546141], [14.796924, 49.549517], [14.796669, 49.549573], [14.788985, 49.54904], [14.786834, 49.549832], [14.786297, 49.549905], [14.782642, 49.550497], [14.781617, 49.550513], [14.77989, 49.548509], [14.775758, 49.546637], [14.773549, 49.546877], [14.770307, 49.554367], [14.767739, 49.554798], [14.76479, 49.556665], [14.763527, 49.564639], [14.764678, 49.565944], [14.771162, 49.56855], [14.773667, 49.569518], [14.773674, 49.573118], [14.768113, 49.574868], [14.764282, 49.57702], [14.762682, 49.577627], [14.762517, 49.57761], [14.76087, 49.575572], [14.761273, 49.575005], [14.760827, 49.567021], [14.752312, 49.566839], [14.748284, 49.564949], [14.742782, 49.568833], [14.741099, 49.571754], [14.739816, 49.571966], [14.733852, 49.573967], [14.730768, 49.573898], [14.726294, 49.581462], [14.727553, 49.582831], [14.728228, 49.583366], [14.729989, 49.584674], [14.730336, 49.585138], [14.73057, 49.585707], [14.73068, 49.586257], [14.729942, 49.589092], [14.728552, 49.590797], [14.721188, 49.592878], [14.719387, 49.594183], [14.718426, 49.59326], [14.709871, 49.595833], [14.709346, 49.59604], [14.708586, 49.596175], [14.70767, 49.596049], [14.707048, 49.595831], [14.706663, 49.595669], [14.705823, 49.595177], [14.705051, 49.594659], [14.704447, 49.594154], [14.695755, 49.593725], [14.694922, 49.594663], [14.68982, 49.599042], [14.688524, 49.600675], [14.686117, 49.606859], [14.693925, 49.611032], [14.698916, 49.609726], [14.699535, 49.609315], [14.699847, 49.609178], [14.705082, 49.610689], [14.705517, 49.61071], [14.711763, 49.608051], [14.712639, 49.608469], [14.714895, 49.609426], [14.714789, 49.613025], [14.711039, 49.613524], [14.705044, 49.618651], [14.702265, 49.620939], [14.700535, 49.626527], [14.696996, 49.627188], [14.696754, 49.625894], [14.694887, 49.622336], [14.687995, 49.62049], [14.68377, 49.623953], [14.681715, 49.626909], [14.679603, 49.625441], [14.671835, 49.628713], [14.671956, 49.632311], [14.674291, 49.636953], [14.680309, 49.636216], [14.683398, 49.638065], [14.683367, 49.643291], [14.679206, 49.645543], [14.675689, 49.644778], [14.67, 49.640366], [14.664848, 49.640685], [14.661196, 49.640819], [14.66063, 49.640873], [14.659905, 49.640856], [14.659053, 49.64075], [14.65771, 49.640519], [14.649385, 49.642033], [14.646899, 49.644172], [14.645213, 49.644787], [14.641725, 49.646668], [14.640828, 49.64725], [14.640265, 49.647634], [14.639722, 49.64802], [14.639207, 49.648424], [14.638398, 49.649086], [14.637666, 49.649755], [14.639742, 49.658487], [14.639474, 49.658889], [14.640666, 49.667281], [14.641734, 49.667928], [14.639868, 49.671007], [14.6388, 49.67036], [14.636468, 49.668565], [14.630706, 49.663874], [14.629957, 49.660353], [14.631477, 49.652382], [14.631707, 49.651764], [14.631955, 49.651227], [14.632458, 49.650332], [14.633021, 49.649525], [14.633861, 49.648513], [14.63445, 49.647869], [14.633465, 49.639479], [14.6318, 49.638726], [14.631704, 49.635127], [14.632176, 49.635115], [14.635307, 49.634437], [14.637152, 49.626196], [14.636966, 49.622601], [14.637274, 49.619304], [14.635525, 49.615097], [14.630459, 49.612408], [14.630352, 49.612211], [14.630141, 49.611586], [14.62289, 49.606261], [14.621342, 49.606306], [14.619936, 49.606428], [14.61654, 49.605333], [14.615748, 49.603569], [14.61539, 49.601958], [14.615453, 49.601843], [14.615837, 49.601221], [14.616401, 49.600307], [14.611042, 49.593165], [14.60964, 49.593271], [14.609369, 49.589681], [14.603853, 49.582788], [14.60191, 49.583048], [14.597851, 49.589778], [14.598821, 49.593245], [14.595622, 49.594789], [14.586904, 49.59628], [14.584496, 49.59821], [14.581438, 49.59631], [14.581879, 49.589886], [14.581812, 49.586286], [14.586623, 49.581702], [14.586841, 49.580907], [14.582046, 49.57332], [14.581405, 49.57294], [14.577425, 49.571109], [14.577153, 49.571017], [14.578305, 49.567607], [14.577953, 49.564599], [14.576139, 49.56149], [14.567364, 49.561661], [14.565925, 49.5641], [14.565351, 49.565172], [14.565072, 49.565535], [14.563633, 49.566157], [14.563501, 49.566174], [14.555275, 49.567232], [14.552921, 49.572189], [14.552936, 49.573453], [14.549344, 49.573688], [14.548602, 49.569853], [14.548329, 49.568432], [14.548739, 49.566686], [14.548963, 49.566107], [14.549466, 49.565236], [14.551325, 49.56216], [14.555684, 49.559799], [14.556114, 49.559346], [14.558101, 49.556854], [14.558887, 49.555247], [14.559316, 49.551887], [14.553102, 49.548047], [14.552382, 49.54776], [14.54677, 49.547998], [14.543656, 49.550868], [14.542577, 49.55389], [14.541533, 49.55513], [14.541064, 49.55521], [14.538979, 49.554], [14.531503, 49.552057], [14.528277, 49.552496], [14.527792, 49.548929], [14.531018, 49.54849], [14.536694, 49.544479], [14.537337, 49.543658], [14.545337, 49.539977], [14.544658, 49.536461], [14.544694, 49.53645], [14.545401, 49.536377], [14.546878, 49.536168], [14.547776, 49.536054], [14.548383, 49.536106], [14.54977, 49.536933], [14.550072, 49.537224], [14.551764, 49.538718], [14.55916, 49.539588], [14.560815, 49.53601], [14.560945, 49.534988], [14.56145, 49.534147], [14.561911, 49.533735], [14.564217, 49.530816], [14.559105, 49.525124], [14.558642, 49.525146], [14.557302, 49.525166], [14.556947, 49.525217], [14.554749, 49.525707], [14.553788, 49.525823], [14.551828, 49.525974], [14.551169, 49.525989], [14.550345, 49.525966], [14.54812, 49.525833], [14.54605, 49.525703], [14.545928, 49.525684], [14.541175, 49.525474], [14.53907, 49.524837], [14.530848, 49.526945], [14.527415, 49.528029], [14.521659, 49.533695], [14.520504, 49.534243], [14.518779, 49.534425], [14.518704, 49.534417], [14.518295, 49.534166], [14.516592, 49.531475], [14.512851, 49.523358], [14.51124, 49.523161], [14.507721, 49.523481], [14.501125, 49.519477], [14.501926, 49.515967], [14.504067, 49.516137], [14.510109, 49.516174], [14.517628, 49.51941], [14.521449, 49.516564], [14.521911, 49.515857], [14.524123, 49.511919], [14.52453, 49.508342], [14.52744, 49.499847], [14.526809, 49.49942], [14.525936, 49.498583], [14.524784, 49.497738], [14.524462, 49.497428], [14.524033, 49.49654], [14.524113, 49.495474], [14.516607, 49.490984], [14.515546, 49.491366], [14.514606, 49.491592], [14.513881, 49.491706], [14.513446, 49.491756], [14.513029, 49.491777], [14.506178, 49.494103], [14.497822, 49.495588], [14.49708, 49.496139], [14.494998, 49.497421], [14.493963, 49.496851], [14.491554, 49.492082], [14.491189, 49.491083], [14.490708, 49.483927], [14.493669, 49.482088], [14.495302, 49.482269], [14.495773, 49.482354], [14.49719, 49.482932], [14.501132, 49.483383], [14.501786, 49.483334], [14.502359, 49.483414], [14.502711, 49.483534], [14.504622, 49.484475], [14.50519, 49.484714], [14.505782, 49.485078], [14.508244, 49.486192], [14.508741, 49.486344], [14.50912, 49.486514], [14.517417, 49.485989], [14.521419, 49.484823], [14.521111, 49.47632], [14.520203, 49.475826], [14.519347, 49.475327], [14.517697, 49.474263], [14.515844, 49.473092], [14.511016, 49.466777], [14.507868, 49.465927], [14.50755, 49.465907], [14.506433, 49.465798], [14.504281, 49.465929], [14.501935, 49.466014], [14.495186, 49.468971], [14.49173, 49.469981], [14.484809, 49.466114], [14.483692, 49.461352], [14.483966, 49.457766], [14.478423, 49.451771], [14.477743, 49.45115], [14.476639, 49.449887], [14.476413, 49.449583], [14.477536, 49.445647], [14.477309, 49.442055], [14.470996, 49.437494], [14.467769, 49.438513], [14.466733, 49.43882], [14.465694, 49.439128], [14.463389, 49.439907], [14.460971, 49.440821], [14.459096, 49.441616], [14.457154, 49.442439], [14.45477, 49.443337], [14.453994, 49.443582], [14.450395, 49.444291], [14.449572, 49.44436], [14.44849, 49.444404], [14.447802, 49.444412], [14.447266, 49.4444], [14.441789, 49.443259], [14.438709, 49.442369], [14.431843, 49.440964], [14.431866, 49.437364], [14.434093, 49.437304], [14.440281, 49.437698], [14.448446, 49.440805], [14.449423, 49.440763], [14.450084, 49.440704], [14.45305, 49.440108], [14.453679, 49.439906], [14.455882, 49.439071], [14.45769, 49.438302], [14.459564, 49.437507], [14.462115, 49.43654], [14.464539, 49.435718], [14.467851, 49.427727], [14.46701, 49.426729], [14.469763, 49.424409], [14.470604, 49.425407], [14.471651, 49.426735], [14.472086, 49.427231], [14.479738, 49.422779], [14.481538, 49.420137], [14.485117, 49.420529], [14.484325, 49.423397], [14.484451, 49.425485], [14.491621, 49.430598], [14.496845, 49.424166], [14.496266, 49.422342], [14.495727, 49.420629], [14.495278, 49.41948], [14.494899, 49.418606], [14.494404, 49.417819], [14.497712, 49.416399], [14.49695, 49.408957], [14.494236, 49.407628], [14.491522, 49.406299], [14.487306, 49.403514], [14.480478, 49.40318], [14.480421, 49.403198], [14.475691, 49.406353], [14.474371, 49.407919], [14.473788, 49.408398], [14.473235, 49.408661], [14.469017, 49.41098], [14.466131, 49.412249], [14.465769, 49.412252], [14.465213, 49.412272], [14.463858, 49.412382], [14.463307, 49.412358], [14.460586, 49.412041], [14.458813, 49.412143], [14.457406, 49.412206], [14.457244, 49.408609], [14.458652, 49.408546], [14.460378, 49.408447], [14.464382, 49.400913], [14.464108, 49.398783], [14.462894, 49.391298], [14.457007, 49.384961], [14.455121, 49.383263], [14.456404, 49.379899], [14.456852, 49.38007], [14.461308, 49.383467], [14.463928, 49.384963], [14.466547, 49.38646], [14.469167, 49.387957], [14.476843, 49.383386], [14.476618, 49.382756], [14.47656, 49.382417], [14.47627, 49.37976], [14.479849, 49.379369], [14.481125, 49.383448], [14.482261, 49.385013], [14.490558, 49.384137], [14.491525, 49.381444], [14.494913, 49.382661], [14.493946, 49.385354], [14.493562, 49.386321], [14.492771, 49.387621], [14.490528, 49.390379], [14.49152, 49.398858], [14.495819, 49.404395], [14.498533, 49.405724], [14.501248, 49.407053], [14.503962, 49.408381], [14.506676, 49.40971], [14.513435, 49.406688], [14.513216, 49.403076], [14.513963, 49.40267], [14.516431, 49.39837], [14.512361, 49.392863], [14.511808, 49.392565], [14.510898, 49.391914], [14.509593, 49.391067], [14.508946, 49.390697], [14.507841, 49.389782], [14.507335, 49.389396], [14.504499, 49.384619], [14.504093, 49.381042], [14.509628, 49.378232], [14.509775, 49.370453], [14.509596, 49.370054], [14.509096, 49.369131], [14.509768, 49.36757], [14.511196, 49.364705], [14.511424, 49.364139], [14.511799, 49.363235], [14.512411, 49.362357], [14.513075, 49.361172], [14.513841, 49.35984], [14.52064, 49.354115], [14.521534, 49.350627], [14.517664, 49.344642], [14.516708, 49.343426], [14.516565, 49.343207], [14.515338, 49.340469], [14.507329, 49.342146], [14.506762, 49.342078], [14.506359, 49.341993], [14.503654, 49.341865], [14.497132, 49.345506], [14.495605, 49.346464], [14.495239, 49.346688], [14.494819, 49.346877], [14.494372, 49.347014], [14.494219, 49.347055], [14.493638, 49.347166], [14.487299, 49.349328], [14.487209, 49.349365], [14.483865, 49.350409], [14.477422, 49.354846], [14.476717, 49.357589], [14.476368, 49.361232], [14.475823, 49.362104], [14.474486, 49.363721], [14.471104, 49.362487], [14.471258, 49.361921], [14.471421, 49.361384], [14.47172, 49.360809], [14.467111, 49.353104], [14.46572, 49.353558], [14.462366, 49.353211], [14.462262, 49.35256], [14.462165, 49.349617], [14.463257, 49.349056], [14.467089, 49.349504], [14.469695, 49.349488], [14.475717, 49.345212], [14.471303, 49.338981], [14.468213, 49.337694], [14.467582, 49.337185], [14.461551, 49.334327], [14.461678, 49.330729], [14.461723, 49.329383], [14.46236, 49.32584], [14.459099, 49.319974], [14.460049, 49.316501], [14.460605, 49.316514], [14.461557, 49.316462], [14.463148, 49.316241], [14.464096, 49.316218], [14.465321, 49.316258], [14.465903, 49.316262], [14.467998, 49.316184], [14.470174, 49.316105], [14.470818, 49.316038], [14.472138, 49.315792], [14.473222, 49.315715], [14.47245, 49.306776], [14.469858, 49.306038], [14.460936, 49.305185], [14.460342, 49.305719], [14.459508, 49.306009], [14.457124, 49.307873], [14.452999, 49.309966], [14.452791, 49.310251], [14.451561, 49.311744], [14.450108, 49.313462], [14.449959, 49.313589], [14.449586, 49.313905], [14.448085, 49.315094], [14.445358, 49.320511], [14.445449, 49.322115], [14.439375, 49.326065], [14.438293, 49.327886], [14.437211, 49.329707], [14.434116, 49.327868], [14.434378, 49.323471], [14.430745, 49.318626], [14.43201, 49.315256], [14.433959, 49.315605], [14.437502, 49.314968], [14.441075, 49.307988], [14.440873, 49.307071], [14.44043, 49.304989], [14.435528, 49.300185], [14.431954, 49.300618], [14.430689, 49.301198], [14.425815, 49.306507], [14.420584, 49.309803], [14.413295, 49.31498], [14.412626, 49.315721], [14.411568, 49.316731], [14.404313, 49.319858], [14.405154, 49.323358], [14.403949, 49.323894], [14.402496, 49.323912], [14.401232, 49.323923], [14.394613, 49.325282], [14.389731, 49.331559], [14.389786, 49.333078], [14.390715, 49.338691], [14.390345, 49.341135], [14.390153, 49.342247], [14.389014, 49.342066], [14.386324, 49.34061], [14.386095, 49.340265], [14.385876, 49.33983], [14.385691, 49.339293], [14.385502, 49.338457], [14.385396, 49.337783], [14.385451, 49.336934], [14.385775, 49.335616], [14.385899, 49.334875], [14.385948, 49.333959], [14.386046, 49.332011], [14.385624, 49.330156], [14.376775, 49.329572], [14.376441, 49.330103], [14.375664, 49.330677], [14.373516, 49.335185], [14.373501, 49.338785], [14.37178, 49.345584], [14.373951, 49.348163], [14.374549, 49.349011], [14.374816, 49.349682], [14.376387, 49.352605], [14.377551, 49.354139], [14.374684, 49.356315], [14.373519, 49.354781], [14.371208, 49.352248], [14.369028, 49.347905], [14.360035, 49.347841], [14.359311, 49.348504], [14.359123, 49.3486], [14.351767, 49.345497], [14.349664, 49.342575], [14.350402, 49.340716], [14.35143, 49.33878], [14.351162, 49.334123], [14.35093, 49.333326], [14.342161, 49.332765], [14.339732, 49.335422], [14.330751, 49.335387], [14.327771, 49.333368], [14.326164, 49.326159], [14.326155, 49.322559], [14.329956, 49.318498], [14.330072, 49.318283], [14.331029, 49.31698], [14.33111, 49.316965], [14.33266, 49.317486], [14.334764, 49.318362], [14.337702, 49.324379], [14.345294, 49.319906], [14.345455, 49.318102], [14.345216, 49.316307], [14.345416, 49.316303], [14.347284, 49.316191], [14.353152, 49.310895], [14.349412, 49.303678], [14.346429, 49.302293], [14.345604, 49.302057], [14.343063, 49.301853], [14.342588, 49.301771], [14.342252, 49.301664], [14.341895, 49.301517], [14.339673, 49.300865], [14.337306, 49.300648], [14.336695, 49.300616], [14.336097, 49.300501], [14.328139, 49.303481], [14.327659, 49.304165], [14.326946, 49.304637], [14.326436, 49.304814], [14.325866, 49.304909], [14.321777, 49.306861], [14.31941, 49.307403], [14.31702, 49.307938], [14.315441, 49.308507], [14.314801, 49.308815], [14.313774, 49.309041], [14.310484, 49.310187], [14.306508, 49.309944], [14.305974, 49.309978], [14.299321, 49.312604], [14.29761, 49.314557], [14.297132, 49.315188], [14.29605, 49.316405], [14.293492, 49.32076], [14.296628, 49.326384], [14.296994, 49.326651], [14.297333, 49.327006], [14.297748, 49.327742], [14.298808, 49.329657], [14.299152, 49.330781], [14.298907, 49.331745], [14.298532, 49.332277], [14.296101, 49.333324], [14.290603, 49.334715], [14.285868, 49.333154], [14.283305, 49.330735], [14.278133, 49.323559], [14.277587, 49.323772], [14.277206, 49.323867], [14.276867, 49.323926], [14.276392, 49.323989], [14.274227, 49.324194], [14.272118, 49.324394], [14.271284, 49.324498], [14.267264, 49.3321], [14.267481, 49.333209], [14.268032, 49.33719], [14.266756, 49.340106], [14.265728, 49.341096], [14.265569, 49.341149], [14.263167, 49.339831], [14.262915, 49.338599], [14.262791, 49.338035], [14.262758, 49.335097], [14.254914, 49.331354], [14.252687, 49.333904], [14.251834, 49.337799], [14.25181, 49.341399], [14.248847, 49.348074], [14.247878, 49.351541], [14.245654, 49.350919], [14.244061, 49.350475], [14.241722, 49.34982], [14.242693, 49.346353], [14.238143, 49.338862], [14.237413, 49.338867], [14.235602, 49.338698], [14.233621, 49.338605], [14.230517, 49.339056], [14.23002, 49.339231], [14.229488, 49.339313], [14.222542, 49.344753], [14.215603, 49.3469], [14.215317, 49.346923], [14.211693, 49.347188], [14.20892, 49.344489], [14.205682, 49.342111], [14.199167, 49.342799], [14.198687, 49.342664], [14.19808, 49.342372], [14.197407, 49.341642], [14.191455, 49.337746], [14.188878, 49.338094], [14.187557, 49.338368], [14.186841, 49.338414], [14.17931, 49.333648], [14.178685, 49.333856], [14.177493, 49.334048], [14.17692, 49.330494], [14.172901, 49.322482], [14.169721, 49.322265], [14.164217, 49.322904], [14.161964, 49.324051], [14.157589, 49.325547], [14.156907, 49.324556], [14.152377, 49.320963], [14.147758, 49.322096], [14.141116, 49.327589], [14.14078, 49.329037], [14.140837, 49.332532], [14.140729, 49.333134], [14.138982, 49.333871], [14.138802, 49.333816], [14.137143, 49.332816], [14.137181, 49.33238], [14.136556, 49.329029], [14.134012, 49.325054], [14.125299, 49.325895], [14.123389, 49.333283], [14.120724, 49.335561], [14.112905, 49.338251], [14.104025, 49.33831], [14.103088, 49.339678], [14.10299, 49.339737], [14.100272, 49.340124], [14.099951, 49.340126], [14.098784, 49.339431], [14.098261, 49.338851], [14.098161, 49.338675], [14.096809, 49.336847], [14.089095, 49.334991], [14.088148, 49.335258], [14.087014, 49.335621], [14.086082, 49.335974], [14.085149, 49.336377], [14.084576, 49.336653], [14.084088, 49.336911], [14.08364, 49.337161], [14.082823, 49.337658], [14.080932, 49.338832], [14.074994, 49.345444], [14.074124, 49.345054], [14.073581, 49.344768], [14.07309, 49.344426], [14.064976, 49.343505], [14.063688, 49.344207], [14.061018, 49.345771], [14.058018, 49.347815], [14.057702, 49.347907], [14.055474, 49.345268], [14.055606, 49.34498], [14.056152, 49.344589], [14.056869, 49.344136], [14.059093, 49.342729], [14.06188, 49.341094], [14.063251, 49.340345], [14.063857, 49.340045], [14.064559, 49.339727], [14.065184, 49.339472], [14.066134, 49.339122], [14.070998, 49.336853], [14.071659, 49.336567], [14.072352, 49.336263], [14.072537, 49.336183], [14.072877, 49.336117], [14.073043, 49.336115], [14.081768, 49.334085], [14.082332, 49.333769], [14.082889, 49.333473], [14.083582, 49.333136], [14.084651, 49.332671], [14.085732, 49.332257], [14.087043, 49.331832], [14.092155, 49.329157], [14.092631, 49.329029], [14.093502, 49.328874], [14.093944, 49.328842], [14.096155, 49.32874], [14.097222, 49.328562], [14.100346, 49.3276], [14.100972, 49.327441], [14.103584, 49.326526], [14.106858, 49.321026], [14.105449, 49.317115], [14.104591, 49.315641], [14.103291, 49.312284], [14.097127, 49.309404], [14.096907, 49.309395], [14.09652, 49.309285], [14.09634, 49.309187], [14.095244, 49.307699], [14.095196, 49.307395], [14.096494, 49.305605], [14.09708, 49.305623], [14.101017, 49.305751], [14.104246, 49.305378], [14.106728, 49.305633], [14.108384, 49.305831], [14.113307, 49.29879], [14.113394, 49.297108], [14.114263, 49.28918], [14.11303, 49.287228], [14.116073, 49.285305], [14.120055, 49.286052], [14.12549, 49.288008], [14.12727, 49.287669], [14.128637, 49.287411], [14.128888, 49.287371], [14.133377, 49.28202], [14.130351, 49.277494], [14.129828, 49.277167], [14.129476, 49.276824], [14.128378, 49.275455], [14.127878, 49.275017], [14.118949, 49.276082], [14.118341, 49.275569], [14.114145, 49.273477], [14.112756, 49.272807], [14.111286, 49.272035], [14.110468, 49.271392], [14.110215, 49.271143], [14.109774, 49.270563], [14.105322, 49.267074], [14.098276, 49.26822], [14.098127, 49.268306], [14.096262, 49.268597], [14.096158, 49.268609], [14.095225, 49.2684], [14.094755, 49.268074], [14.094746, 49.267716], [14.094801, 49.267127], [14.093368, 49.261963], [14.085333, 49.258781], [14.082258, 49.263113], [14.081894, 49.266694], [14.078639, 49.272218], [14.078521, 49.272282], [14.075858, 49.272444], [14.075523, 49.272479], [14.067333, 49.274266], [14.060714, 49.271424], [14.06069, 49.267824], [14.063748, 49.267804], [14.067267, 49.266617], [14.070118, 49.259235], [14.065919, 49.251417], [14.065393, 49.251411], [14.064707, 49.25138], [14.063409, 49.251284], [14.062505, 49.251156], [14.055286, 49.253811], [14.054954, 49.254089], [14.054585, 49.254316], [14.05329, 49.254945], [14.052558, 49.255361], [14.051163, 49.256292], [14.049164, 49.253298], [14.047246, 49.250606], [14.038588, 49.251822], [14.037669, 49.254], [14.036836, 49.257502], [14.035694, 49.257439], [14.029349, 49.2577], [14.02619, 49.255974], [14.021329, 49.254655], [14.014337, 49.258318], [14.011379, 49.258337], [14.007222, 49.257432], [14.006864, 49.257034], [14.006623, 49.253883], [14.010046, 49.247411], [14.013072, 49.245462], [14.012547, 49.238501], [14.01234, 49.237056], [14.012212, 49.234916], [14.005183, 49.229355], [14.002809, 49.230153], [14.000435, 49.230951], [13.998061, 49.231748], [13.995687, 49.232546], [13.995649, 49.240945], [13.996386, 49.241855], [13.996568, 49.242424], [13.996775, 49.243088], [13.996856, 49.244112], [13.996762, 49.244918], [13.996539, 49.246192], [13.996299, 49.246994], [13.992719, 49.246614], [13.990682, 49.241893], [13.990392, 49.241569], [13.989944, 49.240918], [13.98195, 49.237155], [13.97903, 49.238136], [13.976112, 49.246448], [13.97564, 49.249195], [13.97266, 49.252013], [13.972219, 49.252276], [13.971522, 49.252649], [13.971173, 49.252587], [13.970278, 49.252403], [13.961421, 49.25142], [13.960314, 49.251558], [13.959654, 49.25157], [13.959147, 49.251526], [13.956698, 49.251171], [13.954325, 49.250826], [13.951952, 49.25048], [13.946524, 49.250312], [13.939221, 49.251415], [13.93335, 49.253908], [13.927621, 49.252469], [13.926951, 49.248932]]], "type": "Polygon"}}], "metadata": {"attribution": "openrouteservice.org | OpenStreetMap contributors", "service": "isochrones", "timestamp": 1785652294750, "query": {"profile": "driving-car", "profileName": "driving-car", "locations": [[14.4743, 48.9745]], "range": [3600.0], "range_type": "time"}, "engine": {"version": "9.9.0", "build_date": "2026-06-12T10:08:58Z", "graph_date": "2026-07-26T12:04:00Z", "osm_date": "2026-07-20T00:00:00Z"}}}