{"type": "FeatureCollection", "bbox": [15.828807, 48.716417, 17.425045, 49.516241], "features": [{"type": "Feature", "properties": {"group_index": 0, "value": 2700.0, "center": [16.610610483276755, 49.202601110891734]}, "geometry": {"coordinates": [[[15.828807, 49.403296], [15.83079, 49.403171], [15.834835, 49.402865], [15.839375, 49.402388], [15.844768, 49.401567], [15.848568, 49.400893], [15.85209, 49.400265], [15.855612, 49.399638], [15.859135, 49.39901], [15.862657, 49.398383], [15.866179, 49.397755], [15.868712, 49.397314], [15.876336, 49.393024], [15.878707, 49.392101], [15.879703, 49.391751], [15.884055, 49.390842], [15.885218, 49.39112], [15.893266, 49.392259], [15.896184, 49.391357], [15.89865, 49.390549], [15.900463, 49.390023], [15.902158, 49.389568], [15.903624, 49.389212], [15.905377, 49.38883], [15.90852, 49.388221], [15.911623, 49.387619], [15.914374, 49.386994], [15.915435, 49.386701], [15.917095, 49.386211], [15.920139, 49.385239], [15.925788, 49.378687], [15.926792, 49.378427], [15.929419, 49.37857], [15.931002, 49.378321], [15.931177, 49.378269], [15.934132, 49.376929], [15.932275, 49.369225], [15.933675, 49.365909], [15.936495, 49.365956], [15.936837, 49.365924], [15.940175, 49.365317], [15.943026, 49.366382], [15.948292, 49.360933], [15.947788, 49.357219], [15.947756, 49.357045], [15.947729, 49.356862], [15.951279, 49.35627], [15.959992, 49.356704], [15.962699, 49.35701], [15.962741, 49.357078], [15.963015, 49.358017], [15.963013, 49.358082], [15.962738, 49.359122], [15.967292, 49.366755], [15.970666, 49.367634], [15.975897, 49.361975], [15.975786, 49.360577], [15.976106, 49.359794], [15.975658, 49.352171], [15.974825, 49.349735], [15.974875, 49.349626], [15.97553, 49.348573], [15.976104, 49.348553], [15.976621, 49.348575], [15.982879, 49.342125], [15.978553, 49.335488], [15.975788, 49.334507], [15.972151, 49.333597], [15.971518, 49.333565], [15.967502, 49.333218], [15.96715, 49.333196], [15.967381, 49.329603], [15.968349, 49.326748], [15.969025, 49.325905], [15.969846, 49.325547], [15.971741, 49.325541], [15.97261, 49.326237], [15.977556, 49.329464], [15.980572, 49.332508], [15.98483, 49.334692], [15.991394, 49.333963], [15.991702, 49.334446], [16.000444, 49.33497], [16.00112, 49.334675], [16.002739, 49.33396], [16.00561, 49.332672], [16.007338, 49.333108], [16.014772, 49.328943], [16.017782, 49.326967], [16.023654, 49.32501], [16.027513, 49.322042], [16.027627, 49.322011], [16.031112, 49.322913], [16.038587, 49.318363], [16.037689, 49.314877], [16.039336, 49.314453], [16.041232, 49.30594], [16.041802, 49.30322], [16.042323, 49.295061], [16.042308, 49.294449], [16.043044, 49.28826], [16.045476, 49.286357], [16.046998, 49.279751], [16.046312, 49.276217], [16.039981, 49.27371], [16.039556, 49.273828], [16.038792, 49.273966], [16.038362, 49.274006], [16.037847, 49.274013], [16.036525, 49.273948], [16.035953, 49.273963], [16.03412, 49.274182], [16.031684, 49.274609], [16.030522, 49.274745], [16.025474, 49.276349], [16.018796, 49.275799], [16.017111, 49.274647], [16.01705, 49.274224], [16.018171, 49.272253], [16.022185, 49.269417], [16.026502, 49.271148], [16.033111, 49.26846], [16.041816, 49.268873], [16.043143, 49.268463], [16.044408, 49.268009], [16.044951, 49.267872], [16.045392, 49.267813], [16.046024, 49.267819], [16.046503, 49.267886], [16.046835, 49.267969], [16.047166, 49.268083], [16.047541, 49.26825], [16.049961, 49.269063], [16.052145, 49.269515], [16.05333, 49.269617], [16.053845, 49.269636], [16.055019, 49.26961], [16.055609, 49.269662], [16.055886, 49.269712], [16.056399, 49.269881], [16.06475, 49.267415], [16.072325, 49.26422], [16.071666, 49.258838], [16.069223, 49.256747], [16.064854, 49.252153], [16.064949, 49.248554], [16.066675, 49.248206], [16.074033, 49.247707], [16.07808, 49.248912], [16.080909, 49.255659], [16.084929, 49.257212], [16.086385, 49.257229], [16.086914, 49.257279], [16.087489, 49.257419], [16.089538, 49.258167], [16.090411, 49.258411], [16.090903, 49.258577], [16.091465, 49.25885], [16.092265, 49.259225], [16.093027, 49.259548], [16.093278, 49.259732], [16.093759, 49.260342], [16.094677, 49.261307], [16.103092, 49.264184], [16.103691, 49.260713], [16.103874, 49.260202], [16.104527, 49.260007], [16.105149, 49.259829], [16.105614, 49.259786], [16.10686, 49.259758], [16.109886, 49.262619], [16.110624, 49.263277], [16.110974, 49.264302], [16.116344, 49.26955], [16.123, 49.27178], [16.124651, 49.264025], [16.124177, 49.262422], [16.123972, 49.261918], [16.123313, 49.260684], [16.124864, 49.260062], [16.125051, 49.259995], [16.125563, 49.259889], [16.127103, 49.259718], [16.132651, 49.254276], [16.13293, 49.25326], [16.13233, 49.247728], [16.131678, 49.245576], [16.131181, 49.244378], [16.13145, 49.24238], [16.130471, 49.235234], [16.131339, 49.232866], [16.131829, 49.231901], [16.135222, 49.230168], [16.140612, 49.224351], [16.137463, 49.217575], [16.129012, 49.215522], [16.128253, 49.215757], [16.127717, 49.215834], [16.127139, 49.215856], [16.125801, 49.215583], [16.125269, 49.215466], [16.124614, 49.21526], [16.12414, 49.215071], [16.123584, 49.214806], [16.125131, 49.211556], [16.131173, 49.211331], [16.134076, 49.210663], [16.136978, 49.209994], [16.142041, 49.207557], [16.143438, 49.206628], [16.14779, 49.199959], [16.148699, 49.199746], [16.154835, 49.197608], [16.158422, 49.190362], [16.165277, 49.185458], [16.171583, 49.183167], [16.172877, 49.182624], [16.173617, 49.182357], [16.174715, 49.184202], [16.174778, 49.184366], [16.174838, 49.185744], [16.177512, 49.190313], [16.184502, 49.194113], [16.186448, 49.192016], [16.186879, 49.191355], [16.187552, 49.190683], [16.188075, 49.182453], [16.188168, 49.182185], [16.187587, 49.173382], [16.186919, 49.172211], [16.186998, 49.17194], [16.187174, 49.171526], [16.187655, 49.170924], [16.188753, 49.169976], [16.195054, 49.165897], [16.198239, 49.167577], [16.203344, 49.171493], [16.203815, 49.17187], [16.20548, 49.174812], [16.207077, 49.178039], [16.205183, 49.186047], [16.211183, 49.188815], [16.211888, 49.188752], [16.212933, 49.188749], [16.21406, 49.188812], [16.218085, 49.189002], [16.218301, 49.188969], [16.22017, 49.192002], [16.227369, 49.193932], [16.230026, 49.193474], [16.235629, 49.186947], [16.232968, 49.182176], [16.232681, 49.181904], [16.231712, 49.180808], [16.230974, 49.180047], [16.230624, 49.179655], [16.229941, 49.178846], [16.229833, 49.17869], [16.228387, 49.176759], [16.226867, 49.17465], [16.226505, 49.174101], [16.229114, 49.171621], [16.232106, 49.168032], [16.235189, 49.166174], [16.239918, 49.167309], [16.248756, 49.165805], [16.247627, 49.159911], [16.249214, 49.157657], [16.249774, 49.156812], [16.250132, 49.156506], [16.251587, 49.155171], [16.255061, 49.156445], [16.259193, 49.148846], [16.26067, 49.148089], [16.260656, 49.139748], [16.259989, 49.132425], [16.258872, 49.130767], [16.258732, 49.130372], [16.257159, 49.124958], [16.250119, 49.123229], [16.247514, 49.127909], [16.244686, 49.130136], [16.239072, 49.127207], [16.232345, 49.123862], [16.225258, 49.122845], [16.223003, 49.122756], [16.219853, 49.122552], [16.215876, 49.122877], [16.210781, 49.121957], [16.210886, 49.118358], [16.217193, 49.114273], [16.219874, 49.111871], [16.220875, 49.112988], [16.22234, 49.115088], [16.228052, 49.11928], [16.231472, 49.119723], [16.237682, 49.119479], [16.238835, 49.120539], [16.247241, 49.118064], [16.247242, 49.115443], [16.254648, 49.111156], [16.255143, 49.111015], [16.255491, 49.1109], [16.260433, 49.105122], [16.260088, 49.101539], [16.261156, 49.101436], [16.263191, 49.101066], [16.264225, 49.100777], [16.266497, 49.099854], [16.267021, 49.099608], [16.268501, 49.099172], [16.274461, 49.096308], [16.277467, 49.095278], [16.277913, 49.095385], [16.278537, 49.095572], [16.283655, 49.096165], [16.2883, 49.091783], [16.289229, 49.091107], [16.291386, 49.091842], [16.293116, 49.092449], [16.300893, 49.090536], [16.302739, 49.089949], [16.308008, 49.086438], [16.309034, 49.085613], [16.309979, 49.084554], [16.310542, 49.083884], [16.311034, 49.083485], [16.311547, 49.083206], [16.312048, 49.083056], [16.312685, 49.082982], [16.315825, 49.084156], [16.317819, 49.084034], [16.319592, 49.084741], [16.32396, 49.083708], [16.323031, 49.075155], [16.320615, 49.074381], [16.318277, 49.073442], [16.317826, 49.073291], [16.316559, 49.072998], [16.31582, 49.07274], [16.312545, 49.071299], [16.307129, 49.072569], [16.304283, 49.073663], [16.302331, 49.073097], [16.296291, 49.074003], [16.295237, 49.074043], [16.294505, 49.073938], [16.28744, 49.076084], [16.284485, 49.07814], [16.277147, 49.074973], [16.274697, 49.075211], [16.269886, 49.077328], [16.263215, 49.075054], [16.261038, 49.075568], [16.25843, 49.07383], [16.256747, 49.072123], [16.256729, 49.071533], [16.256752, 49.071204], [16.258402, 49.07023], [16.258508, 49.07023], [16.260602, 49.070888], [16.264564, 49.071035], [16.269896, 49.070935], [16.274349, 49.071628], [16.276799, 49.07139], [16.278941, 49.07114], [16.281118, 49.070885], [16.281509, 49.070822], [16.286989, 49.064764], [16.285894, 49.061334], [16.282827, 49.053341], [16.280699, 49.053721], [16.27888, 49.05394], [16.278321, 49.053945], [16.277995, 49.053912], [16.275074, 49.0539], [16.273041, 49.054136], [16.272627, 49.05056], [16.274659, 49.050324], [16.276692, 49.050089], [16.284222, 49.049432], [16.286226, 49.049004], [16.288287, 49.048564], [16.290186, 49.048246], [16.290553, 49.048205], [16.291024, 49.048198], [16.291402, 49.048225], [16.296181, 49.047402], [16.299793, 49.044358], [16.304214, 49.040366], [16.308168, 49.036692], [16.308251, 49.036606], [16.309693, 49.036159], [16.316834, 49.031576], [16.317375, 49.030453], [16.320312, 49.028371], [16.324591, 49.028143], [16.329247, 49.026101], [16.332742, 49.02457], [16.335244, 49.023458], [16.337503, 49.020452], [16.331237, 49.01449], [16.330299, 49.014666], [16.327228, 49.015427], [16.32422, 49.016171], [16.323759, 49.016302], [16.32332, 49.016446], [16.321507, 49.017105], [16.319955, 49.017694], [16.317767, 49.018608], [16.315811, 49.019288], [16.315262, 49.019404], [16.314151, 49.019556], [16.311812, 49.020336], [16.309934, 49.019636], [16.309836, 49.016037], [16.314365, 49.012997], [16.323228, 49.01271], [16.326362, 49.011933], [16.33338, 49.008128], [16.335577, 49.005275], [16.339672, 49.000062], [16.340215, 48.997112], [16.340717, 48.995337], [16.345184, 48.988824], [16.345469, 48.98868], [16.348017, 48.987914], [16.349496, 48.987337], [16.352052, 48.98665], [16.359063, 48.984676], [16.361782, 48.983185], [16.361538, 48.975472], [16.361292, 48.975243], [16.360119, 48.970774], [16.362925, 48.969834], [16.364949, 48.969401], [16.369985, 48.963099], [16.368412, 48.960332], [16.366879, 48.957641], [16.359207, 48.953734], [16.357174, 48.95494], [16.35478, 48.956309], [16.352777, 48.958207], [16.351554, 48.960069], [16.35018, 48.962129], [16.349944, 48.962387], [16.348166, 48.964081], [16.346282, 48.965868], [16.344381, 48.967415], [16.342481, 48.968961], [16.34058, 48.970507], [16.337673, 48.972732], [16.337293, 48.973049], [16.336553, 48.973595], [16.335481, 48.973241], [16.335325, 48.973171], [16.334414, 48.9707], [16.335153, 48.970154], [16.338308, 48.967715], [16.340209, 48.966168], [16.340483, 48.957758], [16.339271, 48.957046], [16.336821, 48.955876], [16.335283, 48.95548], [16.334148, 48.955109], [16.333256, 48.954789], [16.332196, 48.954467], [16.33219, 48.953989], [16.332252, 48.952206], [16.32365, 48.95006], [16.323366, 48.950749], [16.321491, 48.951579], [16.313003, 48.953203], [16.312259, 48.953326], [16.311897, 48.953321], [16.308439, 48.945161], [16.308305, 48.942516], [16.308411, 48.942424], [16.309906, 48.941397], [16.317172, 48.936672], [16.319402, 48.933846], [16.323048, 48.926184], [16.318861, 48.921961], [16.318516, 48.919074], [16.316597, 48.912146], [16.313999, 48.911106], [16.310222, 48.909584], [16.306444, 48.908062], [16.302667, 48.906541], [16.29889, 48.905019], [16.297144, 48.904316], [16.295383, 48.903606], [16.294979, 48.903439], [16.296354, 48.900112], [16.300384, 48.901119], [16.30779, 48.904723], [16.311567, 48.906245], [16.315344, 48.907766], [16.317935, 48.908804], [16.325738, 48.909198], [16.333613, 48.909164], [16.334856, 48.906835], [16.335489, 48.906674], [16.335873, 48.906651], [16.336083, 48.906659], [16.336598, 48.907152], [16.336867, 48.907552], [16.337275, 48.908937], [16.33794, 48.911933], [16.342665, 48.916275], [16.343433, 48.917], [16.343666, 48.917589], [16.343958, 48.919005], [16.352298, 48.920428], [16.354641, 48.917696], [16.356679, 48.919443], [16.363165, 48.919681], [16.36406, 48.912469], [16.366494, 48.909817], [16.370296, 48.912067], [16.371952, 48.91434], [16.380192, 48.915068], [16.381284, 48.911638], [16.383411, 48.912315], [16.38452, 48.912565], [16.392451, 48.90934], [16.392697, 48.90737], [16.392759, 48.906668], [16.39311, 48.904682], [16.393458, 48.901238], [16.393655, 48.900406], [16.393853, 48.899971], [16.394965, 48.89778], [16.396077, 48.89559], [16.39795, 48.890088], [16.398696, 48.888962], [16.401286, 48.887681], [16.401414, 48.887623], [16.402602, 48.887615], [16.402831, 48.887692], [16.402897, 48.890904], [16.400399, 48.895028], [16.399287, 48.897219], [16.398175, 48.89941], [16.404316, 48.905506], [16.404397, 48.909105], [16.400754, 48.91579], [16.402135, 48.917971], [16.402641, 48.918402], [16.403353, 48.919316], [16.403738, 48.920343], [16.403716, 48.923429], [16.404558, 48.927164], [16.404762, 48.927857], [16.405074, 48.929997], [16.40535, 48.931959], [16.406252, 48.934996], [16.407082, 48.936838], [16.407636, 48.938343], [16.414675, 48.943376], [16.418562, 48.944057], [16.419335, 48.944138], [16.426492, 48.94391], [16.430985, 48.942809], [16.435614, 48.935343], [16.437722, 48.932691], [16.438106, 48.932624], [16.442351, 48.92474], [16.437623, 48.921418], [16.433128, 48.921095], [16.429219, 48.920751], [16.428568, 48.920745], [16.427015, 48.920819], [16.426487, 48.920793], [16.425897, 48.920728], [16.42174, 48.920096], [16.421007, 48.919944], [16.419163, 48.919402], [16.418568, 48.919248], [16.419071, 48.915684], [16.4255, 48.911292], [16.426303, 48.910812], [16.42758, 48.910588], [16.42848, 48.910967], [16.431026, 48.912933], [16.43166, 48.913357], [16.432423, 48.91394], [16.435171, 48.915693], [16.442317, 48.917784], [16.443291, 48.917858], [16.443966, 48.917953], [16.445199, 48.919238], [16.450901, 48.922023], [16.451978, 48.922191], [16.453086, 48.922504], [16.455542, 48.923468], [16.457203, 48.923964], [16.461091, 48.92451], [16.46182, 48.92453], [16.462665, 48.924646], [16.463905, 48.925061], [16.466585, 48.926187], [16.471992, 48.920701], [16.472114, 48.92027], [16.475668, 48.919685], [16.476582, 48.91959], [16.479695, 48.92006], [16.48084, 48.920435], [16.481722, 48.920921], [16.482053, 48.921083], [16.482663, 48.921498], [16.48366, 48.922376], [16.484522, 48.923033], [16.485034, 48.923428], [16.485538, 48.923923], [16.485888, 48.924396], [16.493157, 48.927088], [16.495637, 48.924315], [16.496259, 48.923669], [16.49721, 48.922566], [16.49877, 48.920667], [16.499205, 48.920321], [16.499664, 48.920025], [16.500035, 48.919826], [16.500611, 48.919577], [16.501689, 48.923012], [16.502721, 48.930315], [16.507018, 48.930313], [16.509936, 48.930311], [16.512853, 48.930309], [16.515771, 48.930307], [16.518304, 48.930075], [16.520439, 48.929863], [16.522982, 48.921905], [16.522148, 48.920173], [16.521462, 48.918519], [16.521275, 48.917861], [16.521151, 48.917379], [16.520791, 48.915444], [16.520423, 48.913461], [16.51691, 48.908999], [16.512513, 48.908178], [16.51225, 48.907959], [16.50867, 48.902064], [16.508139, 48.898503], [16.502954, 48.89345], [16.499515, 48.894871], [16.497249, 48.895988], [16.495222, 48.897055], [16.493195, 48.898121], [16.491172, 48.899186], [16.48884, 48.90042], [16.486509, 48.901655], [16.484177, 48.90289], [16.48196, 48.904058], [16.480125, 48.90521], [16.478369, 48.90631], [16.477369, 48.907021], [16.476941, 48.907146], [16.476448, 48.907198], [16.475765, 48.907182], [16.474827, 48.907066], [16.471663, 48.906141], [16.468499, 48.905217], [16.465335, 48.904293], [16.462171, 48.903369], [16.459007, 48.902445], [16.455836, 48.901519], [16.453221, 48.900743], [16.450351, 48.89987], [16.449303, 48.898801], [16.451885, 48.896613], [16.454245, 48.897292], [16.45686, 48.898068], [16.460016, 48.898989], [16.46318, 48.899914], [16.466344, 48.900838], [16.469508, 48.901762], [16.472672, 48.902686], [16.480045, 48.90101], [16.482492, 48.899708], [16.484824, 48.898474], [16.487156, 48.897239], [16.489487, 48.896004], [16.491519, 48.894935], [16.493546, 48.893869], [16.495573, 48.892802], [16.49763, 48.885248], [16.496164, 48.883559], [16.494965, 48.882463], [16.491761, 48.879641], [16.491265, 48.879402], [16.490788, 48.879073], [16.490181, 48.87849], [16.489879, 48.878063], [16.487228, 48.874147], [16.486801, 48.87368], [16.484785, 48.871674], [16.483168, 48.870576], [16.478481, 48.867754], [16.473987, 48.868861], [16.471232, 48.871642], [16.470828, 48.872347], [16.470144, 48.873062], [16.469379, 48.873568], [16.462963, 48.875088], [16.461872, 48.87566], [16.454543, 48.875376], [16.452142, 48.878059], [16.450317, 48.876426], [16.443685, 48.875072], [16.440625, 48.876821], [16.43862, 48.877889], [16.436561, 48.878983], [16.43326, 48.880599], [16.431466, 48.881349], [16.429568, 48.88214], [16.427421, 48.882885], [16.425878, 48.883465], [16.42339, 48.884512], [16.421653, 48.885474], [16.419917, 48.886436], [16.418172, 48.883287], [16.419909, 48.882325], [16.421645, 48.881363], [16.424469, 48.880152], [16.426151, 48.879516], [16.428387, 48.878739], [16.430077, 48.878028], [16.431871, 48.877278], [16.434976, 48.875751], [16.436928, 48.874711], [16.439961, 48.872789], [16.443927, 48.867179], [16.446503, 48.864665], [16.449152, 48.862138], [16.451476, 48.859388], [16.457859, 48.856231], [16.457454, 48.852654], [16.457851, 48.8442], [16.451345, 48.843626], [16.449023, 48.844515], [16.442741, 48.839627], [16.44054, 48.838775], [16.437112, 48.837814], [16.433703, 48.836858], [16.430693, 48.836294], [16.429887, 48.836174], [16.429265, 48.836052], [16.427696, 48.835752], [16.428373, 48.832216], [16.434136, 48.831666], [16.441512, 48.835309], [16.444029, 48.836265], [16.447626, 48.837347], [16.45612, 48.835339], [16.457028, 48.83421], [16.45754, 48.833493], [16.461636, 48.827949], [16.462818, 48.826135], [16.463802, 48.824564], [16.464536, 48.824286], [16.465712, 48.824345], [16.466349, 48.824582], [16.471121, 48.826282], [16.473796, 48.831512], [16.473733, 48.831706], [16.473275, 48.832376], [16.472885, 48.832888], [16.471797, 48.837509], [16.477798, 48.840537], [16.478307, 48.840493], [16.481552, 48.838934], [16.482447, 48.839497], [16.489246, 48.844048], [16.491586, 48.838774], [16.491424, 48.838182], [16.491479, 48.838084], [16.492642, 48.834597], [16.493488, 48.834385], [16.496985, 48.834633], [16.497322, 48.834651], [16.505022, 48.833204], [16.506912, 48.832109], [16.507518, 48.831764], [16.507782, 48.831685], [16.516419, 48.832588], [16.519751, 48.831466], [16.5209, 48.834877], [16.518322, 48.841131], [16.518137, 48.84288], [16.519852, 48.849179], [16.521602, 48.852251], [16.522998, 48.85755], [16.528645, 48.859736], [16.534409, 48.856381], [16.535437, 48.851832], [16.536851, 48.85173], [16.537145, 48.85172], [16.537736, 48.851795], [16.538503, 48.852151], [16.539653, 48.853332], [16.539245, 48.854566], [16.545637, 48.860085], [16.548123, 48.861091], [16.548917, 48.861569], [16.557528, 48.860278], [16.560181, 48.858512], [16.561512, 48.858718], [16.568805, 48.858914], [16.57096, 48.856464], [16.578735, 48.856311], [16.580182, 48.856244], [16.580347, 48.85984], [16.5789, 48.859907], [16.578413, 48.85997], [16.577644, 48.860099], [16.576847, 48.860253], [16.575369, 48.860553], [16.573955, 48.86087], [16.572539, 48.861288], [16.57015, 48.862253], [16.568445, 48.863155], [16.566792, 48.863852], [16.561931, 48.866564], [16.561218, 48.867052], [16.560049, 48.867595], [16.557584, 48.869225], [16.556864, 48.869761], [16.556401, 48.869996], [16.554092, 48.870562], [16.552157, 48.870998], [16.551476, 48.871104], [16.550675, 48.871251], [16.550076, 48.871447], [16.548639, 48.871984], [16.54743, 48.87999], [16.549746, 48.881002], [16.555361, 48.880545], [16.558955, 48.880336], [16.559085, 48.882575], [16.558946, 48.884034], [16.55891, 48.885069], [16.556738, 48.886762], [16.555198, 48.886719], [16.553295, 48.886314], [16.551935, 48.88581], [16.549531, 48.884799], [16.548394, 48.884338], [16.54599, 48.88329], [16.538409, 48.886275], [16.538086, 48.886713], [16.537631, 48.887168], [16.537172, 48.88752], [16.536607, 48.88785], [16.536039, 48.888094], [16.535656, 48.888223], [16.530815, 48.889543], [16.532691, 48.897838], [16.537773, 48.901906], [16.539949, 48.902106], [16.543644, 48.901239], [16.545202, 48.900879], [16.549021, 48.900114], [16.5544, 48.895847], [16.554524, 48.895817], [16.557688, 48.896387], [16.557792, 48.89638], [16.558131, 48.896364], [16.563087, 48.897504], [16.563804, 48.897542], [16.564272, 48.897638], [16.564723, 48.897787], [16.566759, 48.898555], [16.569421, 48.899546], [16.57135, 48.90028], [16.573268, 48.901009], [16.574292, 48.901511], [16.579916, 48.902916], [16.583758, 48.90068], [16.585416, 48.896929], [16.587487, 48.892195], [16.58128, 48.886344], [16.580203, 48.886564], [16.579283, 48.886862], [16.576966, 48.887449], [16.575659, 48.887198], [16.575553, 48.887148], [16.575455, 48.887098], [16.576836, 48.883851], [16.57833, 48.883391], [16.579085, 48.883142], [16.581454, 48.882425], [16.583968, 48.881625], [16.585265, 48.881243], [16.587141, 48.88072], [16.588144, 48.880416], [16.58881, 48.88029], [16.594298, 48.87374], [16.596791, 48.86803], [16.600372, 48.864147], [16.603597, 48.857929], [16.603902, 48.856645], [16.606462, 48.849838], [16.608458, 48.849673], [16.61155, 48.849739], [16.619522, 48.853859], [16.621288, 48.853987], [16.621497, 48.854192], [16.622004, 48.856466], [16.621869, 48.856595], [16.617905, 48.861145], [16.619676, 48.869748], [16.620122, 48.870022], [16.620589, 48.870422], [16.620786, 48.870644], [16.619281, 48.875551], [16.619189, 48.876561], [16.618843, 48.879124], [16.617102, 48.878911], [16.615206, 48.878678], [16.61331, 48.878446], [16.610447, 48.878106], [16.604488, 48.882221], [16.601357, 48.884103], [16.600411, 48.884788], [16.597424, 48.886841], [16.594486, 48.888859], [16.590758, 48.893698], [16.588708, 48.898383], [16.587051, 48.902135], [16.587645, 48.909254], [16.586323, 48.912603], [16.584795, 48.920813], [16.589891, 48.92155], [16.592141, 48.920564], [16.594391, 48.919578], [16.596777, 48.918538], [16.598649, 48.917375], [16.601088, 48.916685], [16.606892, 48.917656], [16.609367, 48.917534], [16.610652, 48.917414], [16.611173, 48.917379], [16.612385, 48.91727], [16.613095, 48.918805], [16.613167, 48.919151], [16.612706, 48.920856], [16.608247, 48.923633], [16.60468, 48.923151], [16.599068, 48.922153], [16.598145, 48.922197], [16.595836, 48.922875], [16.597042, 48.931762], [16.597349, 48.932276], [16.59755, 48.932683], [16.597724, 48.933313], [16.597981, 48.934054], [16.601266, 48.938604], [16.604527, 48.940128], [16.609777, 48.940549], [16.615194, 48.934206], [16.617992, 48.931941], [16.623921, 48.930542], [16.625245, 48.929733], [16.625575, 48.92968], [16.632227, 48.926269], [16.630947, 48.920826], [16.629135, 48.915597], [16.629, 48.912], [16.63654, 48.907559], [16.64154, 48.900492], [16.641389, 48.899882], [16.641332, 48.899061], [16.641427, 48.898123], [16.641604, 48.897324], [16.641692, 48.890486], [16.642889, 48.886269], [16.643995, 48.886505], [16.644587, 48.886776], [16.64812, 48.888892], [16.649825, 48.892062], [16.647407, 48.900336], [16.652508, 48.903311], [16.656416, 48.902923], [16.657549, 48.902475], [16.658666, 48.902382], [16.659573, 48.902273], [16.667034, 48.904961], [16.669678, 48.905215], [16.672385, 48.906959], [16.677862, 48.91404], [16.679172, 48.914604], [16.681123, 48.915385], [16.682361, 48.915758], [16.688366, 48.916395], [16.69138, 48.915627], [16.692819, 48.915056], [16.694815, 48.914376], [16.695301, 48.914257], [16.695786, 48.914195], [16.696593, 48.914199], [16.697058, 48.914246], [16.699071, 48.915281], [16.700915, 48.915546], [16.70582, 48.908452], [16.704991, 48.906245], [16.704797, 48.905862], [16.704526, 48.905136], [16.704036, 48.904183], [16.703718, 48.903446], [16.703071, 48.902312], [16.703054, 48.900713], [16.701497, 48.892026], [16.700273, 48.889133], [16.703433, 48.88899], [16.711225, 48.886649], [16.7123, 48.886782], [16.714392, 48.887016], [16.716503, 48.887252], [16.717699, 48.887449], [16.718536, 48.887545], [16.725401, 48.883652], [16.725615, 48.881414], [16.725611, 48.881158], [16.73113, 48.876904], [16.734306, 48.878599], [16.733534, 48.880047], [16.733073, 48.880777], [16.73244, 48.881854], [16.730831, 48.88511], [16.729824, 48.88658], [16.729071, 48.887603], [16.728008, 48.888938], [16.725326, 48.891478], [16.72447, 48.897855], [16.724978, 48.901601], [16.724682, 48.901648], [16.720513, 48.909421], [16.721029, 48.910445], [16.721488, 48.911414], [16.722144, 48.913191], [16.72282, 48.914883], [16.723236, 48.915779], [16.723552, 48.916526], [16.726587, 48.924769], [16.727292, 48.92507], [16.728682, 48.92631], [16.729541, 48.927125], [16.730191, 48.928227], [16.734342, 48.931981], [16.741686, 48.93224], [16.742973, 48.931785], [16.745662, 48.932161], [16.747246, 48.931852], [16.749243, 48.930706], [16.752585, 48.928277], [16.748543, 48.920759], [16.747838, 48.92072], [16.746565, 48.920573], [16.746161, 48.92049], [16.745632, 48.920344], [16.745109, 48.920175], [16.744566, 48.919967], [16.743531, 48.919529], [16.743032, 48.919268], [16.742653, 48.919036], [16.741441, 48.91842], [16.738824, 48.917156], [16.737703, 48.91661], [16.735848, 48.9152], [16.73811, 48.91303], [16.741754, 48.905369], [16.742465, 48.905372], [16.74313, 48.90542], [16.749403, 48.904861], [16.752525, 48.904943], [16.753006, 48.905024], [16.754394, 48.905436], [16.756378, 48.906018], [16.758387, 48.906608], [16.761189, 48.906879], [16.763838, 48.906635], [16.766457, 48.906388], [16.768442, 48.906074], [16.774535, 48.904124], [16.777663, 48.90295], [16.781307, 48.900992], [16.783203, 48.893388], [16.780545, 48.890269], [16.77852, 48.888839], [16.776304, 48.886634], [16.774087, 48.88443], [16.766349, 48.882101], [16.764036, 48.882842], [16.761723, 48.883584], [16.760625, 48.880155], [16.763708, 48.872565], [16.766015, 48.869801], [16.766589, 48.87028], [16.771193, 48.873551], [16.771315, 48.873814], [16.77441, 48.879673], [16.776626, 48.881877], [16.778842, 48.884082], [16.786116, 48.885854], [16.786566, 48.885839], [16.787094, 48.885934], [16.78754, 48.88611], [16.787041, 48.888205], [16.788281, 48.892945], [16.795304, 48.891783], [16.79776, 48.889077], [16.799304, 48.887376], [16.800848, 48.885676], [16.802392, 48.883975], [16.804298, 48.881863], [16.805966, 48.879931], [16.807604, 48.878035], [16.808421, 48.877046], [16.809702, 48.87571], [16.811941, 48.873701], [16.81375, 48.872145], [16.815556, 48.870592], [16.81376, 48.862569], [16.811467, 48.862024], [16.809237, 48.859961], [16.808118, 48.859264], [16.808045, 48.859206], [16.808422, 48.856244], [16.810256, 48.849591], [16.812398, 48.849785], [16.818531, 48.845093], [16.817675, 48.841596], [16.818456, 48.841405], [16.820275, 48.840895], [16.821651, 48.840856], [16.82217, 48.841511], [16.823232, 48.843189], [16.824084, 48.844741], [16.832347, 48.841296], [16.835215, 48.83912], [16.843631, 48.842005], [16.847606, 48.836491], [16.847489, 48.834602], [16.841369, 48.829662], [16.840845, 48.82965], [16.840008, 48.829574], [16.838874, 48.829364], [16.83522, 48.826508], [16.834115, 48.823691], [16.828145, 48.819422], [16.82454, 48.819567], [16.820933, 48.819713], [16.818605, 48.819804], [16.816276, 48.819896], [16.813948, 48.819988], [16.811554, 48.820081], [16.810536, 48.820081], [16.807493, 48.81956], [16.806338, 48.819182], [16.805669, 48.818847], [16.805071, 48.818482], [16.804406, 48.81794], [16.804059, 48.817579], [16.806653, 48.815083], [16.813806, 48.816391], [16.816135, 48.816299], [16.818463, 48.816207], [16.820792, 48.816116], [16.824395, 48.81597], [16.827999, 48.815825], [16.833398, 48.814336], [16.837342, 48.811578], [16.83775, 48.811241], [16.837888, 48.811212], [16.841191, 48.812214], [16.841158, 48.812471], [16.846765, 48.819375], [16.84774, 48.819131], [16.848093, 48.819067], [16.850139, 48.822029], [16.851918, 48.823904], [16.859743, 48.822058], [16.861466, 48.819014], [16.861879, 48.819172], [16.862621, 48.819562], [16.863875, 48.820166], [16.871348, 48.8198], [16.873291, 48.818025], [16.874646, 48.816763], [16.871559, 48.808898], [16.867109, 48.806226], [16.862064, 48.805241], [16.858911, 48.805549], [16.85714, 48.805744], [16.856747, 48.802165], [16.860595, 48.800087], [16.864109, 48.800869], [16.865486, 48.80126], [16.873068, 48.798366], [16.874135, 48.797263], [16.87554, 48.796188], [16.877728, 48.799047], [16.881862, 48.801852], [16.882922, 48.802214], [16.889935, 48.80023], [16.891528, 48.79791], [16.889374, 48.79089], [16.889654, 48.787301], [16.893874, 48.780459], [16.892918, 48.777255], [16.892903, 48.774837], [16.893315, 48.77454], [16.89355, 48.77438], [16.89498, 48.774304], [16.896496, 48.775079], [16.900568, 48.77767], [16.908776, 48.777351], [16.910788, 48.776673], [16.911722, 48.77635], [16.917926, 48.780292], [16.92341, 48.780322], [16.928311, 48.777712], [16.930369, 48.77562], [16.931704, 48.774218], [16.933779, 48.771975], [16.935879, 48.769705], [16.937164, 48.768371], [16.938902, 48.766499], [16.940704, 48.764561], [16.942799, 48.762522], [16.944935, 48.760444], [16.946452, 48.759057], [16.948526, 48.757269], [16.950658, 48.755433], [16.951771, 48.754552], [16.953785, 48.752923], [16.955813, 48.751284], [16.959111, 48.748667], [16.962431, 48.746033], [16.965108, 48.743976], [16.968784, 48.740831], [16.970223, 48.73946], [16.972328, 48.73738], [16.973396, 48.736197], [16.974161, 48.735292], [16.975147, 48.734074], [16.979287, 48.726919], [16.982779, 48.719197], [16.98332, 48.717315], [16.983559, 48.716417], [16.987038, 48.717339], [16.9868, 48.718238], [16.986235, 48.720205], [16.985759, 48.721729], [16.984125, 48.726101], [16.983569, 48.727304], [16.98287, 48.728714], [16.981951, 48.730416], [16.980809, 48.732293], [16.979482, 48.734268], [16.97804, 48.736217], [16.976961, 48.737555], [16.976145, 48.73852], [16.975002, 48.73979], [16.974213, 48.740627], [16.972706, 48.742067], [16.971267, 48.743438], [16.969957, 48.744654], [16.969114, 48.745368], [16.967369, 48.746777], [16.964625, 48.748887], [16.961349, 48.751487], [16.958051, 48.754104], [16.956049, 48.755722], [16.954034, 48.757351], [16.952892, 48.758256], [16.950877, 48.759996], [16.948803, 48.761783], [16.947365, 48.7631], [16.94531, 48.765101], [16.943215, 48.767141], [16.941541, 48.768948], [16.939803, 48.77082], [16.938472, 48.772202], [16.936422, 48.774419], [16.934347, 48.776662], [16.938713, 48.783791], [16.941535, 48.782993], [16.942583, 48.782531], [16.943979, 48.78213], [16.945309, 48.78175], [16.946018, 48.782146], [16.94626, 48.782321], [16.950342, 48.784908], [16.952482, 48.785764], [16.953421, 48.78619], [16.957495, 48.787617], [16.958266, 48.787821], [16.960622, 48.788521], [16.961033, 48.79193], [16.958735, 48.794701], [16.956886, 48.793167], [16.955037, 48.791633], [16.94704, 48.791189], [16.940131, 48.787975], [16.936822, 48.789411], [16.936186, 48.78968], [16.932535, 48.786486], [16.926703, 48.786466], [16.926201, 48.786606], [16.921978, 48.788603], [16.919612, 48.790548], [16.91727, 48.792471], [16.914696, 48.79889], [16.916216, 48.801629], [16.917735, 48.804369], [16.918843, 48.806365], [16.91995, 48.808362], [16.916802, 48.810108], [16.915695, 48.808112], [16.914587, 48.806115], [16.913067, 48.803375], [16.905272, 48.802378], [16.903028, 48.804235], [16.902207, 48.804709], [16.900798, 48.806079], [16.902697, 48.813932], [16.901372, 48.817279], [16.898865, 48.816286], [16.896166, 48.815245], [16.888699, 48.816604], [16.887311, 48.817671], [16.886034, 48.819006], [16.883815, 48.821074], [16.882141, 48.822433], [16.881571, 48.823163], [16.880038, 48.824542], [16.878432, 48.826056], [16.876276, 48.828037], [16.874866, 48.829145], [16.875835, 48.836151], [16.880954, 48.835883], [16.883756, 48.834809], [16.886558, 48.833735], [16.889359, 48.83266], [16.892127, 48.8316], [16.893452, 48.831061], [16.893769, 48.830934], [16.894472, 48.830702], [16.89569, 48.830188], [16.898327, 48.829146], [16.901683, 48.832664], [16.903002, 48.836014], [16.910044, 48.838068], [16.912944, 48.836993], [16.916658, 48.835611], [16.922012, 48.833605], [16.923096, 48.833297], [16.923988, 48.833201], [16.924254, 48.834467], [16.924374, 48.83678], [16.923106, 48.837034], [16.922046, 48.83731], [16.915049, 48.841576], [16.91251, 48.844128], [16.909726, 48.851966], [16.911447, 48.854848], [16.91393, 48.862416], [16.91274, 48.864243], [16.911796, 48.865316], [16.906477, 48.862495], [16.900059, 48.859046], [16.894684, 48.860341], [16.888369, 48.864625], [16.88805, 48.864775], [16.886659, 48.864712], [16.886456, 48.86458], [16.88488, 48.86321], [16.883516, 48.862001], [16.875684, 48.864367], [16.873061, 48.866832], [16.86989, 48.864389], [16.862741, 48.862327], [16.859942, 48.863401], [16.85569, 48.865032], [16.854415, 48.865518], [16.85367, 48.864506], [16.853133, 48.862154], [16.854409, 48.861668], [16.858652, 48.86004], [16.85799, 48.851585], [16.850462, 48.851146], [16.848032, 48.853001], [16.847037, 48.853658], [16.844727, 48.855777], [16.844181, 48.856057], [16.841141, 48.858791], [16.840919, 48.866917], [16.841119, 48.870511], [16.840811, 48.870528], [16.837164, 48.871001], [16.83354, 48.870567], [16.829683, 48.870929], [16.824729, 48.873274], [16.822298, 48.875656], [16.821709, 48.876025], [16.819866, 48.878038], [16.819416, 48.878275], [16.817434, 48.880421], [16.814689, 48.883104], [16.812624, 48.885129], [16.810411, 48.88726], [16.809343, 48.893077], [16.817916, 48.892871], [16.820992, 48.889738], [16.823595, 48.887739], [16.823981, 48.887242], [16.824119, 48.887313], [16.82433, 48.891085], [16.831506, 48.896328], [16.832151, 48.896342], [16.832875, 48.896378], [16.833915, 48.896462], [16.835621, 48.896686], [16.835152, 48.900255], [16.833446, 48.900031], [16.832593, 48.899967], [16.83198, 48.899938], [16.831429, 48.899927], [16.829599, 48.899964], [16.827697, 48.9], [16.824607, 48.90786], [16.824, 48.909394], [16.827697, 48.917321], [16.829489, 48.917537], [16.829971, 48.917598], [16.829517, 48.921169], [16.827155, 48.927936], [16.834161, 48.930995], [16.835878, 48.930327], [16.836119, 48.930197], [16.837824, 48.933368], [16.837553, 48.935346], [16.837508, 48.93574], [16.837171, 48.937329], [16.836833, 48.937515], [16.836195, 48.937747], [16.830682, 48.943107], [16.835436, 48.947706], [16.836064, 48.9477], [16.837203, 48.947755], [16.837588, 48.948391], [16.837752, 48.948712], [16.83718, 48.951355], [16.83641, 48.95135], [16.835288, 48.95138], [16.834595, 48.951371], [16.834001, 48.951282], [16.833207, 48.951081], [16.832331, 48.950811], [16.827533, 48.950003], [16.823948, 48.950337], [16.819197, 48.948677], [16.813404, 48.954623], [16.813243, 48.955515], [16.812273, 48.959595], [16.816106, 48.964579], [16.816809, 48.965636], [16.817281, 48.967258], [16.817929, 48.969057], [16.817324, 48.969255], [16.815801, 48.969503], [16.811832, 48.970875], [16.811272, 48.971187], [16.810617, 48.971429], [16.80519, 48.976062], [16.803968, 48.981613], [16.804038, 48.982473], [16.804414, 48.984097], [16.805114, 48.986314], [16.812948, 48.988949], [16.813396, 48.988909], [16.814012, 48.988965], [16.820792, 48.988987], [16.823918, 48.990809], [16.823828, 48.990976], [16.823336, 48.991539], [16.822736, 48.992229], [16.822773, 49.001041], [16.823067, 49.001631], [16.823297, 49.002755], [16.824145, 49.00578], [16.832107, 49.007775], [16.833805, 49.006795], [16.836603, 49.004115], [16.836641, 48.997292], [16.835773, 48.995604], [16.835613, 48.995097], [16.83542, 48.993674], [16.835486, 48.993267], [16.839039, 48.993845], [16.839859, 48.995227], [16.848671, 48.994596], [16.854911, 48.993469], [16.857239, 48.99285], [16.863191, 48.991255], [16.864579, 48.99109], [16.864655, 48.991111], [16.865269, 48.99146], [16.865317, 48.991505], [16.86672, 48.993305], [16.874141, 48.996545], [16.875787, 48.996145], [16.878466, 48.995592], [16.880535, 48.995188], [16.882601, 48.994784], [16.884861, 48.994339], [16.886833, 48.993886], [16.887638, 48.997395], [16.885665, 48.997847], [16.881889, 48.999077], [16.879156, 48.999125], [16.87651, 48.999671], [16.87086, 49.006394], [16.870153, 49.007984], [16.869859, 49.00813], [16.867068, 49.007067], [16.865568, 49.005757], [16.857571, 49.00243], [16.856219, 49.002472], [16.855323, 49.002572], [16.854137, 49.002759], [16.852699, 49.003018], [16.850222, 49.003462], [16.847746, 49.003906], [16.84527, 49.004349], [16.840921, 49.007426], [16.839051, 49.009695], [16.840716, 49.018408], [16.841093, 49.018596], [16.841559, 49.018925], [16.842377, 49.02008], [16.842497, 49.020625], [16.848925, 49.026299], [16.849821, 49.026386], [16.852333, 49.02709], [16.855668, 49.027548], [16.856628, 49.027658], [16.860257, 49.028269], [16.862824, 49.028083], [16.863518, 49.028106], [16.867924, 49.027618], [16.871041, 49.027863], [16.876802, 49.029197], [16.882492, 49.030664], [16.882597, 49.034262], [16.88105, 49.034307], [16.88024, 49.034241], [16.87967, 49.034125], [16.876813, 49.033719], [16.869538, 49.036944], [16.868065, 49.039431], [16.867477, 49.043299], [16.86654, 49.04401], [16.865966, 49.044363], [16.864646, 49.044382], [16.86436, 49.044331], [16.858454, 49.046264], [16.858126, 49.046603], [16.857739, 49.046897], [16.85705, 49.047239], [16.854371, 49.048241], [16.85395, 49.048357], [16.853341, 49.048441], [16.852796, 49.048458], [16.850736, 49.057158], [16.852857, 49.057876], [16.856622, 49.058254], [16.859883, 49.057236], [16.86245, 49.056436], [16.862668, 49.056361], [16.864089, 49.057118], [16.869022, 49.060087], [16.876568, 49.059901], [16.878605, 49.053201], [16.878315, 49.051081], [16.879209, 49.048562], [16.87976, 49.04617], [16.880707, 49.045687], [16.881202, 49.045587], [16.882679, 49.045094], [16.883804, 49.044764], [16.884629, 49.04456], [16.885492, 49.048055], [16.891025, 49.054589], [16.894637, 49.047884], [16.894404, 49.04673], [16.897932, 49.046017], [16.899843, 49.047656], [16.903177, 49.049013], [16.903492, 49.049308], [16.910697, 49.053355], [16.912991, 49.050824], [16.914103, 49.048777], [16.914519, 49.046915], [16.916666, 49.039321], [16.914088, 49.03726], [16.914325, 49.033667], [16.915096, 49.033718], [16.918643, 49.033138], [16.920496, 49.032801], [16.923911, 49.025816], [16.921389, 49.023247], [16.924351, 49.016082], [16.926532, 49.013218], [16.927764, 49.013975], [16.929933, 49.018347], [16.937487, 49.020477], [16.937955, 49.020357], [16.938539, 49.020307], [16.940908, 49.020035], [16.941493, 49.01985], [16.942405, 49.019649], [16.942906, 49.019568], [16.947294, 49.011863], [16.944706, 49.008135], [16.944365, 49.007816], [16.942253, 49.005586], [16.944867, 49.003111], [16.947712, 49.005577], [16.954697, 49.002252], [16.954251, 48.99788], [16.951526, 48.994366], [16.950821, 48.990835], [16.95224, 48.988919], [16.953981, 48.986622], [16.955722, 48.984325], [16.958591, 48.9865], [16.959653, 48.990334], [16.959016, 48.993877], [16.962799, 49.000736], [16.966281, 48.999824], [16.972674, 49.003994], [16.977387, 49.010869], [16.976322, 49.014308], [16.974074, 49.019374], [16.973165, 49.021104], [16.972496, 49.020992], [16.964752, 49.024381], [16.964281, 49.025383], [16.961981, 49.029914], [16.965262, 49.035283], [16.972905, 49.034075], [16.973481, 49.034129], [16.979706, 49.031137], [16.982984, 49.032625], [16.982084, 49.034606], [16.981811, 49.035118], [16.985634, 49.042767], [16.987486, 49.042807], [16.989356, 49.042847], [16.991526, 49.042916], [16.997372, 49.038346], [16.997812, 49.038315], [17.002065, 49.038034], [17.005617, 49.037451], [17.010375, 49.038464], [17.018767, 49.038152], [17.022016, 49.0366], [17.024016, 49.038144], [17.02463, 49.040009], [17.02462, 49.040202], [17.024283, 49.041734], [17.023956, 49.041758], [17.021387, 49.050326], [17.023232, 49.051389], [17.024265, 49.051697], [17.024569, 49.051845], [17.025261, 49.054774], [17.024143, 49.056183], [17.02378, 49.056329], [17.022562, 49.055924], [17.02189, 49.055683], [17.020231, 49.054237], [17.018863, 49.052892], [17.015114, 49.049996], [17.012449, 49.048211], [17.011517, 49.047822], [17.003269, 49.048829], [16.997856, 49.055124], [16.996477, 49.058449], [16.990684, 49.060006], [16.988487, 49.057154], [16.990286, 49.053049], [16.985062, 49.046344], [16.983788, 49.046175], [16.983174, 49.046045], [16.98203, 49.045701], [16.980375, 49.045127], [16.977704, 49.044293], [16.976948, 49.044098], [16.97446, 49.043779], [16.966309, 49.045903], [16.966272, 49.049517], [16.966919, 49.054923], [16.971189, 49.057403], [16.971918, 49.057508], [16.972887, 49.058261], [16.973176, 49.059235], [16.973192, 49.059295], [16.971282, 49.061168], [16.968592, 49.067331], [16.968613, 49.068082], [16.968513, 49.068875], [16.974769, 49.075184], [16.975813, 49.075002], [16.976519, 49.074951], [16.978916, 49.074577], [16.983313, 49.076903], [16.98516, 49.079993], [16.99221, 49.084281], [16.991832, 49.087861], [16.994691, 49.096], [16.995923, 49.096209], [16.99672, 49.096387], [16.997448, 49.096586], [16.99827, 49.096851], [17.000111, 49.105139], [17.008816, 49.107196], [17.011375, 49.105864], [17.012043, 49.105307], [17.015457, 49.100651], [17.015631, 49.100167], [17.015902, 49.09968], [17.01696, 49.097857], [17.017665, 49.096009], [17.017809, 49.095674], [17.014887, 49.087237], [17.014545, 49.08705], [17.016273, 49.083891], [17.02023, 49.078195], [17.021757, 49.072761], [17.025342, 49.072437], [17.025396, 49.073037], [17.025382, 49.073921], [17.025381, 49.074064], [17.025308, 49.076333], [17.025242, 49.076901], [17.025107, 49.077343], [17.024747, 49.078016], [17.022081, 49.08393], [17.021649, 49.088439], [17.021699, 49.091304], [17.023117, 49.097992], [17.023951, 49.101494], [17.022747, 49.103492], [17.022162, 49.104598], [17.021598, 49.10526], [17.019122, 49.109412], [17.01886, 49.110089], [17.018334, 49.110886], [17.016511, 49.113061], [17.022874, 49.119057], [17.024456, 49.117681], [17.02467, 49.117576], [17.030324, 49.119742], [17.038321, 49.118916], [17.044125, 49.12281], [17.047387, 49.122307], [17.049059, 49.121889], [17.051123, 49.121322], [17.053445, 49.120684], [17.054399, 49.124156], [17.059246, 49.128155], [17.062807, 49.127623], [17.063152, 49.129934], [17.063199, 49.130494], [17.062903, 49.131748], [17.062495, 49.132438], [17.060488, 49.134379], [17.059679, 49.135184], [17.058945, 49.135853], [17.059183, 49.144398], [17.062828, 49.145075], [17.066473, 49.145752], [17.074099, 49.145156], [17.07486, 49.145115], [17.077458, 49.14493], [17.08149, 49.144027], [17.082601, 49.143608], [17.082923, 49.143501], [17.083335, 49.143375], [17.089664, 49.146411], [17.097319, 49.146653], [17.103521, 49.14656], [17.104725, 49.146508], [17.104879, 49.150105], [17.103675, 49.150157], [17.102516, 49.150266], [17.09983, 49.150628], [17.093068, 49.153099], [17.091149, 49.152567], [17.087811, 49.151442], [17.082068, 49.154183], [17.08174, 49.154573], [17.079585, 49.156743], [17.079009, 49.15742], [17.078587, 49.157736], [17.078092, 49.157984], [17.07566, 49.159518], [17.075515, 49.159629], [17.072705, 49.160796], [17.068702, 49.165665], [17.068321, 49.166307], [17.067564, 49.167142], [17.066285, 49.168405], [17.064121, 49.170756], [17.063432, 49.17174], [17.061731, 49.173553], [17.060127, 49.175677], [17.059331, 49.176839], [17.058857, 49.177629], [17.057929, 49.179091], [17.056899, 49.181318], [17.055878, 49.183494], [17.055605, 49.183933], [17.055302, 49.18429], [17.052717, 49.186784], [17.052362, 49.187569], [17.052065, 49.188893], [17.059083, 49.19357], [17.061985, 49.191439], [17.062969, 49.19278], [17.069522, 49.196684], [17.071125, 49.196639], [17.075568, 49.194842], [17.082681, 49.191788], [17.084332, 49.190286], [17.0855, 49.189943], [17.085799, 49.189875], [17.092085, 49.190041], [17.093348, 49.189936], [17.093646, 49.193524], [17.095323, 49.201551], [17.102265, 49.205988], [17.109615, 49.209227], [17.11022, 49.209446], [17.110681, 49.20971], [17.113068, 49.211961], [17.113518, 49.212373], [17.120748, 49.215375], [17.123216, 49.214812], [17.124471, 49.214538], [17.125534, 49.214204], [17.126349, 49.214201], [17.128322, 49.216228], [17.12831, 49.216311], [17.128181, 49.217397], [17.127825, 49.217501], [17.12689, 49.217778], [17.12158, 49.220294], [17.121428, 49.220373], [17.118477, 49.222119], [17.110581, 49.224951], [17.110276, 49.22645], [17.109906, 49.228658], [17.109893, 49.228735], [17.109545, 49.229593], [17.109135, 49.230158], [17.106998, 49.231982], [17.105092, 49.23429], [17.103472, 49.23591], [17.103121, 49.236181], [17.098485, 49.243669], [17.098699, 49.245721], [17.098815, 49.246547], [17.098694, 49.247201], [17.097373, 49.250397], [17.097165, 49.250815], [17.096876, 49.251268], [17.095106, 49.256022], [17.094463, 49.257728], [17.09615, 49.265447], [17.097366, 49.267757], [17.09724, 49.268992], [17.100313, 49.274904], [17.101074, 49.278423], [17.107129, 49.284795], [17.108848, 49.283658], [17.110577, 49.282515], [17.112722, 49.276535], [17.111967, 49.274445], [17.111781, 49.273955], [17.111297, 49.273053], [17.110531, 49.271506], [17.109944, 49.270605], [17.109773, 49.270297], [17.109422, 49.26958], [17.108739, 49.268423], [17.108226, 49.26708], [17.108139, 49.266034], [17.107784, 49.264502], [17.107854, 49.263574], [17.107848, 49.262606], [17.107757, 49.261581], [17.107888, 49.260485], [17.10818, 49.259413], [17.108454, 49.258676], [17.109146, 49.255188], [17.109758, 49.253884], [17.110267, 49.253221], [17.111824, 49.250363], [17.112345, 49.247835], [17.112369, 49.247455], [17.115207, 49.245149], [17.122242, 49.246317], [17.127891, 49.244074], [17.131443, 49.243484], [17.132096, 49.245609], [17.133508, 49.248106], [17.14011, 49.250267], [17.142252, 49.24178], [17.141484, 49.241154], [17.141305, 49.23945], [17.14334, 49.236481], [17.152029, 49.236899], [17.153154, 49.236372], [17.153787, 49.236129], [17.155877, 49.235435], [17.15819, 49.234683], [17.158837, 49.234609], [17.158944, 49.234614], [17.164396, 49.239162], [17.172886, 49.23828], [17.175293, 49.235604], [17.176025, 49.236262], [17.177564, 49.237494], [17.178927, 49.238912], [17.179979, 49.240198], [17.181562, 49.242291], [17.182936, 49.243671], [17.188978, 49.246081], [17.191655, 49.23832], [17.19139, 49.237824], [17.191242, 49.237011], [17.191256, 49.236702], [17.190947, 49.234024], [17.194197, 49.232476], [17.198712, 49.235329], [17.201498, 49.237609], [17.207801, 49.242431], [17.213225, 49.247429], [17.213378, 49.247842], [17.214433, 49.256551], [17.21439, 49.257125], [17.214145, 49.259722], [17.213938, 49.261913], [17.213784, 49.262813], [17.213382, 49.264144], [17.212927, 49.265059], [17.212644, 49.265667], [17.212253, 49.266267], [17.211788, 49.266764], [17.210448, 49.26789], [17.209139, 49.270251], [17.213619, 49.276999], [17.216064, 49.276106], [17.217299, 49.279488], [17.217057, 49.284831], [17.224773, 49.287184], [17.226815, 49.288787], [17.233876, 49.283262], [17.232755, 49.280628], [17.236068, 49.279219], [17.237681, 49.282367], [17.238068, 49.282952], [17.238416, 49.283749], [17.246559, 49.287439], [17.24767, 49.285604], [17.248861, 49.283501], [17.247892, 49.275002], [17.247583, 49.274153], [17.247147, 49.273187], [17.24671, 49.271602], [17.247901, 49.270884], [17.249013, 49.270418], [17.250838, 49.27079], [17.259687, 49.269428], [17.259924, 49.269223], [17.262443, 49.267612], [17.26487, 49.270271], [17.267833, 49.27679], [17.270691, 49.277328], [17.271439, 49.277492], [17.272115, 49.277699], [17.272825, 49.277997], [17.273312, 49.278245], [17.273648, 49.278445], [17.274278, 49.27889], [17.277899, 49.281625], [17.276063, 49.284722], [17.276001, 49.284685], [17.274095, 49.283633], [17.273745, 49.283422], [17.273408, 49.283177], [17.273091, 49.282883], [17.265952, 49.282187], [17.263504, 49.284827], [17.262822, 49.292088], [17.262992, 49.292754], [17.263678, 49.294499], [17.262478, 49.296008], [17.260554, 49.29784], [17.260132, 49.298254], [17.259724, 49.298554], [17.259318, 49.298789], [17.258437, 49.299229], [17.251507, 49.294489], [17.24887, 49.294412], [17.248401, 49.294357], [17.245547, 49.293766], [17.244958, 49.293625], [17.242868, 49.293332], [17.241566, 49.293437], [17.240878, 49.293423], [17.240454, 49.293371], [17.240108, 49.293296], [17.232487, 49.297388], [17.235329, 49.304178], [17.237491, 49.305306], [17.238026, 49.305665], [17.244697, 49.306339], [17.247575, 49.304858], [17.250528, 49.306916], [17.249628, 49.308208], [17.2494, 49.308481], [17.24904, 49.308798], [17.246809, 49.310825], [17.245714, 49.311987], [17.247861, 49.320517], [17.249818, 49.320087], [17.251673, 49.319252], [17.252081, 49.319188], [17.252799, 49.319117], [17.25321, 49.319089], [17.254066, 49.319066], [17.255243, 49.318911], [17.255784, 49.318849], [17.258785, 49.317958], [17.259431, 49.317777], [17.259947, 49.317717], [17.261072, 49.317653], [17.261554, 49.317661], [17.262118, 49.317748], [17.262818, 49.317947], [17.263476, 49.318091], [17.269488, 49.318468], [17.27114, 49.318535], [17.273905, 49.318759], [17.275421, 49.318676], [17.276406, 49.318826], [17.278544, 49.318947], [17.279191, 49.318957], [17.279637, 49.319012], [17.280161, 49.319143], [17.2821, 49.31957], [17.282717, 49.319657], [17.288371, 49.312977], [17.289915, 49.312396], [17.292945, 49.313611], [17.295687, 49.316393], [17.303187, 49.319452], [17.304328, 49.31922], [17.304903, 49.31912], [17.306155, 49.318938], [17.307158, 49.318724], [17.31111, 49.311938], [17.305817, 49.307959], [17.302149, 49.305702], [17.299864, 49.305092], [17.297828, 49.297009], [17.296708, 49.296441], [17.293531, 49.294976], [17.290356, 49.293511], [17.287812, 49.29234], [17.285268, 49.291169], [17.286774, 49.287899], [17.291554, 49.288988], [17.295039, 49.291707], [17.298216, 49.293172], [17.299452, 49.293796], [17.300159, 49.294227], [17.300909, 49.294744], [17.306399, 49.295873], [17.311855, 49.291459], [17.312454, 49.290678], [17.31305, 49.290115], [17.314442, 49.288956], [17.320962, 49.286707], [17.322368, 49.290021], [17.318622, 49.29161], [17.317764, 49.298837], [17.319367, 49.301878], [17.319752, 49.302361], [17.320241, 49.303125], [17.320216, 49.304501], [17.319469, 49.305459], [17.314659, 49.311333], [17.319735, 49.315248], [17.32199, 49.315442], [17.323644, 49.315043], [17.327236, 49.314804], [17.330884, 49.309098], [17.332609, 49.307467], [17.333542, 49.307405], [17.334445, 49.308566], [17.343016, 49.309731], [17.345497, 49.308703], [17.346815, 49.30812], [17.348199, 49.307586], [17.349024, 49.30731], [17.350496, 49.306889], [17.351992, 49.306537], [17.352761, 49.30639], [17.353593, 49.306251], [17.356511, 49.30594], [17.357187, 49.305902], [17.358141, 49.305874], [17.359705, 49.305887], [17.360534, 49.305922], [17.361282, 49.305975], [17.362521, 49.306097], [17.363268, 49.306192], [17.364041, 49.306314], [17.36547, 49.306582], [17.366157, 49.306851], [17.36858, 49.307436], [17.371455, 49.307531], [17.376329, 49.301198], [17.377343, 49.29942], [17.377715, 49.299243], [17.379237, 49.299075], [17.385307, 49.298712], [17.387234, 49.299691], [17.387365, 49.299795], [17.388131, 49.300945], [17.387732, 49.301449], [17.386884, 49.302732], [17.386492, 49.307054], [17.391235, 49.310961], [17.392491, 49.310967], [17.394853, 49.310931], [17.396447, 49.310855], [17.399301, 49.310628], [17.400399, 49.310549], [17.401487, 49.3105], [17.409107, 49.308777], [17.409203, 49.308792], [17.41596, 49.31443], [17.417346, 49.315111], [17.418452, 49.315623], [17.421751, 49.316957], [17.423203, 49.317495], [17.425045, 49.318112], [17.423904, 49.321526], [17.422061, 49.320909], [17.420502, 49.320334], [17.417062, 49.318944], [17.415837, 49.318379], [17.414373, 49.317661], [17.412801, 49.316846], [17.405846, 49.314386], [17.403702, 49.314144], [17.401486, 49.3141], [17.400567, 49.314145], [17.399562, 49.314219], [17.39672, 49.314445], [17.395025, 49.314527], [17.39252, 49.314567], [17.391217, 49.314561], [17.387601, 49.314533], [17.381323, 49.316023], [17.37466, 49.314965], [17.371483, 49.315032], [17.369207, 49.315243], [17.36262, 49.316994], [17.362532, 49.317029], [17.361106, 49.316916], [17.36103, 49.316868], [17.360992, 49.316845], [17.361199, 49.313685], [17.35481, 49.309835], [17.349647, 49.316906], [17.349857, 49.318706], [17.350465, 49.320412], [17.347876, 49.321906], [17.347263, 49.322271], [17.346718, 49.322497], [17.343154, 49.330707], [17.345148, 49.333917], [17.342627, 49.336486], [17.33685, 49.334728], [17.336001, 49.334389], [17.331212, 49.333388], [17.325239, 49.329384], [17.321375, 49.330139], [17.317468, 49.335263], [17.317363, 49.335771], [17.314208, 49.342257], [17.314971, 49.345775], [17.309183, 49.349334], [17.307405, 49.350036], [17.307231, 49.350012], [17.305775, 49.348173], [17.304427, 49.346649], [17.305444, 49.343195], [17.30669, 49.339308], [17.298471, 49.336652], [17.296702, 49.338451], [17.296189, 49.33933], [17.295249, 49.340325], [17.294693, 49.341161], [17.291516, 49.342168], [17.291325, 49.341862], [17.287833, 49.337077], [17.281724, 49.331709], [17.2756, 49.330525], [17.270887, 49.336011], [17.267531, 49.336637], [17.269321, 49.345417], [17.271953, 49.345439], [17.271923, 49.349039], [17.264749, 49.350092], [17.25699, 49.351077], [17.248928, 49.348044], [17.246506, 49.34834], [17.245824, 49.348382], [17.244045, 49.34804], [17.237818, 49.348576], [17.232458, 49.351648], [17.229836, 49.349181], [17.222008, 49.346425], [17.220548, 49.34635], [17.219906, 49.346267], [17.217914, 49.345951], [17.217064, 49.34586], [17.216387, 49.345814], [17.211493, 49.344358], [17.210178, 49.344523], [17.20562, 49.352145], [17.205939, 49.352753], [17.206317, 49.354315], [17.206228, 49.355061], [17.206054, 49.356021], [17.205736, 49.356908], [17.204554, 49.359386], [17.201227, 49.358011], [17.193197, 49.358399], [17.190338, 49.36007], [17.187565, 49.361687], [17.185561, 49.363015], [17.183433, 49.364419], [17.182472, 49.364948], [17.178165, 49.372139], [17.16971, 49.375178], [17.169494, 49.37537], [17.166759, 49.374234], [17.16143, 49.370711], [17.157969, 49.378008], [17.159315, 49.380542], [17.161977, 49.382728], [17.162088, 49.384147], [17.161959, 49.386328], [17.159679, 49.386317], [17.159003, 49.386236], [17.158432, 49.386093], [17.157955, 49.385898], [17.157559, 49.385645], [17.148818, 49.386033], [17.148143, 49.393829], [17.145925, 49.397138], [17.145099, 49.402027], [17.148043, 49.410059], [17.151201, 49.409058], [17.154198, 49.408083], [17.156522, 49.406317], [17.156854, 49.406046], [17.15851, 49.406124], [17.160405, 49.407138], [17.158705, 49.410312], [17.156019, 49.411222], [17.155491, 49.411443], [17.152317, 49.412481], [17.149232, 49.413487], [17.148571, 49.421313], [17.148583, 49.421382], [17.148526, 49.422238], [17.147682, 49.424957], [17.144207, 49.425897], [17.141013, 49.422919], [17.132879, 49.424636], [17.131334, 49.427282], [17.127545, 49.433816], [17.126385, 49.435336], [17.124796, 49.443991], [17.125216, 49.445078], [17.125587, 49.446323], [17.125545, 49.447513], [17.124504, 49.447736], [17.124373, 49.447761], [17.118254, 49.452762], [17.118349, 49.454578], [17.118626, 49.456656], [17.118896, 49.457425], [17.12242, 49.462133], [17.128731, 49.460928], [17.129133, 49.46052], [17.129675, 49.460036], [17.130407, 49.459497], [17.130866, 49.459199], [17.131485, 49.458853], [17.138448, 49.464294], [17.139616, 49.46426], [17.140573, 49.464289], [17.145149, 49.464502], [17.147267, 49.464306], [17.147632, 49.464269], [17.148995, 49.46517], [17.14902, 49.465215], [17.149044, 49.465258], [17.14914, 49.46544], [17.148, 49.46785], [17.147635, 49.467887], [17.145482, 49.468087], [17.143347, 49.468285], [17.139909, 49.468619], [17.135439, 49.473217], [17.135288, 49.473724], [17.135001, 49.474437], [17.134688, 49.475042], [17.134942, 49.48249], [17.137194, 49.484488], [17.135282, 49.487539], [17.133919, 49.486684], [17.132357, 49.485697], [17.131405, 49.484997], [17.130798, 49.484449], [17.130248, 49.483823], [17.128995, 49.481611], [17.128829, 49.481018], [17.128734, 49.480472], [17.128689, 49.479968], [17.128691, 49.479411], [17.12873, 49.478993], [17.128879, 49.478262], [17.125664, 49.470817], [17.122356, 49.470468], [17.120926, 49.470609], [17.118629, 49.471531], [17.118089, 49.471702], [17.118016, 49.471713], [17.117529, 49.471525], [17.116157, 49.470406], [17.111081, 49.465611], [17.106591, 49.460358], [17.103849, 49.458383], [17.102754, 49.454953], [17.094959, 49.452937], [17.093767, 49.44954], [17.097271, 49.448311], [17.100775, 49.447081], [17.10233, 49.446415], [17.104815, 49.445436], [17.106899, 49.438292], [17.106673, 49.437582], [17.101749, 49.431462], [17.100913, 49.429606], [17.100078, 49.427749], [17.102998, 49.424702], [17.103824, 49.42447], [17.109551, 49.417763], [17.109628, 49.415902], [17.109625, 49.415465], [17.109594, 49.414916], [17.10952, 49.414287], [17.109376, 49.41351], [17.109279, 49.413107], [17.109002, 49.41225], [17.108644, 49.411362], [17.108319, 49.410691], [17.100547, 49.407683], [17.09951, 49.408178], [17.098412, 49.408811], [17.097691, 49.409273], [17.096545, 49.410091], [17.09506, 49.411151], [17.093589, 49.4122], [17.09169, 49.413584], [17.091243, 49.414057], [17.088396, 49.41956], [17.088456, 49.424177], [17.08804, 49.424608], [17.085544, 49.431621], [17.085522, 49.431729], [17.084027, 49.433249], [17.083451, 49.433149], [17.081273, 49.432762], [17.076566, 49.432661], [17.075217, 49.432022], [17.073786, 49.431196], [17.073476, 49.430814], [17.073895, 49.430114], [17.074117, 49.429801], [17.075438, 49.427997], [17.071685, 49.421026], [17.070551, 49.41814], [17.069712, 49.416373], [17.069746, 49.416093], [17.069767, 49.415954], [17.069874, 49.415826], [17.07193, 49.414878], [17.074029, 49.412962], [17.077951, 49.408761], [17.078923, 49.407766], [17.075427, 49.40009], [17.072689, 49.401079], [17.071003, 49.40165], [17.068909, 49.403496], [17.068167, 49.404532], [17.067344, 49.406253], [17.066936, 49.40676], [17.066611, 49.407027], [17.06618, 49.407273], [17.065737, 49.407447], [17.065236, 49.407593], [17.063117, 49.408902], [17.061671, 49.409857], [17.059766, 49.410712], [17.058274, 49.411967], [17.057344, 49.413211], [17.055983, 49.414743], [17.054841, 49.41389], [17.046638, 49.410952], [17.046229, 49.410929], [17.045866, 49.410882], [17.042862, 49.410403], [17.043429, 49.406848], [17.050279, 49.403254], [17.05235, 49.398141], [17.052473, 49.398013], [17.053107, 49.397366], [17.056132, 49.389051], [17.056079, 49.384319], [17.056129, 49.381626], [17.056863, 49.380805], [17.050991, 49.374071], [17.04665, 49.371679], [17.039707, 49.372104], [17.03922, 49.372309], [17.037825, 49.372945], [17.034716, 49.373429], [17.033051, 49.372992], [17.029734, 49.372281], [17.0239, 49.369712], [17.02427, 49.366131], [17.01674, 49.362591], [17.015762, 49.362528], [17.014946, 49.362305], [17.014207, 49.358782], [17.012583, 49.353549], [17.010752, 49.35045], [17.008849, 49.344276], [17.007124, 49.341116], [17.008294, 49.340097], [17.009753, 49.338881], [17.010343, 49.338471], [17.013368, 49.33642], [17.01011, 49.329121], [17.008898, 49.328001], [17.002458, 49.325502], [16.99807, 49.329167], [16.995662, 49.330118], [16.994613, 49.330586], [16.991689, 49.332373], [16.990394, 49.333388], [16.988935, 49.330056], [16.987929, 49.327645], [16.988941, 49.322167], [16.989312, 49.321933], [16.990055, 49.32159], [16.991999, 49.320482], [16.994008, 49.319456], [16.995, 49.319106], [16.995651, 49.318756], [16.996612, 49.310044], [16.994679, 49.308582], [16.992829, 49.307035], [16.990909, 49.305595], [16.983854, 49.309421], [16.98316, 49.310575], [16.983063, 49.310674], [16.982367, 49.311371], [16.979694, 49.315547], [16.979798, 49.321963], [16.97975, 49.32294], [16.97903, 49.325139], [16.978796, 49.325548], [16.977378, 49.328], [16.975611, 49.330468], [16.974414, 49.331827], [16.971993, 49.334102], [16.970349, 49.335004], [16.962771, 49.339094], [16.960752, 49.336114], [16.954019, 49.330749], [16.953036, 49.331093], [16.951789, 49.331843], [16.95132, 49.332101], [16.948997, 49.333618], [16.947029, 49.330604], [16.949352, 49.329087], [16.95003, 49.328703], [16.951178, 49.328009], [16.951619, 49.327774], [16.954123, 49.326155], [16.955013, 49.325501], [16.956044, 49.32492], [16.956607, 49.324677], [16.958427, 49.323809], [16.959998, 49.322656], [16.960816, 49.322059], [16.961607, 49.321664], [16.962127, 49.321461], [16.962864, 49.321286], [16.964686, 49.320383], [16.966536, 49.313073], [16.95969, 49.310759], [16.957012, 49.312256], [16.955424, 49.313012], [16.950197, 49.314523], [16.949519, 49.314437], [16.942313, 49.317841], [16.941138, 49.318929], [16.940439, 49.319419], [16.938951, 49.320265], [16.936641, 49.321591], [16.936226, 49.321893], [16.93489, 49.32301], [16.931804, 49.328095], [16.928207, 49.32795], [16.923454, 49.329216], [16.918444, 49.336283], [16.917393, 49.338382], [16.916802, 49.339056], [16.915734, 49.340185], [16.913119, 49.337711], [16.906554, 49.340916], [16.906175, 49.341343], [16.903991, 49.345158], [16.902769, 49.34706], [16.901809, 49.348729], [16.900849, 49.350397], [16.897729, 49.348601], [16.898689, 49.346933], [16.899649, 49.345264], [16.901128, 49.342098], [16.902493, 49.335772], [16.904216, 49.330538], [16.904704, 49.326971], [16.905511, 49.326539], [16.905888, 49.32637], [16.906326, 49.32624], [16.911391, 49.326534], [16.911941, 49.326495], [16.912112, 49.326484], [16.916654, 49.325825], [16.922227, 49.324688], [16.923465, 49.324499], [16.924435, 49.324411], [16.930359, 49.318095], [16.930341, 49.317236], [16.930741, 49.316378], [16.927021, 49.30839], [16.926046, 49.307986], [16.922163, 49.306361], [16.921234, 49.305918], [16.920186, 49.304434], [16.918991, 49.302101], [16.917298, 49.298467], [16.910688, 49.296036], [16.909639, 49.296135], [16.908491, 49.296241], [16.906837, 49.296331], [16.903067, 49.297058], [16.902079, 49.297418], [16.90121, 49.29775], [16.900829, 49.297867], [16.893539, 49.301994], [16.892168, 49.303587], [16.891737, 49.303938], [16.8913, 49.304183], [16.885032, 49.309123], [16.883561, 49.311324], [16.882906, 49.312086], [16.882492, 49.312483], [16.877955, 49.318684], [16.875735, 49.321905], [16.874446, 49.324334], [16.874245, 49.324802], [16.874014, 49.325174], [16.873197, 49.326476], [16.873071, 49.326672], [16.872498, 49.327145], [16.867383, 49.328455], [16.859202, 49.327638], [16.858372, 49.328692], [16.850354, 49.332299], [16.847543, 49.33483], [16.84665, 49.335706], [16.844418, 49.337479], [16.842179, 49.334661], [16.838525, 49.326608], [16.837207, 49.326589], [16.83611, 49.326455], [16.836383, 49.322865], [16.840725, 49.320422], [16.842595, 49.318939], [16.842969, 49.319033], [16.843246, 49.319238], [16.84831, 49.321138], [16.852905, 49.319485], [16.85361, 49.318875], [16.858329, 49.311886], [16.858618, 49.311668], [16.859552, 49.31106], [16.861673, 49.309231], [16.862851, 49.307593], [16.864791, 49.307742], [16.866987, 49.307147], [16.870502, 49.299195], [16.862872, 49.296738], [16.860511, 49.297984], [16.854059, 49.2989], [16.853561, 49.299064], [16.852658, 49.299252], [16.851814, 49.299311], [16.845119, 49.301367], [16.844681, 49.301525], [16.844131, 49.30169], [16.843569, 49.3018], [16.842322, 49.301988], [16.840087, 49.301948], [16.838222, 49.3023], [16.834072, 49.304563], [16.833333, 49.305086], [16.832836, 49.305314], [16.83237, 49.305443], [16.831949, 49.305507], [16.831198, 49.30559], [16.830585, 49.305613], [16.830029, 49.305576], [16.829096, 49.305431], [16.827711, 49.305397], [16.827169, 49.305394], [16.820329, 49.302273], [16.818034, 49.310619], [16.818628, 49.311542], [16.818765, 49.312147], [16.819728, 49.316608], [16.820967, 49.318433], [16.820828, 49.320036], [16.81956, 49.320501], [16.818474, 49.321031], [16.817568, 49.320161], [16.81702, 49.319702], [16.814387, 49.317212], [16.81249, 49.315309], [16.809409, 49.313967], [16.808924, 49.313861], [16.808521, 49.313721], [16.803362, 49.321], [16.802612, 49.321524], [16.801439, 49.32232], [16.800932, 49.322652], [16.798568, 49.323645], [16.7978, 49.323928], [16.797353, 49.324065], [16.79638, 49.324244], [16.795564, 49.324338], [16.795125, 49.324369], [16.79261, 49.32435], [16.79216, 49.324381], [16.790464, 49.324326], [16.78539, 49.325079], [16.781499, 49.332213], [16.781626, 49.333673], [16.784449, 49.340451], [16.787425, 49.341293], [16.790561, 49.343582], [16.790611, 49.347182], [16.793944, 49.351841], [16.801144, 49.350232], [16.803093, 49.349132], [16.805523, 49.347272], [16.808814, 49.346483], [16.81006, 49.345998], [16.816915, 49.345858], [16.819197, 49.345117], [16.82127, 49.344009], [16.823007, 49.347162], [16.821165, 49.348177], [16.820638, 49.348416], [16.816178, 49.351499], [16.814676, 49.351168], [16.806524, 49.354525], [16.806045, 49.363426], [16.807223, 49.363861], [16.80884, 49.364458], [16.809489, 49.364666], [16.811301, 49.36501], [16.817326, 49.362882], [16.819351, 49.361331], [16.821376, 49.359779], [16.827818, 49.363192], [16.828726, 49.363257], [16.82952, 49.363278], [16.829957, 49.363348], [16.830404, 49.36469], [16.830488, 49.365019], [16.830604, 49.366328], [16.830421, 49.36644], [16.829387, 49.366903], [16.825751, 49.368311], [16.823423, 49.376355], [16.825964, 49.377814], [16.82792, 49.378949], [16.826112, 49.382062], [16.823615, 49.382378], [16.815172, 49.380214], [16.813003, 49.381241], [16.810601, 49.37856], [16.811842, 49.373964], [16.810653, 49.370566], [16.80303, 49.369997], [16.801804, 49.369954], [16.800648, 49.369935], [16.795611, 49.37063], [16.793431, 49.371443], [16.791471, 49.372402], [16.790389, 49.372696], [16.789424, 49.371568], [16.787865, 49.369828], [16.786223, 49.36853], [16.785662, 49.367726], [16.785441, 49.360328], [16.780509, 49.356976], [16.77442, 49.3589], [16.772591, 49.360652], [16.770718, 49.364853], [16.770694, 49.364972], [16.764778, 49.368713], [16.766188, 49.377511], [16.769561, 49.379348], [16.770194, 49.381552], [16.770678, 49.384374], [16.770435, 49.387808], [16.767069, 49.389082], [16.760186, 49.384219], [16.759501, 49.383936], [16.759111, 49.383603], [16.757791, 49.382046], [16.751587, 49.375527], [16.750602, 49.375083], [16.747298, 49.373752], [16.746245, 49.373309], [16.745425, 49.372976], [16.744489, 49.372561], [16.736236, 49.373186], [16.73529, 49.373179], [16.729014, 49.372855], [16.728877, 49.372718], [16.730285, 49.37158], [16.731419, 49.370169], [16.729142, 49.361884], [16.728193, 49.361625], [16.726299, 49.360711], [16.725458, 49.360338], [16.723582, 49.359763], [16.721512, 49.359115], [16.720058, 49.358884], [16.719145, 49.358723], [16.71825, 49.358413], [16.717245, 49.357801], [16.716715, 49.357295], [16.710159, 49.363407], [16.710003, 49.363502], [16.709882, 49.363571], [16.709181, 49.363536], [16.708381, 49.363532], [16.704969, 49.365248], [16.706176, 49.372364], [16.708015, 49.373571], [16.708522, 49.374469], [16.714447, 49.379366], [16.714571, 49.379439], [16.714971, 49.380764], [16.714967, 49.382276], [16.71719, 49.388541], [16.721469, 49.389205], [16.723627, 49.391297], [16.724609, 49.392954], [16.724274, 49.392855], [16.721531, 49.392768], [16.72054, 49.401491], [16.72133, 49.401958], [16.724948, 49.403345], [16.731622, 49.408822], [16.737609, 49.411243], [16.740065, 49.413142], [16.74153, 49.414341], [16.741545, 49.414669], [16.741537, 49.414975], [16.74153, 49.415257], [16.739897, 49.416738], [16.739654, 49.416727], [16.736184, 49.416476], [16.733322, 49.416321], [16.729096, 49.416441], [16.728548, 49.416431], [16.722956, 49.416482], [16.72236, 49.416584], [16.721542, 49.416672], [16.719684, 49.416779], [16.714669, 49.4179], [16.713674, 49.41738], [16.712374, 49.416877], [16.704081, 49.418529], [16.702368, 49.423694], [16.700494, 49.43239], [16.703603, 49.43944], [16.707705, 49.440969], [16.710395, 49.442722], [16.712529, 49.443689], [16.714135, 49.444668], [16.714619, 49.445101], [16.71488, 49.445429], [16.712061, 49.447668], [16.711832, 49.447671], [16.711444, 49.447545], [16.710089, 49.44708], [16.704026, 49.444521], [16.700569, 49.443672], [16.697224, 49.439974], [16.696535, 49.439574], [16.691659, 49.437855], [16.685819, 49.442296], [16.685687, 49.442683], [16.682142, 49.443311], [16.6801, 49.442276], [16.67447, 49.43803], [16.674382, 49.437587], [16.674342, 49.437316], [16.673384, 49.434263], [16.666986, 49.429206], [16.666313, 49.429041], [16.663215, 49.428694], [16.658837, 49.429673], [16.654978, 49.435239], [16.653039, 49.435385], [16.652176, 49.435266], [16.645702, 49.434204], [16.645564, 49.434203], [16.642554, 49.43464], [16.635975, 49.438762], [16.635873, 49.446299], [16.632792, 49.448161], [16.631825, 49.454809], [16.634166, 49.457544], [16.633275, 49.45853], [16.632335, 49.459624], [16.631305, 49.465683], [16.636917, 49.470086], [16.637559, 49.470149], [16.637878, 49.470254], [16.63795, 49.470277], [16.641122, 49.47111], [16.643757, 49.471776], [16.645217, 49.47254], [16.644259, 49.478291], [16.644114, 49.480461], [16.642402, 49.481936], [16.64574, 49.489648], [16.64616, 49.49036], [16.646285, 49.49056], [16.646391, 49.493188], [16.645144, 49.493866], [16.644545, 49.494148], [16.644303, 49.494188], [16.641415, 49.494175], [16.6382, 49.494326], [16.636975, 49.494714], [16.636584, 49.4947], [16.628379, 49.494013], [16.627893, 49.497645], [16.631613, 49.505319], [16.63221, 49.505777], [16.632376, 49.505895], [16.632619, 49.507742], [16.632492, 49.508077], [16.632345, 49.50839], [16.63207, 49.508825], [16.630319, 49.508852], [16.627454, 49.507276], [16.625745, 49.506307], [16.62323, 49.50489], [16.62119, 49.503986], [16.619039, 49.502819], [16.616887, 49.501652], [16.614755, 49.500451], [16.614419, 49.500121], [16.611258, 49.498474], [16.604112, 49.503124], [16.604043, 49.503261], [16.603988, 49.503349], [16.600715, 49.509667], [16.599418, 49.509857], [16.599266, 49.509856], [16.59756, 49.509459], [16.594176, 49.508232], [16.590743, 49.508552], [16.587124, 49.514974], [16.587171, 49.515702], [16.584672, 49.516241], [16.58361, 49.516235], [16.583118, 49.515083], [16.583097, 49.514907], [16.583089, 49.514763], [16.583203, 49.513835], [16.584003, 49.512639], [16.58555, 49.509631], [16.585713, 49.50791], [16.579023, 49.502232], [16.574973, 49.501056], [16.573726, 49.500904], [16.565072, 49.501261], [16.563925, 49.501128], [16.561691, 49.500695], [16.559829, 49.499161], [16.553023, 49.494937], [16.548514, 49.491728], [16.540762, 49.491366], [16.536086, 49.494623], [16.533304, 49.496907], [16.527561, 49.499943], [16.527214, 49.504017], [16.525128, 49.506516], [16.523518, 49.508081], [16.52271, 49.508226], [16.521066, 49.508378], [16.519021, 49.508146], [16.519007, 49.508133], [16.514928, 49.500563], [16.51531, 49.496983], [16.514899, 49.489785], [16.51481, 49.485202], [16.50829, 49.47936], [16.504886, 49.480454], [16.504194, 49.480609], [16.503595, 49.480708], [16.503031, 49.48076], [16.502527, 49.480753], [16.502096, 49.480699], [16.498144, 49.480523], [16.497763, 49.48055], [16.49731, 49.480526], [16.493271, 49.480809], [16.488034, 49.484616], [16.48731, 49.484734], [16.481718, 49.484293], [16.480638, 49.480859], [16.479326, 49.475143], [16.480967, 49.471938], [16.485029, 49.465851], [16.478813, 49.461477], [16.477799, 49.461483], [16.471992, 49.465515], [16.467602, 49.469321], [16.465217, 49.472017], [16.464859, 49.471701], [16.461001, 49.469239], [16.452534, 49.470893], [16.449279, 49.469356], [16.449223, 49.463319], [16.449145, 49.463039], [16.450097, 49.459826], [16.45322, 49.459101], [16.453717, 49.458991], [16.45801, 49.453435], [16.454985, 49.449254], [16.453116, 49.446178], [16.45145, 49.44012], [16.45149, 49.43652], [16.453596, 49.436543], [16.458842, 49.429479], [16.458462, 49.428611], [16.457381, 49.426379], [16.455202, 49.421856], [16.447992, 49.418594], [16.446468, 49.419376], [16.445859, 49.419582], [16.444806, 49.419824], [16.444325, 49.419872], [16.443809, 49.419899], [16.443191, 49.419892], [16.442617, 49.419837], [16.441924, 49.419715], [16.441141, 49.419486], [16.438915, 49.418615], [16.437997, 49.418263], [16.43704, 49.417919], [16.435559, 49.417191], [16.429201, 49.419432], [16.429428, 49.425664], [16.433146, 49.428349], [16.43424, 49.428676], [16.435171, 49.429153], [16.435931, 49.429828], [16.436673, 49.430822], [16.438772, 49.433809], [16.438332, 49.435492], [16.438137, 49.437352], [16.435801, 49.438452], [16.435969, 49.446325], [16.437333, 49.447274], [16.438616, 49.447947], [16.439184, 49.448325], [16.439551, 49.448697], [16.439936, 49.449287], [16.440223, 49.450103], [16.440445, 49.450906], [16.440386, 49.451824], [16.440013, 49.452595], [16.43952, 49.453452], [16.437437, 49.454408], [16.435122, 49.451651], [16.426387, 49.450605], [16.42463, 49.447463], [16.421776, 49.442341], [16.422312, 49.440292], [16.424069, 49.436279], [16.424217, 49.435544], [16.424685, 49.434479], [16.423813, 49.426758], [16.423097, 49.425584], [16.423049, 49.424511], [16.423022, 49.424035], [16.42333, 49.422703], [16.422475, 49.418056], [16.421925, 49.417192], [16.421812, 49.416457], [16.417751, 49.41109], [16.413012, 49.411858], [16.410322, 49.418386], [16.410454, 49.419039], [16.411126, 49.421519], [16.411156, 49.422864], [16.410721, 49.425014], [16.407129, 49.425258], [16.401277, 49.422657], [16.395876, 49.429092], [16.39398, 49.432213], [16.393863, 49.432453], [16.392979, 49.432802], [16.392945, 49.432805], [16.390625, 49.430881], [16.390741, 49.430641], [16.39188, 49.42672], [16.392166, 49.426037], [16.392609, 49.424966], [16.394221, 49.42258], [16.395464, 49.421478], [16.395693, 49.421237], [16.397479, 49.417061], [16.390365, 49.412114], [16.386886, 49.41304], [16.384717, 49.410409], [16.384185, 49.405356], [16.38355, 49.404125], [16.383643, 49.402763], [16.374879, 49.401436], [16.374276, 49.407143], [16.374567, 49.407684], [16.374812, 49.408364], [16.374892, 49.409011], [16.374866, 49.409594], [16.374701, 49.41028], [16.374273, 49.411085], [16.373289, 49.412811], [16.372759, 49.414055], [16.371689, 49.414956], [16.37119, 49.415326], [16.370843, 49.415552], [16.369507, 49.414612], [16.369089, 49.412408], [16.360478, 49.412308], [16.360353, 49.41247], [16.359935, 49.418236], [16.359922, 49.421836], [16.362308, 49.427369], [16.363651, 49.43071], [16.362865, 49.431026], [16.362034, 49.431313], [16.361319, 49.431497], [16.360283, 49.431625], [16.359628, 49.431629], [16.358712, 49.43155], [16.357976, 49.431357], [16.357322, 49.431078], [16.357059, 49.430962], [16.356156, 49.430311], [16.351719, 49.428635], [16.346737, 49.432064], [16.346397, 49.432971], [16.345784, 49.435252], [16.345665, 49.436964], [16.342073, 49.436713], [16.342193, 49.435], [16.342367, 49.433338], [16.342477, 49.432747], [16.338042, 49.426257], [16.335751, 49.426289], [16.335108, 49.42639], [16.334276, 49.426415], [16.332812, 49.426209], [16.33165, 49.425756], [16.323025, 49.42534], [16.322282, 49.425547], [16.320573, 49.42592], [16.314679, 49.423102], [16.311754, 49.423375], [16.310831, 49.423538], [16.302729, 49.425853], [16.294512, 49.427761], [16.294642, 49.430815], [16.293419, 49.434201], [16.285399, 49.434836], [16.284774, 49.431291], [16.280346, 49.425323], [16.276291, 49.419473], [16.276059, 49.418829], [16.276031, 49.418239], [16.2763, 49.417372], [16.276592, 49.416968], [16.276868, 49.416674], [16.280251, 49.41777], [16.287647, 49.417699], [16.290833, 49.416024], [16.295481, 49.411933], [16.29883, 49.408703], [16.300246, 49.401771], [16.300641, 49.40122], [16.300836, 49.400998], [16.30192, 49.401311], [16.30247, 49.401429], [16.305724, 49.401177], [16.307407, 49.393781], [16.304978, 49.391954], [16.30386, 49.391513], [16.303866, 49.391283], [16.304053, 49.389943], [16.304598, 49.388793], [16.298817, 49.381961], [16.294245, 49.386506], [16.294012, 49.387255], [16.293593, 49.387874], [16.293112, 49.388309], [16.292842, 49.388491], [16.285036, 49.387085], [16.282879, 49.387415], [16.282343, 49.387428], [16.281738, 49.387392], [16.281085, 49.38729], [16.280397, 49.387128], [16.279722, 49.386902], [16.277863, 49.386061], [16.276004, 49.385219], [16.273492, 49.377585], [16.271392, 49.37466], [16.271535, 49.374558], [16.273176, 49.373431], [16.273791, 49.373057], [16.276335, 49.371906], [16.280519, 49.372131], [16.284367, 49.371596], [16.284833, 49.371469], [16.28913, 49.370298], [16.290111, 49.369946], [16.293984, 49.367641], [16.294468, 49.367291], [16.295272, 49.366915], [16.295445, 49.366843], [16.298898, 49.364542], [16.302295, 49.361636], [16.302774, 49.361263], [16.303262, 49.361052], [16.303682, 49.360966], [16.304173, 49.360961], [16.304913, 49.361161], [16.306372, 49.361544], [16.311424, 49.3612], [16.310333, 49.353281], [16.308704, 49.352212], [16.307099, 49.351517], [16.300234, 49.352014], [16.29975, 49.351987], [16.299065, 49.351918], [16.298346, 49.351861], [16.291636, 49.350388], [16.289326, 49.347626], [16.282439, 49.345165], [16.275766, 49.343267], [16.273049, 49.341987], [16.265654, 49.341069], [16.261243, 49.348207], [16.261615, 49.349903], [16.260635, 49.35113], [16.257482, 49.349393], [16.253411, 49.347245], [16.248843, 49.344419], [16.24557, 49.34388], [16.245038, 49.343935], [16.237802, 49.343677], [16.235156, 49.341236], [16.235441, 49.337365], [16.234892, 49.33565], [16.234591, 49.334891], [16.234291, 49.333894], [16.231973, 49.327023], [16.225002, 49.321691], [16.224492, 49.321614], [16.220855, 49.321769], [16.215716, 49.325995], [16.214932, 49.329491], [16.214153, 49.329238], [16.209808, 49.329437], [16.206914, 49.329203], [16.204962, 49.329929], [16.20308, 49.33692], [16.206386, 49.339352], [16.206752, 49.339629], [16.20805, 49.340799], [16.211844, 49.341922], [16.215942, 49.340935], [16.224243, 49.340049], [16.225596, 49.343385], [16.228281, 49.350597], [16.229318, 49.351281], [16.235755, 49.353157], [16.238546, 49.352952], [16.239881, 49.353076], [16.241918, 49.353362], [16.242338, 49.356938], [16.241687, 49.357014], [16.2382, 49.357586], [16.234791, 49.358744], [16.230964, 49.366633], [16.233741, 49.372196], [16.233225, 49.375759], [16.225211, 49.377742], [16.223342, 49.380548], [16.223082, 49.381054], [16.222519, 49.381794], [16.222256, 49.382042], [16.22105, 49.38139], [16.214858, 49.379437], [16.211892, 49.379575], [16.211198, 49.379652], [16.209414, 49.379927], [16.208865, 49.376369], [16.200217, 49.374559], [16.200055, 49.374369], [16.199808, 49.37394], [16.199699, 49.373699], [16.199379, 49.37291], [16.199062, 49.3723], [16.193139, 49.368036], [16.188862, 49.363675], [16.181325, 49.366349], [16.180817, 49.369731], [16.180914, 49.370605], [16.180862, 49.370978], [16.181909, 49.376257], [16.185456, 49.379586], [16.18598, 49.379897], [16.186132, 49.380023], [16.186197, 49.38235], [16.183533, 49.384771], [16.176466, 49.382593], [16.173749, 49.383114], [16.173341, 49.383192], [16.171985, 49.382453], [16.17191, 49.382341], [16.172663, 49.379656], [16.174535, 49.377042], [16.172474, 49.369087], [16.169971, 49.368095], [16.165532, 49.368698], [16.164584, 49.369131], [16.164064, 49.369192], [16.163391, 49.369125], [16.162973, 49.368986], [16.16252, 49.368751], [16.162651, 49.365153], [16.166086, 49.358104], [16.164557, 49.354845], [16.164682, 49.354741], [16.166947, 49.350567], [16.167035, 49.346968], [16.169021, 49.343098], [16.161698, 49.339061], [16.159561, 49.340757], [16.159144, 49.341138], [16.158659, 49.341447], [16.157356, 49.342073], [16.155418, 49.342953], [16.153746, 49.350928], [16.154461, 49.352358], [16.154473, 49.352489], [16.154469, 49.352559], [16.155055, 49.356632], [16.154984, 49.357093], [16.153364, 49.360308], [16.152148, 49.359696], [16.15142, 49.359083], [16.143392, 49.359761], [16.142286, 49.363085], [16.143195, 49.370602], [16.146432, 49.371327], [16.147952, 49.371796], [16.14778, 49.375391], [16.140888, 49.37784], [16.139159, 49.379178], [16.137342, 49.38058], [16.132763, 49.384517], [16.132279, 49.384936], [16.13146, 49.38527], [16.127506, 49.386242], [16.12605, 49.386575], [16.125135, 49.383093], [16.117609, 49.380634], [16.113936, 49.384777], [16.113367, 49.387624], [16.113216, 49.389525], [16.11212, 49.389948], [16.111015, 49.390103], [16.109201, 49.389882], [16.109153, 49.389843], [16.106842, 49.385971], [16.106839, 49.38346], [16.107607, 49.382697], [16.109361, 49.380565], [16.109832, 49.379696], [16.110334, 49.379107], [16.116709, 49.375868], [16.119981, 49.369654], [16.120101, 49.36907], [16.120383, 49.368301], [16.120777, 49.367014], [16.122061, 49.364714], [16.120071, 49.357761], [16.121224, 49.35435], [16.114204, 49.348901], [16.113348, 49.349572], [16.11147, 49.352112], [16.110468, 49.352807], [16.109543, 49.353279], [16.106185, 49.354575], [16.100487, 49.352005], [16.099393, 49.351977], [16.098902, 49.351872], [16.098085, 49.351489], [16.0961, 49.350631], [16.089702, 49.356331], [16.094649, 49.36123], [16.095487, 49.364731], [16.093005, 49.372013], [16.092729, 49.373486], [16.089137, 49.373245], [16.082164, 49.369336], [16.077389, 49.371306], [16.076896, 49.371333], [16.075241, 49.371302], [16.074449, 49.371239], [16.074076, 49.371192], [16.066472, 49.368778], [16.065994, 49.368595], [16.065513, 49.368339], [16.064873, 49.367763], [16.059825, 49.364632], [16.058485, 49.363498], [16.05726, 49.362106], [16.048416, 49.36129], [16.047902, 49.361824], [16.04574, 49.364463], [16.045568, 49.364822], [16.045191, 49.365616], [16.045049, 49.365842], [16.041667, 49.364605], [16.034763, 49.359971], [16.034082, 49.360181], [16.033637, 49.360278], [16.031893, 49.369084], [16.03236, 49.372654], [16.031193, 49.372807], [16.030899, 49.37283], [16.030374, 49.372809], [16.029802, 49.372684], [16.029464, 49.37255], [16.027018, 49.371413], [16.026556, 49.37119], [16.022397, 49.369921], [16.017631, 49.373095], [16.01493, 49.375475], [16.014074, 49.374504], [16.013656, 49.373884], [16.013335, 49.373006], [16.013299, 49.371954], [16.01352, 49.370963], [16.007748, 49.364356], [16.006277, 49.36446], [16.00541, 49.364674], [16.004512, 49.364767], [16.003665, 49.364836], [16.002793, 49.36489], [16.000669, 49.36498], [15.998791, 49.365086], [15.993399, 49.369052], [15.993178, 49.373097], [15.991174, 49.376089], [15.983845, 49.37738], [15.981256, 49.37932], [15.9748, 49.383346], [15.974678, 49.388402], [15.971638, 49.39033], [15.965721, 49.388161], [15.965174, 49.38765], [15.965008, 49.387415], [15.956991, 49.386414], [15.956306, 49.389948], [15.950877, 49.397075], [15.950539, 49.400483], [15.950537, 49.400503], [15.94952, 49.401568], [15.948543, 49.402101], [15.948453, 49.402091], [15.946953, 49.400162], [15.946955, 49.400142], [15.946956, 49.395367], [15.945811, 49.391954], [15.941245, 49.387146], [15.937105, 49.385384], [15.931891, 49.385606], [15.930217, 49.386195], [15.928831, 49.386644], [15.926389, 49.387467], [15.925758, 49.387644], [15.925142, 49.387791], [15.921233, 49.388669], [15.918113, 49.389664], [15.91639, 49.390172], [15.915195, 49.390499], [15.912308, 49.391154], [15.909205, 49.391755], [15.906142, 49.392348], [15.904473, 49.392711], [15.90309, 49.393046], [15.901464, 49.393481], [15.899767, 49.393971], [15.897372, 49.394756], [15.89429, 49.395833], [15.891388, 49.396893], [15.883949, 49.400218], [15.88141, 49.401523], [15.879742, 49.402558], [15.874373, 49.40746], [15.873649, 49.408068], [15.872629, 49.408701], [15.870732, 49.405641], [15.863288, 49.401927], [15.859766, 49.402554], [15.856244, 49.403182], [15.852721, 49.403809], [15.849199, 49.404437], [15.845413, 49.405109], [15.844027, 49.40536], [15.841739, 49.405703], [15.839804, 49.405963], [15.837255, 49.406267], [15.835149, 49.406451], [15.833, 49.406639], [15.831017, 49.406764], [15.829034, 49.406889], [15.828807, 49.403296]]], "type": "Polygon"}}], "metadata": {"attribution": "openrouteservice.org | OpenStreetMap contributors", "service": "isochrones", "timestamp": 1785691400139, "query": {"profile": "driving-car", "profileName": "driving-car", "locations": [[16.6106008, 49.2026006]], "range": [2700.0], "range_type": "time"}, "engine": {"version": "9.9.0", "build_date": "2026-06-12T10:08:58Z", "graph_date": "2026-07-26T12:04:00Z", "osm_date": "2026-07-20T00:00:00Z"}}}