{"type": "FeatureCollection", "bbox": [13.240196, 50.089693, 14.612777, 51.203985], "features": [{"type": "Feature", "properties": {"group_index": 0, "value": 3600.0, "center": [14.030316517992269, 50.66063773396399]}, "geometry": {"coordinates": [[[13.24108, 51.088051], [13.241926, 51.087964], [13.244285, 51.08774], [13.246631, 51.087518], [13.248976, 51.087295], [13.251322, 51.087072], [13.254207, 51.08676], [13.25668, 51.086452], [13.259099, 51.086102], [13.260574, 51.085857], [13.262169, 51.08556], [13.264329, 51.08511], [13.266599, 51.084575], [13.272947, 51.081624], [13.273434, 51.081307], [13.273898, 51.081048], [13.278544, 51.081553], [13.283136, 51.080683], [13.285063, 51.080393], [13.28704, 51.080128], [13.289617, 51.079805], [13.291911, 51.07952], [13.293583, 51.079283], [13.295007, 51.07905], [13.295693, 51.078922], [13.297039, 51.078629], [13.297645, 51.078475], [13.298713, 51.078178], [13.299674, 51.077873], [13.300494, 51.077587], [13.301209, 51.077311], [13.301924, 51.077008], [13.302754, 51.076623], [13.303504, 51.076248], [13.304229, 51.075871], [13.304754, 51.075576], [13.306571, 51.07452], [13.308411, 51.073452], [13.309357, 51.072937], [13.310255, 51.072474], [13.311226, 51.072003], [13.31274, 51.071331], [13.314553, 51.070616], [13.317022, 51.069744], [13.319429, 51.068896], [13.323471, 51.066707], [13.325876, 51.066053], [13.32779, 51.058704], [13.327494, 51.056598], [13.327489, 51.056535], [13.327455, 51.05512], [13.32835, 51.055036], [13.329276, 51.055315], [13.329355, 51.055346], [13.330486, 51.055824], [13.332748, 51.056114], [13.334674, 51.055718], [13.338607, 51.051254], [13.335647, 51.046675], [13.333642, 51.045064], [13.331706, 51.043507], [13.331162, 51.04311], [13.330656, 51.042762], [13.328445, 51.041593], [13.327274, 51.041122], [13.32672, 51.040922], [13.325711, 51.040609], [13.325097, 51.040437], [13.324143, 51.0402], [13.323419, 51.040043], [13.319443, 51.039488], [13.31623, 51.039186], [13.313016, 51.038884], [13.309891, 51.038591], [13.306765, 51.038298], [13.303639, 51.038005], [13.297146, 51.043882], [13.296775, 51.044148], [13.295444, 51.044841], [13.292014, 51.043746], [13.292292, 51.040737], [13.286322, 51.035497], [13.284987, 51.035442], [13.284435, 51.035433], [13.282624, 51.035403], [13.28074, 51.035371], [13.279922, 51.035323], [13.278413, 51.035168], [13.276904, 51.034914], [13.275583, 51.034609], [13.274388, 51.034266], [13.272689, 51.033652], [13.271869, 51.033303], [13.271145, 51.032961], [13.270387, 51.032571], [13.269645, 51.032146], [13.268865, 51.031652], [13.268105, 51.031121], [13.267182, 51.030389], [13.260122, 51.025342], [13.257743, 51.023959], [13.255365, 51.022575], [13.252984, 51.02119], [13.249526, 51.019171], [13.246067, 51.017152], [13.243131, 51.015438], [13.240196, 51.013725], [13.242011, 51.010616], [13.244947, 51.012329], [13.247882, 51.014043], [13.251341, 51.016062], [13.254799, 51.018082], [13.257175, 51.019463], [13.259554, 51.020847], [13.261932, 51.02223], [13.26431, 51.023613], [13.265281, 51.024209], [13.266211, 51.024843], [13.266625, 51.025153], [13.267102, 51.025533], [13.269555, 51.027683], [13.277709, 51.031406], [13.279001, 51.031616], [13.280281, 51.031741], [13.280943, 51.031776], [13.282683, 51.031803], [13.284495, 51.031833], [13.293124, 51.030343], [13.295766, 51.03153], [13.302837, 51.034161], [13.306353, 51.034495], [13.309869, 51.034829], [13.313382, 51.035162], [13.316224, 51.035428], [13.31978, 51.035904], [13.324061, 51.0365], [13.324903, 51.036681], [13.325961, 51.036942], [13.326678, 51.037141], [13.327785, 51.037483], [13.328484, 51.037731], [13.329785, 51.038252], [13.332446, 51.039639], [13.333177, 51.040127], [13.333822, 51.040595], [13.335896, 51.042258], [13.337901, 51.043868], [13.345378, 51.043232], [13.348805, 51.042131], [13.349634, 51.04413], [13.356627, 51.04851], [13.357916, 51.048758], [13.359269, 51.049074], [13.360241, 51.049339], [13.361203, 51.049638], [13.369462, 51.051595], [13.370383, 51.051589], [13.371092, 51.051637], [13.371763, 51.051725], [13.372139, 51.051795], [13.372811, 51.051959], [13.373683, 51.052253], [13.374481, 51.052617], [13.375011, 51.052925], [13.37551, 51.053276], [13.37602, 51.053719], [13.383644, 51.056983], [13.384667, 51.057001], [13.388715, 51.056774], [13.389852, 51.056697], [13.39323, 51.056749], [13.394494, 51.056771], [13.395703, 51.056823], [13.397308, 51.056942], [13.397951, 51.057003], [13.399763, 51.057229], [13.402106, 51.057588], [13.405059, 51.058096], [13.407126, 51.058435], [13.409186, 51.058725], [13.41109, 51.058946], [13.412569, 51.059078], [13.414494, 51.059205], [13.422138, 51.058406], [13.423776, 51.057948], [13.425944, 51.057292], [13.426801, 51.057057], [13.42838, 51.056695], [13.429142, 51.05655], [13.430152, 51.05639], [13.430874, 51.056293], [13.431871, 51.056188], [13.433236, 51.056099], [13.434056, 51.056067], [13.434839, 51.056061], [13.436233, 51.056091], [13.437003, 51.056132], [13.437883, 51.056202], [13.438748, 51.056296], [13.439907, 51.056455], [13.441242, 51.056694], [13.441862, 51.056827], [13.443025, 51.057114], [13.443792, 51.057322], [13.44597, 51.057944], [13.453755, 51.058935], [13.455415, 51.058884], [13.45935, 51.058636], [13.463344, 51.058385], [13.467338, 51.058134], [13.471332, 51.057883], [13.473343, 51.057774], [13.477631, 51.050716], [13.477636, 51.050649], [13.479383, 51.049036], [13.480552, 51.048801], [13.480928, 51.048868], [13.48142, 51.049028], [13.488513, 51.050729], [13.496142, 51.04791], [13.502496, 51.048432], [13.503127, 51.048328], [13.505524, 51.048082], [13.511036, 51.047752], [13.515483, 51.044034], [13.516515, 51.04219], [13.517071, 51.041298], [13.519601, 51.037495], [13.519704, 51.037409], [13.520816, 51.036992], [13.521127, 51.037028], [13.521794, 51.037128], [13.530685, 51.036186], [13.531427, 51.033739], [13.528491, 51.026197], [13.526195, 51.02537], [13.519873, 51.025491], [13.518492, 51.025112], [13.517674, 51.024859], [13.516429, 51.024464], [13.51614, 51.024371], [13.511346, 51.02403], [13.510889, 51.023834], [13.510197, 51.0233], [13.509774, 51.022348], [13.504891, 51.017823], [13.499006, 51.020423], [13.496428, 51.019114], [13.495762, 51.018665], [13.487631, 51.015309], [13.485831, 51.016065], [13.480821, 51.015246], [13.480758, 51.015228], [13.480311, 51.012007], [13.48049, 51.011915], [13.482609, 51.011498], [13.489206, 51.010152], [13.496414, 51.00893], [13.497508, 51.008734], [13.50011, 51.008667], [13.500205, 51.008678], [13.501709, 51.010338], [13.508489, 51.015237], [13.517003, 51.015211], [13.519512, 51.017793], [13.524238, 51.020847], [13.52833, 51.01993], [13.52887, 51.019586], [13.530994, 51.018346], [13.533129, 51.0171], [13.535693, 51.015628], [13.537485, 51.01875], [13.540089, 51.026547], [13.542935, 51.02757], [13.549432, 51.024827], [13.549525, 51.016078], [13.548963, 51.015703], [13.547863, 51.015187], [13.547229, 51.014795], [13.546963, 51.014557], [13.546625, 51.014182], [13.546296, 51.013678], [13.546103, 51.013242], [13.545645, 51.011874], [13.549058, 51.01073], [13.551455, 51.013039], [13.558908, 51.010668], [13.559249, 51.010226], [13.560208, 51.009131], [13.561726, 51.007396], [13.56343, 51.005388], [13.564093, 51.004385], [13.564493, 51.00403], [13.566584, 51.002032], [13.570799, 50.998839], [13.571247, 50.998745], [13.571733, 50.998833], [13.571836, 50.998884], [13.572282, 50.999187], [13.579587, 51.001833], [13.581254, 51.00174], [13.581665, 51.00169], [13.583403, 51.001452], [13.590246, 50.996634], [13.590374, 50.996546], [13.591546, 50.996209], [13.591648, 50.996227], [13.597445, 50.995976], [13.599038, 50.995695], [13.600249, 50.996093], [13.608649, 50.99823], [13.609693, 50.996955], [13.61002, 50.997105], [13.610619, 50.997463], [13.611983, 50.998216], [13.613232, 50.998697], [13.619459, 51.001265], [13.620352, 51.001359], [13.623014, 51.001687], [13.626952, 51.003884], [13.627052, 51.003896], [13.627306, 51.003919], [13.627363, 51.003924], [13.627599, 51.00394], [13.627721, 51.003948], [13.62817, 51.003979], [13.628242, 51.003984], [13.628282, 51.003986], [13.628331, 51.00399], [13.628379, 51.003994], [13.628694, 51.004052], [13.628749, 51.004064], [13.628999, 51.004116], [13.629143, 51.004145], [13.629379, 51.004193], [13.629468, 51.004211], [13.629826, 51.004286], [13.629845, 51.00429], [13.629973, 51.004316], [13.630227, 51.004369], [13.63039, 51.004403], [13.630557, 51.004435], [13.630653, 51.004454], [13.631146, 51.004537], [13.633239, 51.004459], [13.636143, 50.996238], [13.634291, 50.994741], [13.632355, 50.994147], [13.632348, 50.994138], [13.628008, 50.991804], [13.627512, 50.988238], [13.62189, 50.982225], [13.615648, 50.983806], [13.614952, 50.983871], [13.610967, 50.984652], [13.610356, 50.984777], [13.608222, 50.985096], [13.607678, 50.985141], [13.601145, 50.98511], [13.599842, 50.985246], [13.599468, 50.981666], [13.60077, 50.98153], [13.607609, 50.981542], [13.611557, 50.980572], [13.616293, 50.977755], [13.620122, 50.974576], [13.621628, 50.973014], [13.623154, 50.964285], [13.622587, 50.963706], [13.622271, 50.963386], [13.621703, 50.962762], [13.628709, 50.960731], [13.629427, 50.96048], [13.631392, 50.95992], [13.635619, 50.957561], [13.63883, 50.955431], [13.640032, 50.954058], [13.640771, 50.954331], [13.642781, 50.956378], [13.650293, 50.952381], [13.651393, 50.950936], [13.652109, 50.950308], [13.652569, 50.950055], [13.65491, 50.948598], [13.653149, 50.940617], [13.647854, 50.939482], [13.647372, 50.939504], [13.647332, 50.939504], [13.646918, 50.939519], [13.646196, 50.939421], [13.645529, 50.939245], [13.638793, 50.939831], [13.634351, 50.947065], [13.630838, 50.947855], [13.626506, 50.945698], [13.625084, 50.94239], [13.620513, 50.934763], [13.619666, 50.935029], [13.619109, 50.935153], [13.617697, 50.935307], [13.616753, 50.935403], [13.615725, 50.935467], [13.613629, 50.935436], [13.613683, 50.931836], [13.617986, 50.931475], [13.620909, 50.930623], [13.62584, 50.924064], [13.626773, 50.923925], [13.627615, 50.923879], [13.629413, 50.923605], [13.634257, 50.922347], [13.63758, 50.917627], [13.637715, 50.917065], [13.639156, 50.916236], [13.639417, 50.916248], [13.647266, 50.915426], [13.647824, 50.915558], [13.647877, 50.915582], [13.655429, 50.919271], [13.658714, 50.918315], [13.662263, 50.910513], [13.661556, 50.906983], [13.660883, 50.900482], [13.658135, 50.898324], [13.652542, 50.897044], [13.651601, 50.896362], [13.65001, 50.895254], [13.648963, 50.894552], [13.650968, 50.891562], [13.652015, 50.892263], [13.660092, 50.890694], [13.662262, 50.886399], [13.662386, 50.886297], [13.667823, 50.88406], [13.668157, 50.883904], [13.669952, 50.883325], [13.67446, 50.880638], [13.676498, 50.880518], [13.677066, 50.881079], [13.677184, 50.881425], [13.676937, 50.88325], [13.683495, 50.889226], [13.684542, 50.888749], [13.687363, 50.884258], [13.685872, 50.875517], [13.684287, 50.875198], [13.680371, 50.871102], [13.67911, 50.867731], [13.681881, 50.865848], [13.683748, 50.859834], [13.68427, 50.855859], [13.685721, 50.85378], [13.686682, 50.846578], [13.687004, 50.845377], [13.686912, 50.842999], [13.67821, 50.842001], [13.672201, 50.846021], [13.671614, 50.846724], [13.671444, 50.846933], [13.668315, 50.84954], [13.666579, 50.850361], [13.666436, 50.850331], [13.666412, 50.850325], [13.665188, 50.847758], [13.664739, 50.8443], [13.665092, 50.842457], [13.665099, 50.842451], [13.669977, 50.837285], [13.669289, 50.832474], [13.664482, 50.829778], [13.661774, 50.829049], [13.660924, 50.828979], [13.654151, 50.824204], [13.651768, 50.826903], [13.651069, 50.826286], [13.64984, 50.824879], [13.64776, 50.82263], [13.640359, 50.82015], [13.634317, 50.821091], [13.633903, 50.821076], [13.626989, 50.818235], [13.622918, 50.818242], [13.622019, 50.816911], [13.618595, 50.810387], [13.613599, 50.804099], [13.612761, 50.800598], [13.612377, 50.792342], [13.612809, 50.791462], [13.612064, 50.783908], [13.611379, 50.783089], [13.610924, 50.782506], [13.606711, 50.779941], [13.600665, 50.781336], [13.599436, 50.790105], [13.599307, 50.793703], [13.593919, 50.798734], [13.590557, 50.798051], [13.587251, 50.797633], [13.585846, 50.797425], [13.585116, 50.79728], [13.579408, 50.796608], [13.578236, 50.796005], [13.569799, 50.798962], [13.563101, 50.803798], [13.555912, 50.803089], [13.548427, 50.803191], [13.547748, 50.803202], [13.539117, 50.803381], [13.538944, 50.803374], [13.537766, 50.802244], [13.537332, 50.801648], [13.537169, 50.801287], [13.535856, 50.79733], [13.536814, 50.796404], [13.538317, 50.794914], [13.538625, 50.794636], [13.538988, 50.794369], [13.542078, 50.786734], [13.541852, 50.785709], [13.541832, 50.785158], [13.541741, 50.783084], [13.544677, 50.782002], [13.548966, 50.780332], [13.551178, 50.780096], [13.551268, 50.780151], [13.551835, 50.782507], [13.551674, 50.782719], [13.557904, 50.789185], [13.560889, 50.784679], [13.561203, 50.783817], [13.561497, 50.783448], [13.563555, 50.778803], [13.563789, 50.778168], [13.566364, 50.774885], [13.567271, 50.773428], [13.567469, 50.773178], [13.574779, 50.769274], [13.575539, 50.769329], [13.578886, 50.768928], [13.583629, 50.767972], [13.584468, 50.767545], [13.586365, 50.770605], [13.593729, 50.76952], [13.595693, 50.768133], [13.595891, 50.767978], [13.596282, 50.767648], [13.596895, 50.767209], [13.598872, 50.765637], [13.601113, 50.768455], [13.604615, 50.771625], [13.610304, 50.770784], [13.61036, 50.770755], [13.610608, 50.770705], [13.610818, 50.770717], [13.617139, 50.768233], [13.619613, 50.763079], [13.619527, 50.761123], [13.611814, 50.758447], [13.61096, 50.759103], [13.609725, 50.757902], [13.608436, 50.756593], [13.606279, 50.751532], [13.605836, 50.751075], [13.605704, 50.748643], [13.606115, 50.747934], [13.604825, 50.73925], [13.598116, 50.736996], [13.597544, 50.737057], [13.597164, 50.737057], [13.590173, 50.742509], [13.589898, 50.743871], [13.588942, 50.745512], [13.588554, 50.7459], [13.587577, 50.746642], [13.586733, 50.746913], [13.582309, 50.748316], [13.581968, 50.748472], [13.581283, 50.748705], [13.580624, 50.748842], [13.580159, 50.748891], [13.579446, 50.748926], [13.578501, 50.748999], [13.578224, 50.74541], [13.575205, 50.737334], [13.573006, 50.737047], [13.567734, 50.737497], [13.567474, 50.73754], [13.567408, 50.737538], [13.567221, 50.737524], [13.565108, 50.737155], [13.564523, 50.737061], [13.555988, 50.739527], [13.555204, 50.740048], [13.551237, 50.739617], [13.547063, 50.739377], [13.546841, 50.735784], [13.547995, 50.735713], [13.551566, 50.734079], [13.552585, 50.733655], [13.557904, 50.732476], [13.558052, 50.732397], [13.559386, 50.732362], [13.560673, 50.732829], [13.56436, 50.733206], [13.567092, 50.733685], [13.568008, 50.733719], [13.572801, 50.733453], [13.573866, 50.733419], [13.574362, 50.733419], [13.577415, 50.733468], [13.578103, 50.733544], [13.579062, 50.733554], [13.583744, 50.731784], [13.586168, 50.724298], [13.585666, 50.720733], [13.585415, 50.712871], [13.580768, 50.711738], [13.575782, 50.713972], [13.575747, 50.713997], [13.573328, 50.713673], [13.570986, 50.71335], [13.570478, 50.713305], [13.562248, 50.716007], [13.561894, 50.716151], [13.561546, 50.716261], [13.560475, 50.716474], [13.560003, 50.716592], [13.559568, 50.716675], [13.558011, 50.716695], [13.556766, 50.716555], [13.549151, 50.720105], [13.547915, 50.723486], [13.547594, 50.723369], [13.546989, 50.723103], [13.546197, 50.722692], [13.545611, 50.722309], [13.543184, 50.721371], [13.54276, 50.721284], [13.542191, 50.721119], [13.541425, 50.720816], [13.54104, 50.72064], [13.535418, 50.727554], [13.535442, 50.727943], [13.535221, 50.728963], [13.535276, 50.732158], [13.535278, 50.732796], [13.535016, 50.733553], [13.534659, 50.734454], [13.534046, 50.735085], [13.53365, 50.73544], [13.531435, 50.736012], [13.531365, 50.735884], [13.526816, 50.730623], [13.518994, 50.730094], [13.517537, 50.730726], [13.516892, 50.730981], [13.516222, 50.730759], [13.515375, 50.730166], [13.515358, 50.730144], [13.515456, 50.727788], [13.515747, 50.727582], [13.516041, 50.727365], [13.516469, 50.72711], [13.519052, 50.720579], [13.516054, 50.71776], [13.515637, 50.71761], [13.514134, 50.717372], [13.513749, 50.717343], [13.513016, 50.717233], [13.512331, 50.717069], [13.511713, 50.71684], [13.511562, 50.716757], [13.511978, 50.708674], [13.510926, 50.705231], [13.507757, 50.697502], [13.50842, 50.693964], [13.511715, 50.694582], [13.512228, 50.694698], [13.514683, 50.695374], [13.515687, 50.695619], [13.519147, 50.696399], [13.521271, 50.697982], [13.52953, 50.701025], [13.535577, 50.69897], [13.540245, 50.693233], [13.540557, 50.692665], [13.546258, 50.685721], [13.544544, 50.682649], [13.541909, 50.680197], [13.542854, 50.677872], [13.545431, 50.676662], [13.544525, 50.668143], [13.543456, 50.66787], [13.542242, 50.667483], [13.540735, 50.666956], [13.5373, 50.665847], [13.535445, 50.665226], [13.533697, 50.664686], [13.53269, 50.664405], [13.531028, 50.663864], [13.528747, 50.663151], [13.527735, 50.65449], [13.527437, 50.654001], [13.527251, 50.653398], [13.527231, 50.652611], [13.527459, 50.65184], [13.527944, 50.651134], [13.528289, 50.650808], [13.52987, 50.649647], [13.530813, 50.648952], [13.532827, 50.647524], [13.533875, 50.64693], [13.536081, 50.645832], [13.53718, 50.644772], [13.534524, 50.636325], [13.533528, 50.636207], [13.531541, 50.635846], [13.527723, 50.635149], [13.524581, 50.634566], [13.521984, 50.634809], [13.520538, 50.63496], [13.518092, 50.635189], [13.516204, 50.635349], [13.515288, 50.635293], [13.513155, 50.634686], [13.509323, 50.634123], [13.508332, 50.634097], [13.507777, 50.634103], [13.502771, 50.634643], [13.499341, 50.635737], [13.491404, 50.639218], [13.490867, 50.639845], [13.489094, 50.642758], [13.487599, 50.6435], [13.481619, 50.649878], [13.478031, 50.649586], [13.478133, 50.648332], [13.477453, 50.639675], [13.477403, 50.639397], [13.477679, 50.638704], [13.480648, 50.63527], [13.481015, 50.627699], [13.479524, 50.626093], [13.477655, 50.617572], [13.472427, 50.611098], [13.474475, 50.608137], [13.476098, 50.60926], [13.477207, 50.609885], [13.478973, 50.610569], [13.479296, 50.610714], [13.479628, 50.610901], [13.480011, 50.6112], [13.480322, 50.611539], [13.481485, 50.613383], [13.483282, 50.615355], [13.484039, 50.61595], [13.485259, 50.616855], [13.492451, 50.618228], [13.498338, 50.613242], [13.500528, 50.610384], [13.500587, 50.61034], [13.503703, 50.61056], [13.506313, 50.610722], [13.508942, 50.610885], [13.512741, 50.603613], [13.511798, 50.601592], [13.511673, 50.600611], [13.511411, 50.599214], [13.505566, 50.593319], [13.502682, 50.592453], [13.501349, 50.59216], [13.500444, 50.591979], [13.495177, 50.59239], [13.494031, 50.592697], [13.487648, 50.594017], [13.486889, 50.594367], [13.485776, 50.594925], [13.484849, 50.594718], [13.484465, 50.594441], [13.482675, 50.590262], [13.482675, 50.589925], [13.483445, 50.588161], [13.484409, 50.588126], [13.493163, 50.586593], [13.49667, 50.585921], [13.498051, 50.585721], [13.499005, 50.585645], [13.502013, 50.585185], [13.50239, 50.585129], [13.503024, 50.585138], [13.503554, 50.585261], [13.50473, 50.586548], [13.509438, 50.588704], [13.509933, 50.58881], [13.515817, 50.588392], [13.520336, 50.581377], [13.517657, 50.577756], [13.517339, 50.577477], [13.516902, 50.576828], [13.515201, 50.574653], [13.514662, 50.574008], [13.51451, 50.573709], [13.509988, 50.566055], [13.509434, 50.56598], [13.508532, 50.565426], [13.506675, 50.564205], [13.506002, 50.563585], [13.505299, 50.562637], [13.504504, 50.560863], [13.498111, 50.556908], [13.498015, 50.55687], [13.496916, 50.554898], [13.49135, 50.548035], [13.489859, 50.546628], [13.488438, 50.545662], [13.479702, 50.546155], [13.47373, 50.551695], [13.47341, 50.552119], [13.473074, 50.552451], [13.47086, 50.551809], [13.470069, 50.551369], [13.469499, 50.550734], [13.469231, 50.549533], [13.46511, 50.542292], [13.460874, 50.54282], [13.455257, 50.546639], [13.453014, 50.548934], [13.451532, 50.550976], [13.450609, 50.552657], [13.450365, 50.553071], [13.449725, 50.553727], [13.445235, 50.558419], [13.444768, 50.558076], [13.444302, 50.557586], [13.443982, 50.556983], [13.443818, 50.556316], [13.436718, 50.551202], [13.435758, 50.551439], [13.43196, 50.553502], [13.424832, 50.549831], [13.421485, 50.548505], [13.421634, 50.548127], [13.421843, 50.54771], [13.422317, 50.54708], [13.423005, 50.546398], [13.423454, 50.546069], [13.423874, 50.545855], [13.424373, 50.545679], [13.424839, 50.545566], [13.425397, 50.545479], [13.427623, 50.544915], [13.428247, 50.544565], [13.429754, 50.536313], [13.422465, 50.534917], [13.417364, 50.538617], [13.416044, 50.539538], [13.415365, 50.53999], [13.41488, 50.540022], [13.414517, 50.540013], [13.411715, 50.538456], [13.410854, 50.537026], [13.410856, 50.536855], [13.414997, 50.530567], [13.415085, 50.530211], [13.415266, 50.529769], [13.41646, 50.526455], [13.416591, 50.525651], [13.417012, 50.524727], [13.415992, 50.517929], [13.410258, 50.518286], [13.408888, 50.51862], [13.407916, 50.518792], [13.407045, 50.515299], [13.410583, 50.509616], [13.411552, 50.502524], [13.402751, 50.500852], [13.402067, 50.502012], [13.401696, 50.502699], [13.401071, 50.503479], [13.400742, 50.503824], [13.400269, 50.504157], [13.399839, 50.50434], [13.398715, 50.504667], [13.397614, 50.505053], [13.395741, 50.50611], [13.395375, 50.50627], [13.394871, 50.506435], [13.393559, 50.506838], [13.392543, 50.507112], [13.392086, 50.507183], [13.391431, 50.507241], [13.390972, 50.507298], [13.389503, 50.507536], [13.388458, 50.507614], [13.386788, 50.507815], [13.386066, 50.507862], [13.385831, 50.50427], [13.386552, 50.504223], [13.388022, 50.504041], [13.389228, 50.503947], [13.390378, 50.503747], [13.390981, 50.50367], [13.392587, 50.503372], [13.393812, 50.502994], [13.395838, 50.501921], [13.396219, 50.501731], [13.399403, 50.498982], [13.40059, 50.497741], [13.401025, 50.497233], [13.401589, 50.496719], [13.402152, 50.496284], [13.40277, 50.495879], [13.403067, 50.495714], [13.403577, 50.495497], [13.405935, 50.493724], [13.406574, 50.493005], [13.407116, 50.492715], [13.407477, 50.492581], [13.407873, 50.492484], [13.409686, 50.492297], [13.415623, 50.487322], [13.413872, 50.48021], [13.407024, 50.479611], [13.405578, 50.479272], [13.405482, 50.479255], [13.397637, 50.48279], [13.397288, 50.483329], [13.396454, 50.483961], [13.394502, 50.485844], [13.392344, 50.486064], [13.390005, 50.486578], [13.389232, 50.483062], [13.38445, 50.478364], [13.379124, 50.477567], [13.377488, 50.474361], [13.381165, 50.471602], [13.382794, 50.470673], [13.388252, 50.465658], [13.38421, 50.459668], [13.380542, 50.460217], [13.379302, 50.459804], [13.378465, 50.459415], [13.377222, 50.458705], [13.376779, 50.458374], [13.376018, 50.457663], [13.375966, 50.457542], [13.378294, 50.454874], [13.382434, 50.453616], [13.384056, 50.453355], [13.38427, 50.453409], [13.386065, 50.456066], [13.393872, 50.456196], [13.395167, 50.455956], [13.397291, 50.45599], [13.397865, 50.456011], [13.406506, 50.456078], [13.407818, 50.455587], [13.414237, 50.452563], [13.416326, 50.450923], [13.422384, 50.445459], [13.422573, 50.445284], [13.424174, 50.444822], [13.430446, 50.444948], [13.430532, 50.444954], [13.4339, 50.448867], [13.4396, 50.448866], [13.442872, 50.447661], [13.444832, 50.446768], [13.44539, 50.446567], [13.446294, 50.446228], [13.449377, 50.444247], [13.45247, 50.436811], [13.453618, 50.436093], [13.455845, 50.435558], [13.463316, 50.436367], [13.464925, 50.439587], [13.465022, 50.44751], [13.46735, 50.450184], [13.467841, 50.450727], [13.468588, 50.451552], [13.469285, 50.45239], [13.469868, 50.45322], [13.47775, 50.455558], [13.482593, 50.448302], [13.485346, 50.445983], [13.487403, 50.448425], [13.494468, 50.450088], [13.496724, 50.449187], [13.49902, 50.44827], [13.501023, 50.447524], [13.506551, 50.452992], [13.511857, 50.453224], [13.514395, 50.454499], [13.5183, 50.455846], [13.525302, 50.450311], [13.525509, 50.446717], [13.526596, 50.44678], [13.528172, 50.446985], [13.531609, 50.447606], [13.532347, 50.447826], [13.532954, 50.448052], [13.53384, 50.448332], [13.536584, 50.449698], [13.544494, 50.449771], [13.546567, 50.447224], [13.547083, 50.446626], [13.547346, 50.446379], [13.54777, 50.446052], [13.548229, 50.44576], [13.548678, 50.445509], [13.552437, 50.43756], [13.551449, 50.435249], [13.546292, 50.430938], [13.540536, 50.429593], [13.53908, 50.429748], [13.537732, 50.429846], [13.537471, 50.426256], [13.541062, 50.421848], [13.544265, 50.420206], [13.545109, 50.421852], [13.546314, 50.423893], [13.551114, 50.428935], [13.551797, 50.429298], [13.552527, 50.429932], [13.553714, 50.431918], [13.554594, 50.433498], [13.555742, 50.436134], [13.556103, 50.437282], [13.556333, 50.438779], [13.563668, 50.443589], [13.564659, 50.44344], [13.572597, 50.444523], [13.573212, 50.444616], [13.579523, 50.444742], [13.580111, 50.444671], [13.581358, 50.444407], [13.583964, 50.444957], [13.587546, 50.43784], [13.585907, 50.435386], [13.584268, 50.432933], [13.582629, 50.430479], [13.580979, 50.428009], [13.573943, 50.425984], [13.5718, 50.426626], [13.570479, 50.423277], [13.572926, 50.41579], [13.569749, 50.411272], [13.569077, 50.410772], [13.567528, 50.40941], [13.566794, 50.408865], [13.560628, 50.405452], [13.557985, 50.406417], [13.556694, 50.40734], [13.556277, 50.407573], [13.555883, 50.407738], [13.555287, 50.407933], [13.554047, 50.408353], [13.551312, 50.406013], [13.553428, 50.397979], [13.552464, 50.394511], [13.546308, 50.388245], [13.545343, 50.388534], [13.544471, 50.388853], [13.54264, 50.389607], [13.540818, 50.390163], [13.537288, 50.391947], [13.533759, 50.393732], [13.53023, 50.395517], [13.5267, 50.397301], [13.523171, 50.399086], [13.519248, 50.40107], [13.517778, 50.401813], [13.516154, 50.398601], [13.517623, 50.397858], [13.521547, 50.395874], [13.525076, 50.394089], [13.532289, 50.389916], [13.535467, 50.38831], [13.538646, 50.386704], [13.541444, 50.385895], [13.54232, 50.385528], [13.543607, 50.385046], [13.545874, 50.384308], [13.547304, 50.375691], [13.547234, 50.37561], [13.5469, 50.375025], [13.54569, 50.373411], [13.548108, 50.370744], [13.548881, 50.371444], [13.549369, 50.371937], [13.54974, 50.372361], [13.550364, 50.373248], [13.551871, 50.375758], [13.559204, 50.379303], [13.563041, 50.378373], [13.563584, 50.378197], [13.563922, 50.378122], [13.564276, 50.378067], [13.564829, 50.378023], [13.565074, 50.37804], [13.568674, 50.378092], [13.573337, 50.372174], [13.573152, 50.368579], [13.578023, 50.36116], [13.57613, 50.358098], [13.56992, 50.352638], [13.567073, 50.35136], [13.56791, 50.347859], [13.570694, 50.346345], [13.572065, 50.346645], [13.5776, 50.349574], [13.583539, 50.354604], [13.585405, 50.354982], [13.585993, 50.355098], [13.594627, 50.355198], [13.597462, 50.353158], [13.597758, 50.352886], [13.59848, 50.35214], [13.601067, 50.354644], [13.602218, 50.36137], [13.610398, 50.357989], [13.610268, 50.35683], [13.610386, 50.355864], [13.610837, 50.35461], [13.611852, 50.348977], [13.611795, 50.348588], [13.615356, 50.348061], [13.615611, 50.348447], [13.616014, 50.349215], [13.619582, 50.353949], [13.626088, 50.359858], [13.627746, 50.360503], [13.630628, 50.361764], [13.635173, 50.361857], [13.637127, 50.361608], [13.64344, 50.355539], [13.640137, 50.347399], [13.639018, 50.346908], [13.636024, 50.346439], [13.63555, 50.346324], [13.636395, 50.342825], [13.638008, 50.341772], [13.641902, 50.341589], [13.649642, 50.34063], [13.651453, 50.341543], [13.652391, 50.342328], [13.659995, 50.342471], [13.666284, 50.336848], [13.660051, 50.330426], [13.6597, 50.33042], [13.659262, 50.330415], [13.65909, 50.330363], [13.656912, 50.329918], [13.65761, 50.326386], [13.659763, 50.326821], [13.66098, 50.32675], [13.665806, 50.324506], [13.669406, 50.324528], [13.672981, 50.323093], [13.669785, 50.315029], [13.668464, 50.314896], [13.667532, 50.314769], [13.66673, 50.314632], [13.664412, 50.314173], [13.663629, 50.314033], [13.662566, 50.313985], [13.661051, 50.314064], [13.660091, 50.314095], [13.65908, 50.314087], [13.658692, 50.314062], [13.658319, 50.314014], [13.657888, 50.313936], [13.657184, 50.313771], [13.655645, 50.313342], [13.654482, 50.312963], [13.651668, 50.312509], [13.649858, 50.312576], [13.646883, 50.312456], [13.640538, 50.311088], [13.636979, 50.310878], [13.63719, 50.307285], [13.64073, 50.305034], [13.642521, 50.305567], [13.650078, 50.305941], [13.650388, 50.305935], [13.651662, 50.307537], [13.653407, 50.308721], [13.655745, 50.309592], [13.656756, 50.309918], [13.658146, 50.310301], [13.659263, 50.310491], [13.660113, 50.310495], [13.66093, 50.310466], [13.662378, 50.31039], [13.663041, 50.310381], [13.663709, 50.310418], [13.664076, 50.310461], [13.665035, 50.310627], [13.667429, 50.3111], [13.668137, 50.31122], [13.668947, 50.311329], [13.670142, 50.311447], [13.672895, 50.311691], [13.678715, 50.305765], [13.674349, 50.30137], [13.672183, 50.301143], [13.671545, 50.300976], [13.669883, 50.300898], [13.669627, 50.300851], [13.667415, 50.300493], [13.665418, 50.300157], [13.662389, 50.300035], [13.662534, 50.296438], [13.668923, 50.293246], [13.670917, 50.290248], [13.67287, 50.291547], [13.681301, 50.294124], [13.68204, 50.294], [13.682416, 50.294007], [13.685797, 50.29405], [13.690938, 50.294602], [13.691094, 50.298199], [13.68835, 50.298318], [13.683846, 50.300939], [13.684017, 50.307894], [13.686123, 50.309692], [13.686634, 50.309986], [13.687231, 50.310541], [13.693322, 50.312679], [13.694369, 50.312601], [13.695176, 50.312576], [13.696663, 50.312659], [13.698212, 50.312823], [13.704277, 50.307436], [13.705212, 50.306254], [13.706832, 50.30429], [13.707218, 50.30389], [13.709359, 50.301673], [13.711008, 50.299879], [13.711741, 50.299211], [13.714841, 50.296909], [13.716631, 50.296027], [13.718221, 50.299257], [13.716432, 50.300138], [13.713911, 50.302083], [13.713459, 50.302516], [13.712015, 50.304103], [13.7107, 50.307212], [13.71482, 50.314937], [13.716435, 50.315447], [13.718037, 50.316024], [13.720931, 50.317293], [13.72355, 50.318358], [13.724199, 50.318656], [13.724784, 50.318953], [13.725484, 50.319371], [13.727025, 50.320388], [13.727774, 50.320747], [13.728129, 50.32088], [13.729307, 50.32123], [13.732398, 50.322064], [13.736094, 50.315248], [13.733313, 50.311989], [13.732714, 50.3116], [13.732091, 50.310894], [13.730312, 50.309351], [13.727751, 50.308278], [13.727479, 50.307701], [13.726874, 50.306366], [13.726639, 50.305613], [13.727414, 50.304072], [13.731596, 50.300691], [13.729436, 50.292853], [13.728817, 50.290652], [13.728953, 50.286979], [13.729215, 50.28677], [13.729883, 50.286326], [13.730072, 50.286207], [13.732932, 50.28673], [13.734981, 50.290638], [13.741465, 50.292767], [13.747963, 50.288127], [13.74851, 50.288128], [13.754256, 50.288402], [13.761506, 50.289823], [13.765095, 50.289539], [13.772617, 50.29171], [13.780499, 50.290639], [13.78067, 50.290607], [13.784869, 50.290372], [13.784888, 50.29055], [13.784508, 50.294058], [13.781274, 50.298303], [13.777646, 50.298926], [13.776661, 50.299291], [13.775697, 50.299439], [13.769713, 50.305885], [13.769785, 50.307812], [13.769775, 50.307946], [13.768547, 50.309291], [13.761432, 50.312219], [13.759598, 50.317592], [13.759433, 50.318496], [13.759141, 50.318981], [13.758695, 50.319394], [13.758074, 50.319698], [13.754721, 50.327174], [13.7592, 50.330026], [13.759522, 50.330084], [13.759707, 50.333679], [13.759585, 50.336207], [13.766331, 50.341497], [13.77002, 50.344877], [13.77096, 50.34571], [13.774862, 50.347376], [13.782133, 50.342766], [13.782403, 50.341914], [13.782712, 50.341136], [13.783116, 50.340368], [13.785008, 50.337394], [13.786116, 50.334707], [13.786845, 50.332943], [13.787585, 50.331153], [13.788027, 50.330148], [13.788534, 50.329414], [13.789155, 50.32857], [13.791368, 50.325167], [13.791629, 50.324689], [13.792336, 50.323597], [13.794265, 50.316366], [13.794208, 50.309519], [13.798598, 50.302908], [13.797642, 50.298411], [13.794362, 50.294393], [13.796166, 50.291277], [13.798846, 50.291738], [13.801438, 50.292839], [13.801555, 50.297954], [13.805894, 50.301181], [13.80998, 50.307337], [13.813562, 50.311451], [13.814572, 50.311693], [13.815839, 50.312031], [13.816385, 50.312148], [13.820591, 50.304204], [13.819888, 50.303587], [13.819671, 50.303306], [13.822517, 50.301102], [13.825285, 50.302081], [13.827329, 50.3027], [13.831133, 50.302969], [13.831262, 50.302994], [13.839484, 50.305853], [13.841254, 50.298631], [13.841281, 50.298457], [13.841156, 50.291993], [13.844576, 50.290868], [13.84526, 50.292949], [13.845944, 50.295029], [13.846055, 50.295467], [13.853931, 50.298531], [13.855274, 50.296794], [13.856122, 50.295787], [13.856918, 50.294944], [13.857145, 50.294677], [13.858013, 50.29342], [13.865492, 50.290811], [13.868516, 50.289849], [13.871795, 50.289438], [13.875537, 50.290821], [13.882664, 50.286401], [13.889681, 50.285415], [13.89132, 50.285738], [13.893472, 50.286033], [13.899935, 50.28265], [13.907043, 50.279941], [13.911641, 50.278068], [13.915224, 50.277714], [13.923431, 50.274853], [13.924795, 50.273586], [13.925298, 50.273534], [13.925694, 50.273675], [13.92692, 50.274549], [13.934772, 50.277698], [13.934675, 50.281296], [13.941614, 50.284338], [13.942617, 50.283964], [13.94377, 50.283495], [13.948144, 50.275887], [13.948461, 50.272301], [13.951623, 50.272581], [13.956537, 50.272412], [13.956929, 50.272366], [13.957573, 50.272323], [13.959357, 50.272321], [13.960244, 50.272417], [13.966312, 50.276086], [13.972251, 50.276647], [13.976265, 50.276345], [13.980601, 50.270827], [13.984845, 50.266214], [13.985258, 50.266184], [13.985868, 50.266169], [13.98651, 50.266213], [13.987693, 50.266347], [13.988875, 50.266381], [13.989199, 50.266416], [13.989717, 50.266564], [13.990814, 50.266989], [13.996885, 50.266817], [14.001204, 50.260043], [14.000641, 50.25774], [14.00077, 50.257207], [14.001102, 50.256445], [14.002021, 50.248722], [14.000379, 50.245834], [13.999276, 50.243598], [13.99857, 50.241872], [13.994624, 50.235377], [13.991391, 50.236071], [13.990813, 50.236175], [13.990487, 50.236172], [13.988428, 50.235985], [13.985684, 50.23555], [13.979008, 50.238765], [13.975553, 50.237752], [13.969988, 50.235659], [13.967219, 50.233922], [13.964018, 50.232085], [13.964481, 50.228515], [13.961182, 50.221384], [13.958319, 50.221147], [13.955355, 50.220898], [13.954498, 50.220771], [13.953745, 50.220601], [13.95009, 50.219774], [13.945001, 50.218622], [13.941557, 50.217834], [13.94236, 50.214325], [13.945804, 50.215113], [13.950884, 50.216263], [13.954539, 50.217089], [13.958617, 50.217559], [13.96148, 50.217797], [13.964342, 50.218034], [13.967204, 50.218272], [13.975688, 50.215483], [13.97623, 50.215087], [13.981621, 50.208007], [13.981767, 50.207801], [13.984808, 50.208505], [13.988354, 50.209955], [13.988462, 50.213553], [13.990397, 50.22168], [13.993615, 50.22228], [13.996833, 50.22288], [14.000051, 50.22348], [14.004404, 50.217125], [14.00382, 50.214627], [14.004394, 50.21349], [14.00934, 50.210185], [14.012598, 50.201874], [14.012843, 50.200373], [14.014339, 50.198831], [14.014782, 50.198871], [14.017857, 50.19919], [14.018361, 50.199231], [14.023449, 50.198992], [14.026556, 50.20081], [14.034747, 50.200563], [14.039245, 50.194503], [14.036356, 50.190061], [14.034968, 50.188108], [14.037514, 50.185563], [14.039007, 50.184851], [14.04587, 50.183372], [14.047842, 50.183419], [14.053865, 50.186318], [14.055012, 50.188515], [14.054951, 50.190654], [14.05689, 50.196178], [14.058131, 50.197556], [14.059175, 50.198748], [14.067753, 50.196232], [14.066312, 50.19188], [14.065728, 50.188327], [14.068629, 50.187851], [14.073869, 50.18281], [14.076647, 50.180832], [14.078059, 50.182018], [14.078917, 50.183523], [14.079212, 50.184043], [14.08539, 50.190366], [14.085602, 50.190531], [14.08983, 50.194794], [14.09386, 50.194897], [14.096963, 50.193743], [14.098214, 50.193691], [14.098312, 50.193723], [14.103045, 50.196931], [14.107703, 50.189503], [14.107388, 50.189007], [14.107266, 50.188738], [14.107437, 50.186761], [14.107033, 50.184423], [14.110503, 50.183464], [14.117377, 50.187877], [14.123718, 50.191146], [14.12414, 50.191122], [14.130432, 50.186274], [14.128667, 50.178232], [14.125952, 50.176863], [14.125298, 50.176599], [14.126648, 50.173261], [14.128993, 50.174121], [14.129564, 50.174399], [14.133178, 50.176288], [14.139539, 50.175859], [14.140309, 50.176107], [14.140998, 50.176357], [14.141882, 50.176751], [14.142243, 50.176974], [14.14482, 50.180643], [14.151415, 50.17922], [14.151868, 50.174104], [14.151504, 50.173334], [14.152268, 50.172421], [14.154757, 50.171792], [14.15618, 50.17318], [14.156691, 50.173582], [14.157318, 50.174161], [14.157814, 50.174743], [14.158169, 50.175412], [14.159747, 50.177419], [14.161073, 50.17963], [14.165529, 50.182692], [14.171645, 50.177345], [14.172247, 50.174815], [14.172329, 50.17152], [14.17218, 50.170654], [14.172213, 50.170162], [14.172348, 50.169337], [14.172566, 50.168194], [14.176142, 50.168603], [14.183931, 50.172693], [14.184329, 50.172603], [14.184997, 50.172528], [14.186924, 50.172429], [14.189221, 50.172268], [14.189667, 50.172296], [14.18975, 50.17231], [14.196079, 50.176633], [14.199078, 50.178624], [14.205717, 50.184364], [14.20578, 50.184415], [14.206412, 50.185422], [14.206458, 50.186108], [14.205934, 50.187239], [14.205132, 50.188391], [14.204641, 50.189139], [14.202682, 50.193676], [14.201423, 50.193686], [14.199824, 50.193537], [14.193294, 50.198713], [14.193037, 50.199237], [14.191556, 50.202106], [14.190453, 50.2079], [14.192093, 50.213039], [14.192533, 50.214035], [14.193066, 50.215391], [14.193272, 50.216619], [14.193296, 50.217207], [14.193238, 50.217765], [14.192536, 50.221247], [14.192014, 50.224022], [14.192177, 50.227488], [14.194608, 50.235904], [14.195484, 50.236235], [14.196976, 50.23695], [14.204272, 50.233647], [14.204737, 50.232872], [14.205447, 50.231593], [14.205835, 50.231021], [14.206575, 50.229865], [14.209677, 50.228344], [14.208211, 50.220427], [14.207787, 50.220193], [14.207185, 50.21981], [14.209343, 50.216928], [14.210505, 50.217501], [14.213222, 50.218526], [14.214138, 50.218571], [14.216756, 50.21878], [14.218188, 50.218918], [14.223198, 50.221498], [14.22409, 50.221501], [14.225439, 50.221608], [14.23103, 50.225299], [14.232645, 50.22541], [14.236181, 50.224119], [14.236661, 50.223893], [14.237191, 50.223752], [14.240666, 50.216711], [14.236908, 50.214443], [14.236463, 50.214397], [14.235929, 50.214267], [14.235379, 50.21399], [14.234846, 50.213474], [14.230961, 50.211366], [14.230477, 50.211281], [14.229934, 50.211145], [14.22932, 50.211011], [14.228524, 50.210764], [14.228025, 50.210665], [14.226653, 50.210496], [14.226136, 50.210399], [14.225663, 50.210254], [14.225135, 50.210042], [14.224053, 50.209655], [14.220878, 50.209762], [14.220492, 50.209742], [14.219958, 50.209624], [14.219419, 50.209348], [14.218795, 50.208609], [14.218574, 50.207625], [14.218356, 50.205498], [14.218003, 50.203742], [14.215107, 50.198112], [14.219767, 50.196133], [14.221828, 50.195174], [14.225441, 50.193797], [14.228929, 50.186387], [14.229025, 50.182788], [14.23437, 50.176051], [14.237962, 50.17582], [14.239367, 50.176415], [14.243379, 50.177858], [14.243922, 50.178041], [14.244633, 50.178347], [14.245169, 50.178611], [14.245945, 50.179045], [14.246387, 50.17932], [14.247322, 50.179958], [14.24796, 50.180448], [14.248277, 50.180745], [14.249768, 50.182538], [14.250521, 50.183693], [14.250808, 50.18411], [14.251098, 50.184804], [14.253791, 50.191647], [14.259259, 50.195645], [14.259862, 50.195871], [14.263273, 50.196571], [14.263819, 50.19663], [14.264488, 50.196846], [14.26517, 50.197059], [14.265654, 50.197259], [14.267705, 50.198202], [14.268529, 50.198474], [14.270104, 50.198904], [14.270983, 50.199068], [14.272128, 50.199173], [14.275168, 50.199303], [14.281389, 50.193768], [14.28498, 50.193517], [14.293583, 50.191667], [14.293789, 50.186453], [14.293603, 50.185755], [14.293466, 50.185046], [14.293402, 50.184295], [14.292692, 50.17994], [14.286867, 50.173408], [14.285665, 50.171863], [14.285534, 50.171148], [14.286492, 50.169828], [14.287248, 50.169749], [14.292124, 50.162745], [14.29172, 50.16038], [14.292462, 50.155761], [14.29447, 50.152834], [14.294613, 50.152913], [14.302227, 50.155431], [14.307699, 50.155526], [14.308974, 50.155587], [14.316343, 50.151717], [14.316726, 50.151368], [14.317186, 50.151094], [14.318146, 50.150685], [14.322944, 50.14881], [14.327204, 50.14715], [14.327772, 50.146965], [14.32795, 50.146923], [14.329563, 50.148577], [14.329592, 50.148762], [14.330282, 50.15288], [14.335373, 50.156019], [14.337018, 50.156474], [14.342507, 50.161289], [14.343889, 50.163296], [14.345973, 50.165701], [14.345328, 50.173622], [14.354051, 50.174683], [14.354253, 50.170887], [14.356401, 50.170129], [14.35754, 50.169602], [14.358047, 50.169354], [14.361055, 50.167571], [14.36194, 50.167485], [14.362196, 50.167527], [14.363646, 50.167847], [14.365518, 50.168342], [14.366263, 50.168608], [14.370972, 50.172379], [14.375555, 50.171881], [14.376474, 50.171801], [14.377581, 50.171654], [14.379865, 50.171408], [14.381593, 50.1711], [14.381847, 50.171064], [14.382248, 50.171035], [14.383167, 50.171041], [14.387052, 50.176776], [14.391201, 50.179245], [14.397657, 50.17317], [14.399133, 50.172767], [14.403182, 50.166054], [14.403236, 50.164778], [14.402539, 50.161158], [14.403074, 50.158086], [14.402648, 50.149886], [14.402658, 50.148241], [14.404305, 50.147992], [14.412619, 50.144974], [14.414907, 50.137146], [14.411703, 50.134296], [14.408403, 50.133837], [14.407667, 50.13388], [14.406501, 50.132187], [14.406447, 50.131861], [14.40746, 50.130286], [14.412116, 50.125648], [14.414175, 50.123218], [14.414816, 50.12337], [14.421092, 50.123151], [14.424094, 50.115118], [14.425053, 50.111648], [14.428997, 50.112143], [14.43004, 50.112069], [14.431758, 50.111971], [14.438142, 50.107451], [14.441502, 50.106525], [14.445966, 50.106031], [14.446407, 50.105997], [14.446833, 50.107459], [14.451642, 50.112817], [14.458707, 50.113511], [14.459675, 50.113207], [14.461767, 50.1141], [14.468011, 50.109286], [14.468705, 50.107145], [14.469534, 50.105597], [14.472734, 50.104056], [14.473346, 50.104044], [14.482248, 50.103066], [14.482675, 50.103005], [14.483062, 50.102972], [14.48672, 50.103485], [14.490952, 50.104207], [14.494723, 50.104412], [14.502429, 50.101807], [14.502514, 50.101764], [14.507666, 50.10059], [14.513328, 50.099966], [14.51945, 50.099192], [14.51984, 50.099294], [14.520367, 50.099497], [14.528098, 50.094894], [14.527862, 50.09311], [14.527582, 50.091331], [14.532579, 50.089693], [14.535156, 50.092207], [14.53659, 50.100209], [14.538581, 50.101912], [14.545379, 50.102668], [14.547566, 50.101345], [14.548134, 50.101291], [14.548401, 50.101303], [14.553995, 50.104953], [14.557856, 50.107199], [14.56306, 50.111168], [14.568868, 50.114611], [14.574371, 50.115022], [14.57584, 50.114958], [14.577169, 50.114973], [14.57793, 50.115017], [14.58602, 50.112803], [14.5896, 50.112427], [14.593097, 50.118459], [14.598753, 50.11986], [14.600241, 50.120184], [14.602802, 50.120691], [14.605491, 50.121256], [14.607465, 50.121682], [14.611173, 50.1225], [14.612777, 50.122885], [14.611936, 50.126385], [14.610332, 50.126], [14.606706, 50.125201], [14.604732, 50.124775], [14.602062, 50.124214], [14.599542, 50.123715], [14.597989, 50.123378], [14.592225, 50.121952], [14.589127, 50.121178], [14.585648, 50.120307], [14.583334, 50.119728], [14.58087, 50.119113], [14.57366, 50.123623], [14.572165, 50.127284], [14.572018, 50.127331], [14.570993, 50.127557], [14.567546, 50.1283], [14.567455, 50.128308], [14.567454, 50.128308], [14.567363, 50.128315], [14.564937, 50.128021], [14.556822, 50.131263], [14.556442, 50.133147], [14.556543, 50.142082], [14.564434, 50.144955], [14.564763, 50.144871], [14.565214, 50.144818], [14.567194, 50.144933], [14.571569, 50.144567], [14.574871, 50.143049], [14.575151, 50.142887], [14.576901, 50.142111], [14.577489, 50.141977], [14.578911, 50.142974], [14.578953, 50.143068], [14.579093, 50.143705], [14.5791, 50.143785], [14.579095, 50.143993], [14.578288, 50.145487], [14.576679, 50.146163], [14.574861, 50.147305], [14.570297, 50.151306], [14.570975, 50.156555], [14.571835, 50.158827], [14.57366, 50.161915], [14.573497, 50.162024], [14.573448, 50.162056], [14.573178, 50.162223], [14.56881, 50.16044], [14.565825, 50.159056], [14.562982, 50.158058], [14.561769, 50.157682], [14.559938, 50.157146], [14.559378, 50.156984], [14.558691, 50.156757], [14.557549, 50.156318], [14.556296, 50.155812], [14.554111, 50.154864], [14.547164, 50.158158], [14.54681, 50.158791], [14.546564, 50.15917], [14.546185, 50.167789], [14.547686, 50.168979], [14.555754, 50.170216], [14.555978, 50.17024], [14.557578, 50.172285], [14.557535, 50.172461], [14.557074, 50.174703], [14.558219, 50.183058], [14.558519, 50.183511], [14.563693, 50.187963], [14.569004, 50.187464], [14.570686, 50.187237], [14.572852, 50.186729], [14.580373, 50.189363], [14.582167, 50.18946], [14.581973, 50.193055], [14.580178, 50.192958], [14.579678, 50.192967], [14.578036, 50.193138], [14.576234, 50.193319], [14.575058, 50.193583], [14.571894, 50.1953], [14.567988, 50.198366], [14.571901, 50.20641], [14.577567, 50.205656], [14.577982, 50.20544], [14.579649, 50.204667], [14.581237, 50.203932], [14.581638, 50.203723], [14.5845, 50.202107], [14.58531, 50.201794], [14.586295, 50.201558], [14.587136, 50.201272], [14.587877, 50.200883], [14.589552, 50.204069], [14.588812, 50.204458], [14.583546, 50.210331], [14.583526, 50.218561], [14.585256, 50.221718], [14.584712, 50.222017], [14.583756, 50.222397], [14.578925, 50.226943], [14.577987, 50.22971], [14.572015, 50.232855], [14.571786, 50.232944], [14.570993, 50.233134], [14.570234, 50.233171], [14.562262, 50.237167], [14.557055, 50.239287], [14.55601, 50.239159], [14.548332, 50.240065], [14.545627, 50.244156], [14.539598, 50.247008], [14.539235, 50.247202], [14.53696, 50.245745], [14.53695, 50.245488], [14.536363, 50.240342], [14.533966, 50.237345], [14.533579, 50.236977], [14.526503, 50.234734], [14.523338, 50.234283], [14.51618, 50.238665], [14.517404, 50.241319], [14.519071, 50.242879], [14.519709, 50.248008], [14.526501, 50.250929], [14.528335, 50.251264], [14.529093, 50.253201], [14.529077, 50.25536], [14.527683, 50.256927], [14.524475, 50.258806], [14.521148, 50.261573], [14.516943, 50.26837], [14.515832, 50.274662], [14.515829, 50.274775], [14.514155, 50.276436], [14.512268, 50.276697], [14.504635, 50.280623], [14.50319, 50.289445], [14.503567, 50.289866], [14.504729, 50.294665], [14.508552, 50.297956], [14.509478, 50.298362], [14.512025, 50.299559], [14.512077, 50.299589], [14.51299, 50.300424], [14.512494, 50.302312], [14.512458, 50.302351], [14.510848, 50.303317], [14.510238, 50.30373], [14.507517, 50.301598], [14.503927, 50.299373], [14.499802, 50.298317], [14.496594, 50.296684], [14.493572, 50.294997], [14.485223, 50.295837], [14.48039, 50.298057], [14.480312, 50.298048], [14.478971, 50.297895], [14.472607, 50.301417], [14.471743, 50.304912], [14.466831, 50.311607], [14.465781, 50.314164], [14.460653, 50.314719], [14.459338, 50.323256], [14.459376, 50.323382], [14.457712, 50.329959], [14.460753, 50.334305], [14.462721, 50.335968], [14.465092, 50.337242], [14.471309, 50.339671], [14.474908, 50.339726], [14.474862, 50.342692], [14.481076, 50.346697], [14.484645, 50.343717], [14.485432, 50.343007], [14.489153, 50.342307], [14.491633, 50.336296], [14.491763, 50.335739], [14.491965, 50.335263], [14.49226, 50.334821], [14.493665, 50.333216], [14.496223, 50.328789], [14.496619, 50.328161], [14.497178, 50.327189], [14.500752, 50.321593], [14.501612, 50.318097], [14.504823, 50.317843], [14.505214, 50.317748], [14.511256, 50.313085], [14.514857, 50.311659], [14.516489, 50.311247], [14.51679, 50.311378], [14.516838, 50.3114], [14.517006, 50.31148], [14.517896, 50.313589], [14.51777, 50.313787], [14.517424, 50.314215], [14.515707, 50.318086], [14.515191, 50.325769], [14.51857, 50.327804], [14.519138, 50.328015], [14.527369, 50.327475], [14.530598, 50.325884], [14.535122, 50.326185], [14.542648, 50.325191], [14.549739, 50.322469], [14.550412, 50.322291], [14.551403, 50.322113], [14.552003, 50.323655], [14.552327, 50.324602], [14.552343, 50.324828], [14.552039, 50.325656], [14.546342, 50.329619], [14.540059, 50.333107], [14.53825, 50.33622], [14.542297, 50.34193], [14.546476, 50.34282], [14.547011, 50.342977], [14.547326, 50.343088], [14.549162, 50.343779], [14.556315, 50.342785], [14.556704, 50.34294], [14.557328, 50.343211], [14.55892, 50.343826], [14.562113, 50.347737], [14.560926, 50.351135], [14.559704, 50.350708], [14.558143, 50.350248], [14.557449, 50.350012], [14.554997, 50.34937], [14.55154, 50.348364], [14.549808, 50.3477], [14.548608, 50.347388], [14.548006, 50.347188], [14.546549, 50.346812], [14.545484, 50.346281], [14.541522, 50.345445], [14.537924, 50.353503], [14.535043, 50.355663], [14.529488, 50.358468], [14.527062, 50.364431], [14.528905, 50.367523], [14.535907, 50.372539], [14.536841, 50.372572], [14.538544, 50.372389], [14.541684, 50.371792], [14.54426, 50.371304], [14.545837, 50.370781], [14.546785, 50.370515], [14.548198, 50.37024], [14.54996, 50.37021], [14.550065, 50.370358], [14.550254, 50.370699], [14.550302, 50.370811], [14.549834, 50.373344], [14.552957, 50.381601], [14.553563, 50.381665], [14.554169, 50.381815], [14.554649, 50.381994], [14.556185, 50.382612], [14.554841, 50.385952], [14.550076, 50.386052], [14.54606, 50.390706], [14.545863, 50.391829], [14.544991, 50.394144], [14.542737, 50.393614], [14.542233, 50.392731], [14.541589, 50.391464], [14.541069, 50.390215], [14.540873, 50.38969], [14.540807, 50.389147], [14.539936, 50.386094], [14.539507, 50.385228], [14.534299, 50.380391], [14.533361, 50.380279], [14.531656, 50.380205], [14.526783, 50.387583], [14.527439, 50.391122], [14.527639, 50.394471], [14.527161, 50.398039], [14.524756, 50.403754], [14.523998, 50.406855], [14.522938, 50.410296], [14.515419, 50.409699], [14.51254, 50.410022], [14.510155, 50.409125], [14.509648, 50.40556], [14.51016, 50.399261], [14.5093, 50.397405], [14.508433, 50.395534], [14.502965, 50.391017], [14.502566, 50.390826], [14.502125, 50.390575], [14.500038, 50.389173], [14.499359, 50.388872], [14.498757, 50.388471], [14.497753, 50.387399], [14.495083, 50.385148], [14.494702, 50.384915], [14.490239, 50.38411], [14.48961, 50.384192], [14.480746, 50.382997], [14.476968, 50.383814], [14.476342, 50.391077], [14.480905, 50.394408], [14.48146, 50.394451], [14.484511, 50.394532], [14.485274, 50.394528], [14.485885, 50.394689], [14.486718, 50.395055], [14.485271, 50.398351], [14.488537, 50.406688], [14.491839, 50.406239], [14.492756, 50.406233], [14.493661, 50.406307], [14.494561, 50.406491], [14.495384, 50.406759], [14.496278, 50.407184], [14.49843, 50.40791], [14.499406, 50.411375], [14.498812, 50.411542], [14.498092, 50.411683], [14.497602, 50.411742], [14.497078, 50.411744], [14.496355, 50.411591], [14.495699, 50.411281], [14.489037, 50.410253], [14.487771, 50.410511], [14.485772, 50.410299], [14.482373, 50.410804], [14.481637, 50.4109], [14.480825, 50.410926], [14.477683, 50.410923], [14.476635, 50.410874], [14.47407, 50.410641], [14.473579, 50.410564], [14.472601, 50.41031], [14.471968, 50.410094], [14.471575, 50.409991], [14.471078, 50.409878], [14.470565, 50.409798], [14.469619, 50.409683], [14.465934, 50.408854], [14.463138, 50.416882], [14.463198, 50.41696], [14.463253, 50.417043], [14.464564, 50.418802], [14.469575, 50.422108], [14.471864, 50.422474], [14.473678, 50.422762], [14.478834, 50.423584], [14.480236, 50.423685], [14.481222, 50.423698], [14.481176, 50.427298], [14.476568, 50.429736], [14.473049, 50.435804], [14.469721, 50.437177], [14.468251, 50.435339], [14.467528, 50.434684], [14.46647, 50.433563], [14.466049, 50.432985], [14.464945, 50.431697], [14.464582, 50.431382], [14.456838, 50.432047], [14.456454, 50.435626], [14.457273, 50.43883], [14.457689, 50.439403], [14.457583, 50.439689], [14.456746, 50.442391], [14.450708, 50.444442], [14.444652, 50.444903], [14.44277, 50.441834], [14.439803, 50.437172], [14.43276, 50.441837], [14.432355, 50.446955], [14.43228, 50.450554], [14.432312, 50.453857], [14.432802, 50.457424], [14.433269, 50.460461], [14.430541, 50.461301], [14.424798, 50.46288], [14.421203, 50.463061], [14.417154, 50.469406], [14.420283, 50.477169], [14.422917, 50.479738], [14.428662, 50.480731], [14.431064, 50.480144], [14.431912, 50.480018], [14.433761, 50.479557], [14.439442, 50.474436], [14.440231, 50.47021], [14.443829, 50.470081], [14.449702, 50.466772], [14.453281, 50.467158], [14.459748, 50.472951], [14.46124, 50.472582], [14.462094, 50.472357], [14.463632, 50.4719], [14.46426, 50.471788], [14.466592, 50.471404], [14.47193, 50.468681], [14.472094, 50.468655], [14.473853, 50.469717], [14.478791, 50.473381], [14.479495, 50.474896], [14.479302, 50.476944], [14.479133, 50.477424], [14.478656, 50.477609], [14.47817, 50.477717], [14.477706, 50.477748], [14.476651, 50.477688], [14.476475, 50.477652], [14.473927, 50.477246], [14.4659, 50.475261], [14.463138, 50.475802], [14.462163, 50.476062], [14.461358, 50.47631], [14.460734, 50.476446], [14.460225, 50.476519], [14.458791, 50.476621], [14.456822, 50.47678], [14.454832, 50.47694], [14.454363, 50.477012], [14.451928, 50.477429], [14.450386, 50.477771], [14.445203, 50.478368], [14.442126, 50.480667], [14.442446, 50.487669], [14.442665, 50.488522], [14.445891, 50.493168], [14.446595, 50.494415], [14.446567, 50.49523], [14.446177, 50.496058], [14.445637, 50.496587], [14.442896, 50.498384], [14.442441, 50.498619], [14.440201, 50.5002], [14.436692, 50.501841], [14.434662, 50.501136], [14.433905, 50.500778], [14.432709, 50.500019], [14.431108, 50.499258], [14.432655, 50.496007], [14.43889, 50.491422], [14.436586, 50.487908], [14.434861, 50.486926], [14.434477, 50.486805], [14.433731, 50.486456], [14.433203, 50.486246], [14.43259, 50.48605], [14.43186, 50.48588], [14.425628, 50.486562], [14.422452, 50.48599], [14.421224, 50.485298], [14.420836, 50.484812], [14.420579, 50.483955], [14.417771, 50.479748], [14.415423, 50.477544], [14.41502, 50.477099], [14.414713, 50.476642], [14.413574, 50.474523], [14.412847, 50.473738], [14.41102, 50.472467], [14.409379, 50.471651], [14.406488, 50.470834], [14.40468, 50.470228], [14.401765, 50.478618], [14.402527, 50.483622], [14.403055, 50.484437], [14.403229, 50.485198], [14.403177, 50.48591], [14.403686, 50.494559], [14.404122, 50.495033], [14.404427, 50.495465], [14.406348, 50.498004], [14.406591, 50.499817], [14.413298, 50.505756], [14.414148, 50.505799], [14.41497, 50.506062], [14.415846, 50.50694], [14.418673, 50.509842], [14.420696, 50.51077], [14.426786, 50.511673], [14.427227, 50.51178], [14.428031, 50.512082], [14.429974, 50.512737], [14.432545, 50.512966], [14.432793, 50.512946], [14.4341, 50.512766], [14.434972, 50.512717], [14.436586, 50.51278], [14.437796, 50.512808], [14.437753, 50.514608], [14.438573, 50.517221], [14.438977, 50.517777], [14.447539, 50.516289], [14.447407, 50.512691], [14.447975, 50.512672], [14.448783, 50.512684], [14.449738, 50.512782], [14.450736, 50.512969], [14.451748, 50.513187], [14.456734, 50.513252], [14.460297, 50.512736], [14.461856, 50.515734], [14.461746, 50.519332], [14.459913, 50.527192], [14.463416, 50.531936], [14.470715, 50.531768], [14.471311, 50.531372], [14.474245, 50.523837], [14.473721, 50.522462], [14.473318, 50.521644], [14.473174, 50.520961], [14.47326, 50.520192], [14.473494, 50.519536], [14.473978, 50.518559], [14.474526, 50.515764], [14.47312, 50.510624], [14.477426, 50.505439], [14.481608, 50.50205], [14.481439, 50.494326], [14.481524, 50.493837], [14.48221, 50.490375], [14.482519, 50.489606], [14.482645, 50.489414], [14.48332, 50.488296], [14.486033, 50.485868], [14.486237, 50.48589], [14.486909, 50.488021], [14.48689, 50.489085], [14.49151, 50.496691], [14.496503, 50.496472], [14.496998, 50.49633], [14.49771, 50.496233], [14.498275, 50.496225], [14.499094, 50.496265], [14.49977, 50.496339], [14.500446, 50.496495], [14.503484, 50.497546], [14.502446, 50.500993], [14.501193, 50.500616], [14.497049, 50.500303], [14.493447, 50.507911], [14.494636, 50.510045], [14.495571, 50.511065], [14.4959, 50.511503], [14.496145, 50.511948], [14.496331, 50.512517], [14.502291, 50.519011], [14.504415, 50.519099], [14.506655, 50.519194], [14.507407, 50.51928], [14.509363, 50.519562], [14.511721, 50.51955], [14.512239, 50.519569], [14.513785, 50.519802], [14.520829, 50.519121], [14.523601, 50.517801], [14.5259, 50.516335], [14.526491, 50.516223], [14.527041, 50.516212], [14.528953, 50.516364], [14.531714, 50.524526], [14.532269, 50.528083], [14.528921, 50.535996], [14.533705, 50.53848], [14.536738, 50.537905], [14.542917, 50.531936], [14.543063, 50.531289], [14.543338, 50.530063], [14.543371, 50.529921], [14.546876, 50.530745], [14.551664, 50.535562], [14.552735, 50.538999], [14.557504, 50.546419], [14.558104, 50.549969], [14.555226, 50.550455], [14.552912, 50.550929], [14.552374, 50.551045], [14.551732, 50.551099], [14.547624, 50.552885], [14.546251, 50.559522], [14.546332, 50.55994], [14.546353, 50.560194], [14.542919, 50.56401], [14.542224, 50.564742], [14.540461, 50.56664], [14.540165, 50.566364], [14.53967, 50.565756], [14.539315, 50.565121], [14.539154, 50.564719], [14.538752, 50.563791], [14.536418, 50.557199], [14.534251, 50.554324], [14.531302, 50.547313], [14.530933, 50.546956], [14.523858, 50.544355], [14.520705, 50.545344], [14.519928, 50.545655], [14.517442, 50.546955], [14.515964, 50.5479], [14.51526, 50.548309], [14.513818, 50.549043], [14.513194, 50.549275], [14.512445, 50.549401], [14.511994, 50.549401], [14.511701, 50.549369], [14.511079, 50.549229], [14.510389, 50.549034], [14.506813, 50.548772], [14.506387, 50.548803], [14.505998, 50.548799], [14.501568, 50.550134], [14.500576, 50.558442], [14.500976, 50.559029], [14.501179, 50.559778], [14.501122, 50.560646], [14.503084, 50.567387], [14.510101, 50.567048], [14.512106, 50.567805], [14.512513, 50.569721], [14.511246, 50.571301], [14.508538, 50.572071], [14.508517, 50.57208], [14.505224, 50.573804], [14.498056, 50.570476], [14.497378, 50.570431], [14.49606, 50.570125], [14.495414, 50.569812], [14.494963, 50.569497], [14.49462, 50.569135], [14.494229, 50.568348], [14.494119, 50.56759], [14.494169, 50.566781], [14.494232, 50.564611], [14.49254, 50.556322], [14.492294, 50.555736], [14.489179, 50.550381], [14.488607, 50.5496], [14.481667, 50.544799], [14.480743, 50.544539], [14.480414, 50.544425], [14.476451, 50.543103], [14.475958, 50.542964], [14.475591, 50.542819], [14.46701, 50.54434], [14.466562, 50.544677], [14.464197, 50.54672], [14.463471, 50.547541], [14.462692, 50.548209], [14.461273, 50.54926], [14.459279, 50.550676], [14.457466, 50.551643], [14.454582, 50.559576], [14.454471, 50.560372], [14.45132, 50.560118], [14.45122, 50.560111], [14.442908, 50.561021], [14.442187, 50.561355], [14.441607, 50.561556], [14.435879, 50.564364], [14.431547, 50.56386], [14.424327, 50.565899], [14.423371, 50.566455], [14.422646, 50.5669], [14.421991, 50.567351], [14.421691, 50.567532], [14.419657, 50.568567], [14.418977, 50.568959], [14.416727, 50.570126], [14.416282, 50.570451], [14.414081, 50.572603], [14.413657, 50.573056], [14.412015, 50.5759], [14.411781, 50.576856], [14.411582, 50.578097], [14.416386, 50.585075], [14.417738, 50.585038], [14.418845, 50.584834], [14.423585, 50.58618], [14.428562, 50.589967], [14.429241, 50.59088], [14.433586, 50.594818], [14.441313, 50.594226], [14.4447, 50.594396], [14.45044, 50.593052], [14.451069, 50.592759], [14.451434, 50.592621], [14.454992, 50.591576], [14.455678, 50.591553], [14.457231, 50.591407], [14.461314, 50.591121], [14.461868, 50.59101], [14.46244, 50.590937], [14.466216, 50.590116], [14.467754, 50.589644], [14.468166, 50.58958], [14.475151, 50.586924], [14.476056, 50.587079], [14.476548, 50.587207], [14.477247, 50.587564], [14.477902, 50.588314], [14.485659, 50.591306], [14.486173, 50.591305], [14.486785, 50.591449], [14.491243, 50.592152], [14.491814, 50.592146], [14.492409, 50.59218], [14.493046, 50.592269], [14.493623, 50.592378], [14.494972, 50.59272], [14.495517, 50.592894], [14.49621, 50.593155], [14.496826, 50.593419], [14.499049, 50.595924], [14.499227, 50.596117], [14.499664, 50.597237], [14.507042, 50.601788], [14.507722, 50.601754], [14.515771, 50.598911], [14.516244, 50.598474], [14.516951, 50.598034], [14.517611, 50.597801], [14.518331, 50.597626], [14.52613, 50.593155], [14.531354, 50.592313], [14.536697, 50.592556], [14.539867, 50.591731], [14.540698, 50.591399], [14.542035, 50.594741], [14.543726, 50.598916], [14.543755, 50.599214], [14.543747, 50.599736], [14.541415, 50.60195], [14.539023, 50.602191], [14.537936, 50.602555], [14.537671, 50.60267], [14.534652, 50.609046], [14.541018, 50.611866], [14.541832, 50.61159], [14.542481, 50.611493], [14.546622, 50.609585], [14.547687, 50.608731], [14.549891, 50.607281], [14.551792, 50.606618], [14.553184, 50.606108], [14.554757, 50.609346], [14.561163, 50.61218], [14.562372, 50.611941], [14.565033, 50.603985], [14.567384, 50.601259], [14.567569, 50.601418], [14.568971, 50.6025], [14.56968, 50.603011], [14.570709, 50.603597], [14.578967, 50.602221], [14.586345, 50.603035], [14.588528, 50.601909], [14.590337, 50.600976], [14.592147, 50.600042], [14.593798, 50.603241], [14.59341, 50.611645], [14.592942, 50.614364], [14.592896, 50.614394], [14.591538, 50.61472], [14.591012, 50.6144], [14.582799, 50.613927], [14.581258, 50.614506], [14.579262, 50.615226], [14.572436, 50.615729], [14.570617, 50.616669], [14.569136, 50.617383], [14.568491, 50.617811], [14.567764, 50.618091], [14.56597, 50.619086], [14.565038, 50.619566], [14.56432, 50.620017], [14.563019, 50.620613], [14.559081, 50.626308], [14.559341, 50.629898], [14.564741, 50.634069], [14.566806, 50.637018], [14.57241, 50.640434], [14.577344, 50.634957], [14.578243, 50.631606], [14.580222, 50.632054], [14.585846, 50.631393], [14.588049, 50.634239], [14.588826, 50.635055], [14.587754, 50.638491], [14.583575, 50.638324], [14.580693, 50.644829], [14.578974, 50.647992], [14.574342, 50.649614], [14.570825, 50.651469], [14.563477, 50.655053], [14.563544, 50.658653], [14.56296, 50.65897], [14.560561, 50.65884], [14.559681, 50.658823], [14.551886, 50.662065], [14.549734, 50.662703], [14.545104, 50.668694], [14.546504, 50.673787], [14.546902, 50.674473], [14.546909, 50.674484], [14.547194, 50.674968], [14.54659, 50.676916], [14.543313, 50.683752], [14.539715, 50.683633], [14.539726, 50.683304], [14.539871, 50.67994], [14.538159, 50.677622], [14.530827, 50.681478], [14.528345, 50.686661], [14.528396, 50.687198], [14.528383, 50.687514], [14.528134, 50.688577], [14.527061, 50.688863], [14.524394, 50.689428], [14.520311, 50.69133], [14.518017, 50.693423], [14.514706, 50.693923], [14.514763, 50.701828], [14.516078, 50.705179], [14.514894, 50.705644], [14.510775, 50.713293], [14.510226, 50.714273], [14.509323, 50.714845], [14.505903, 50.716206], [14.49886, 50.719571], [14.495604, 50.718035], [14.486901, 50.719509], [14.48542, 50.720671], [14.484032, 50.721529], [14.481778, 50.72433], [14.481564, 50.724704], [14.477269, 50.724334], [14.474561, 50.725319], [14.473123, 50.725991], [14.475884, 50.734404], [14.478729, 50.734819], [14.480065, 50.734649], [14.480389, 50.734575], [14.485306, 50.733871], [14.485715, 50.733805], [14.486836, 50.73344], [14.487906, 50.733221], [14.490513, 50.73276], [14.49114, 50.736305], [14.488684, 50.741067], [14.48566, 50.743022], [14.482876, 50.743499], [14.482219, 50.743466], [14.481306, 50.743296], [14.473871, 50.744202], [14.472632, 50.745382], [14.473474, 50.753614], [14.473834, 50.753921], [14.474506, 50.754627], [14.481335, 50.756412], [14.484082, 50.754085], [14.484955, 50.754698], [14.485808, 50.755433], [14.486304, 50.755914], [14.487249, 50.756703], [14.488165, 50.757504], [14.488752, 50.758645], [14.491146, 50.762403], [14.494565, 50.766857], [14.495897, 50.767924], [14.504069, 50.766951], [14.505219, 50.764367], [14.508139, 50.763368], [14.508461, 50.763637], [14.508795, 50.764776], [14.508775, 50.764956], [14.508736, 50.76576], [14.514096, 50.772463], [14.520383, 50.77178], [14.523923, 50.771128], [14.525843, 50.7704], [14.534074, 50.768039], [14.534744, 50.767714], [14.536477, 50.766945], [14.537911, 50.76696], [14.538038, 50.767021], [14.538492, 50.769314], [14.538383, 50.769999], [14.538373, 50.770005], [14.536644, 50.770821], [14.535661, 50.77127], [14.534461, 50.771898], [14.533341, 50.772542], [14.531557, 50.773611], [14.530885, 50.773872], [14.527278, 50.774585], [14.525957, 50.783364], [14.524569, 50.786337], [14.524163, 50.786556], [14.523679, 50.78672], [14.523241, 50.786805], [14.515315, 50.79054], [14.515003, 50.790822], [14.514563, 50.791131], [14.514037, 50.791402], [14.513715, 50.791532], [14.513244, 50.79168], [14.512296, 50.79191], [14.511852, 50.791963], [14.511364, 50.791924], [14.509461, 50.791456], [14.507895, 50.791311], [14.506231, 50.791222], [14.504418, 50.791409], [14.496333, 50.791926], [14.494345, 50.791875], [14.487272, 50.795955], [14.487515, 50.799225], [14.488056, 50.806878], [14.488341, 50.807394], [14.494012, 50.810993], [14.497695, 50.809519], [14.503228, 50.809202], [14.507602, 50.808537], [14.508784, 50.808033], [14.509502, 50.807875], [14.510621, 50.807509], [14.511229, 50.807333], [14.51303, 50.808048], [14.51801, 50.811926], [14.522165, 50.812181], [14.530613, 50.812672], [14.531065, 50.812573], [14.533973, 50.81401], [14.53423, 50.814125], [14.534849, 50.814455], [14.53501, 50.81683], [14.533448, 50.817771], [14.531228, 50.818016], [14.525738, 50.817923], [14.52007, 50.819984], [14.514463, 50.82402], [14.511563, 50.830869], [14.510317, 50.834247], [14.50635, 50.842162], [14.50666, 50.843302], [14.507323, 50.846228], [14.507245, 50.847058], [14.50709, 50.847537], [14.506822, 50.848002], [14.506515, 50.848449], [14.505478, 50.849947], [14.505275, 50.849971], [14.503028, 50.848955], [14.497075, 50.844443], [14.489402, 50.842883], [14.486097, 50.843774], [14.48592, 50.843797], [14.48011, 50.846763], [14.478852, 50.850136], [14.47844, 50.851446], [14.476798, 50.853012], [14.476578, 50.853008], [14.476113, 50.852756], [14.474855, 50.851779], [14.474818, 50.851375], [14.474711, 50.850175], [14.474773, 50.848808], [14.474772, 50.848524], [14.474689, 50.847317], [14.474689, 50.846755], [14.474297, 50.842198], [14.474037, 50.838608], [14.474245, 50.829935], [14.47381, 50.8295], [14.471389, 50.827983], [14.470632, 50.827665], [14.469226, 50.827298], [14.46351, 50.827677], [14.461424, 50.826675], [14.455668, 50.825492], [14.455128, 50.824928], [14.454898, 50.824707], [14.453039, 50.823129], [14.452433, 50.822719], [14.451673, 50.822113], [14.446961, 50.819762], [14.44596, 50.819423], [14.445583, 50.819276], [14.443182, 50.818545], [14.440171, 50.818159], [14.435975, 50.81672], [14.434197, 50.814245], [14.434195, 50.814195], [14.433842, 50.812271], [14.434459, 50.812063], [14.436413, 50.81135], [14.435335, 50.80281], [14.42983, 50.802785], [14.427849, 50.802628], [14.421084, 50.805366], [14.419586, 50.808625], [14.416779, 50.816998], [14.420032, 50.818879], [14.421532, 50.819626], [14.422136, 50.819863], [14.425156, 50.820241], [14.426959, 50.826219], [14.428742, 50.827476], [14.42918, 50.828043], [14.429425, 50.828611], [14.43131, 50.831796], [14.433999, 50.837056], [14.434554, 50.83821], [14.434854, 50.838744], [14.435549, 50.839793], [14.443324, 50.844249], [14.445587, 50.844518], [14.452792, 50.849049], [14.457389, 50.848459], [14.457881, 50.848263], [14.458551, 50.848096], [14.459821, 50.848179], [14.460456, 50.848572], [14.461737, 50.85201], [14.459788, 50.855036], [14.4638, 50.862847], [14.464273, 50.862967], [14.465793, 50.863422], [14.466353, 50.863622], [14.467829, 50.864161], [14.469237, 50.864441], [14.473778, 50.86351], [14.473895, 50.863456], [14.474774, 50.863445], [14.477725, 50.862731], [14.479149, 50.862293], [14.4795, 50.86257], [14.480512, 50.863698], [14.481193, 50.864594], [14.481442, 50.865067], [14.481287, 50.865982], [14.480178, 50.866493], [14.476737, 50.868046], [14.473238, 50.867902], [14.469816, 50.868011], [14.469498, 50.86804], [14.469097, 50.868038], [14.468128, 50.867928], [14.467529, 50.867824], [14.46675, 50.867595], [14.46628, 50.867466], [14.465763, 50.86729], [14.464901, 50.866917], [14.459414, 50.873844], [14.459718, 50.874712], [14.459509, 50.875812], [14.45463, 50.882995], [14.457414, 50.886195], [14.457417, 50.886263], [14.457349, 50.887237], [14.457346, 50.887254], [14.455138, 50.888703], [14.455134, 50.888702], [14.453021, 50.887289], [14.452646, 50.886985], [14.44915, 50.882931], [14.445189, 50.880165], [14.444644, 50.879786], [14.44239, 50.877629], [14.441814, 50.876984], [14.43855, 50.871789], [14.438323, 50.868196], [14.435981, 50.860253], [14.435251, 50.859604], [14.427807, 50.857887], [14.426835, 50.857977], [14.422458, 50.859271], [14.419713, 50.859399], [14.419419, 50.859361], [14.418677, 50.858954], [14.418082, 50.858095], [14.41798, 50.857297], [14.410609, 50.852158], [14.410109, 50.852331], [14.409327, 50.852502], [14.407975, 50.852815], [14.406854, 50.853026], [14.400946, 50.858816], [14.400784, 50.859355], [14.400645, 50.859637], [14.400266, 50.860215], [14.399756, 50.860714], [14.399253, 50.861019], [14.396252, 50.862499], [14.391945, 50.862442], [14.391448, 50.862394], [14.390877, 50.862279], [14.39041, 50.862136], [14.384004, 50.86223], [14.381122, 50.863943], [14.380668, 50.864293], [14.38024, 50.864651], [14.378843, 50.865763], [14.376456, 50.864886], [14.372129, 50.857643], [14.368902, 50.857418], [14.367568, 50.857454], [14.36542, 50.857524], [14.364461, 50.857569], [14.363915, 50.857576], [14.363057, 50.857543], [14.360889, 50.857413], [14.355683, 50.863657], [14.353288, 50.864333], [14.351549, 50.86486], [14.34977, 50.865245], [14.349284, 50.865311], [14.345151, 50.865921], [14.342748, 50.866271], [14.342267, 50.866294], [14.341513, 50.866263], [14.33373, 50.869146], [14.33138, 50.872097], [14.330213, 50.873593], [14.329901, 50.874039], [14.329435, 50.874457], [14.329108, 50.874659], [14.32645, 50.875858], [14.32615, 50.875969], [14.325674, 50.876085], [14.325216, 50.876134], [14.324468, 50.876117], [14.323933, 50.876027], [14.315501, 50.875703], [14.314887, 50.875783], [14.310511, 50.876166], [14.30603, 50.876758], [14.305685, 50.876799], [14.302832, 50.877022], [14.302231, 50.877066], [14.300276, 50.877114], [14.299766, 50.877115], [14.29943, 50.877098], [14.294359, 50.877043], [14.288828, 50.878244], [14.288348, 50.878403], [14.281234, 50.881006], [14.278196, 50.881919], [14.270324, 50.88265], [14.269935, 50.882669], [14.269211, 50.882576], [14.268632, 50.88242], [14.265239, 50.881495], [14.264733, 50.881336], [14.264238, 50.88109], [14.262002, 50.880021], [14.261427, 50.879707], [14.257026, 50.877438], [14.254803, 50.876921], [14.253634, 50.876677], [14.248035, 50.876921], [14.247654, 50.87699], [14.24697, 50.876996], [14.239615, 50.880982], [14.238639, 50.884227], [14.2392, 50.892793], [14.237801, 50.895332], [14.23488, 50.89587], [14.226615, 50.898733], [14.224812, 50.900185], [14.223175, 50.901009], [14.220914, 50.902231], [14.21942, 50.902879], [14.218688, 50.90309], [14.217602, 50.903376], [14.215166, 50.904112], [14.213017, 50.904837], [14.211646, 50.905329], [14.210296, 50.905822], [14.209485, 50.90614], [14.208772, 50.906436], [14.206683, 50.907111], [14.204477, 50.907826], [14.203369, 50.908141], [14.201441, 50.908641], [14.199586, 50.909102], [14.197626, 50.909508], [14.195739, 50.909878], [14.193808, 50.910256], [14.192192, 50.918663], [14.193135, 50.919424], [14.193902, 50.920387], [14.194129, 50.921291], [14.193959, 50.922318], [14.193031, 50.924514], [14.192292, 50.926432], [14.186207, 50.928194], [14.180871, 50.935431], [14.180708, 50.935629], [14.178948, 50.936268], [14.178698, 50.936176], [14.171465, 50.936677], [14.167939, 50.940328], [14.16656, 50.943654], [14.165067, 50.943633], [14.162671, 50.939631], [14.154977, 50.935621], [14.153148, 50.934684], [14.145903, 50.931757], [14.145101, 50.931536], [14.145082, 50.928775], [14.139764, 50.922242], [14.136873, 50.924404], [14.134667, 50.930218], [14.134826, 50.930933], [14.134522, 50.932256], [14.13316, 50.936209], [14.132786, 50.936411], [14.132305, 50.936593], [14.129943, 50.937451], [14.128584, 50.934117], [14.124792, 50.929498], [14.123305, 50.927763], [14.11576, 50.927181], [14.114885, 50.927588], [14.112933, 50.928305], [14.112106, 50.928618], [14.111698, 50.928729], [14.11077, 50.9289], [14.109826, 50.929115], [14.108157, 50.92952], [14.107598, 50.929638], [14.106986, 50.92973], [14.106518, 50.929778], [14.105571, 50.92982], [14.105108, 50.929809], [14.104344, 50.929741], [14.103581, 50.929621], [14.103131, 50.929517], [14.102181, 50.929241], [14.099291, 50.92828], [14.093387, 50.926829], [14.092595, 50.926693], [14.092162, 50.926461], [14.091839, 50.926202], [14.089996, 50.925005], [14.088286, 50.923959], [14.087807, 50.923614], [14.084103, 50.921839], [14.083579, 50.921668], [14.08211, 50.921348], [14.081476, 50.921257], [14.079684, 50.921089], [14.078898, 50.92105], [14.078569, 50.921012], [14.077309, 50.920881], [14.076182, 50.920745], [14.075231, 50.920661], [14.066458, 50.9214], [14.06639, 50.921443], [14.065695, 50.921658], [14.064936, 50.921822], [14.059301, 50.92617], [14.06252, 50.933922], [14.064862, 50.93469], [14.06705, 50.935453], [14.067893, 50.935728], [14.06886, 50.936081], [14.069556, 50.936286], [14.070554, 50.936623], [14.075736, 50.939773], [14.078271, 50.94068], [14.079539, 50.94162], [14.081476, 50.942903], [14.082448, 50.943979], [14.08294, 50.9447], [14.084529, 50.946805], [14.084997, 50.947657], [14.085262, 50.949032], [14.085314, 50.949848], [14.085264, 50.950496], [14.085046, 50.951429], [14.084867, 50.951925], [14.084525, 50.952605], [14.084053, 50.953382], [14.083348, 50.954348], [14.082789, 50.955197], [14.078516, 50.956277], [14.078258, 50.956387], [14.078209, 50.956406], [14.077812, 50.956555], [14.077586, 50.956628], [14.076017, 50.957199], [14.069743, 50.963145], [14.066629, 50.966454], [14.06658, 50.966526], [14.064429, 50.972328], [14.067471, 50.975836], [14.07053, 50.979145], [14.077322, 50.980446], [14.083288, 50.983622], [14.087871, 50.979483], [14.088124, 50.978813], [14.088592, 50.978019], [14.089087, 50.977316], [14.090421, 50.975069], [14.09111, 50.97408], [14.091636, 50.973279], [14.092453, 50.972272], [14.092977, 50.971665], [14.093539, 50.971331], [14.098262, 50.967067], [14.098781, 50.96622], [14.09983, 50.96458], [14.10051, 50.963688], [14.101925, 50.9613], [14.102669, 50.96084], [14.104047, 50.960048], [14.10584, 50.96317], [14.10367, 50.965809], [14.10323, 50.966398], [14.102378, 50.967464], [14.101062, 50.97002], [14.100773, 50.970808], [14.099892, 50.97252], [14.102499, 50.980815], [14.103487, 50.981083], [14.10449, 50.981504], [14.104925, 50.981689], [14.105175, 50.981812], [14.107708, 50.98292], [14.107753, 50.982998], [14.107994, 50.983997], [14.107839, 50.984717], [14.107537, 50.98523], [14.106889, 50.985778], [14.104394, 50.986119], [14.102456, 50.985949], [14.101835, 50.98574], [14.101468, 50.985497], [14.09788, 50.984449], [14.09725, 50.984425], [14.091074, 50.986854], [14.091195, 50.991397], [14.091252, 50.992879], [14.091276, 50.993127], [14.090461, 50.994922], [14.089553, 50.994906], [14.085899, 50.996524], [14.086654, 51.004062], [14.087008, 51.00431], [14.087343, 51.004619], [14.090601, 51.005953], [14.090708, 51.005976], [14.091153, 51.006372], [14.091826, 51.007021], [14.091864, 51.007094], [14.091747, 51.007417], [14.090718, 51.009443], [14.089589, 51.010453], [14.089108, 51.010787], [14.088467, 51.010673], [14.080987, 51.009327], [14.078677, 51.009561], [14.076121, 51.0093], [14.071127, 51.015438], [14.069961, 51.018844], [14.067041, 51.017844], [14.06078, 51.021394], [14.060765, 51.02142], [14.059457, 51.022817], [14.057913, 51.022265], [14.056728, 51.021806], [14.056234, 51.021618], [14.050978, 51.021653], [14.050871, 51.021692], [14.047929, 51.023951], [14.049868, 51.031944], [14.051955, 51.034686], [14.055746, 51.03985], [14.061692, 51.039962], [14.065096, 51.03925], [14.067922, 51.037789], [14.068501, 51.038083], [14.070544, 51.040257], [14.079121, 51.042883], [14.079643, 51.042652], [14.083524, 51.040246], [14.086297, 51.036452], [14.08678, 51.035528], [14.088785, 51.035081], [14.089022, 51.03508], [14.089417, 51.035115], [14.092867, 51.037567], [14.096431, 51.038981], [14.096467, 51.038991], [14.104454, 51.042163], [14.105144, 51.043192], [14.105197, 51.04333], [14.10534, 51.043879], [14.105439, 51.045625], [14.102808, 51.04694], [14.099292, 51.049026], [14.100217, 51.056189], [14.101393, 51.057154], [14.101876, 51.057454], [14.105179, 51.058696], [14.105905, 51.059057], [14.108133, 51.059916], [14.10894, 51.060155], [14.110019, 51.060393], [14.110903, 51.060623], [14.111506, 51.060845], [14.11245, 51.064662], [14.108968, 51.065577], [14.100826, 51.064175], [14.097283, 51.064812], [14.097168, 51.064173], [14.097114, 51.063503], [14.093144, 51.055921], [14.092166, 51.055512], [14.090923, 51.054936], [14.09026, 51.0547], [14.089393, 51.054262], [14.081198, 51.056586], [14.0801, 51.058017], [14.078922, 51.062582], [14.077737, 51.064386], [14.075245, 51.064147], [14.069415, 51.069539], [14.070762, 51.077851], [14.073524, 51.080531], [14.082152, 51.079171], [14.082502, 51.078916], [14.08326, 51.078486], [14.086008, 51.081326], [14.08478, 51.08471], [14.092102, 51.089402], [14.094554, 51.092037], [14.094876, 51.092886], [14.094865, 51.092914], [14.09333, 51.100626], [14.093633, 51.101829], [14.093264, 51.103684], [14.09222, 51.10425], [14.091813, 51.104231], [14.091699, 51.104222], [14.090934, 51.104137], [14.087227, 51.103495], [14.087226, 51.103495], [14.08523, 51.101972], [14.078796, 51.098379], [14.076582, 51.097565], [14.073017, 51.096246], [14.069455, 51.094928], [14.065976, 51.093641], [14.057781, 51.095934], [14.057327, 51.096265], [14.05662, 51.096814], [14.052476, 51.098878], [14.050163, 51.099248], [14.048737, 51.099264], [14.042696, 51.10207], [14.041323, 51.105399], [14.041726, 51.109241], [14.041166, 51.110677], [14.034788, 51.116086], [14.031644, 51.114334], [14.032546, 51.111475], [14.032621, 51.110692], [14.026946, 51.104077], [14.025257, 51.102733], [14.020522, 51.100194], [14.013567, 51.099706], [14.007367, 51.095875], [13.998821, 51.095519], [13.997381, 51.096852], [13.997185, 51.097074], [13.994855, 51.099545], [13.993668, 51.099811], [13.993079, 51.099771], [13.992926, 51.099738], [13.992243, 51.099138], [13.9922, 51.099081], [13.993, 51.095751], [13.994293, 51.093316], [13.99479, 51.09291], [13.994941, 51.092798], [13.995388, 51.092506], [14.000427, 51.089542], [14.00121, 51.089354], [14.003206, 51.089766], [14.00921, 51.08742], [14.009824, 51.087171], [14.011255, 51.086626], [14.011767, 51.086318], [14.014598, 51.08065], [14.009003, 51.075749], [14.005588, 51.075208], [14.003844, 51.075076], [14.001417, 51.07473], [13.999972, 51.07256], [13.996065, 51.064506], [13.991371, 51.069261], [13.989493, 51.069971], [13.987294, 51.070769], [13.986939, 51.070812], [13.982294, 51.066381], [13.975536, 51.065897], [13.970642, 51.066099], [13.96711, 51.06606], [13.965105, 51.066097], [13.963103, 51.066134], [13.961187, 51.066172], [13.959263, 51.06621], [13.958041, 51.066228], [13.956113, 51.066171], [13.953611, 51.066053], [13.94885, 51.064012], [13.942116, 51.065202], [13.940649, 51.06617], [13.940231, 51.066405], [13.940019, 51.066475], [13.936601, 51.074559], [13.937179, 51.075482], [13.938429, 51.079354], [13.938479, 51.079503], [13.939448, 51.082539], [13.939445, 51.083754], [13.939327, 51.086673], [13.940384, 51.093946], [13.940909, 51.096011], [13.941208, 51.097573], [13.941324, 51.098548], [13.941367, 51.099425], [13.941324, 51.10044], [13.941183, 51.101528], [13.940902, 51.105773], [13.938773, 51.108036], [13.935473, 51.106598], [13.936262, 51.104545], [13.937375, 51.096697], [13.936896, 51.094839], [13.935876, 51.090454], [13.928316, 51.087528], [13.927649, 51.087039], [13.92167, 51.082368], [13.921106, 51.078813], [13.921065, 51.072086], [13.921825, 51.069022], [13.916714, 51.062812], [13.912878, 51.063666], [13.908914, 51.064543], [13.906543, 51.064893], [13.901529, 51.064756], [13.897884, 51.067744], [13.895389, 51.069149], [13.893504, 51.069409], [13.891069, 51.069485], [13.889698, 51.068498], [13.885703, 51.064418], [13.885604, 51.064316], [13.885528, 51.064231], [13.883605, 51.059043], [13.883898, 51.058164], [13.884252, 51.05725], [13.884889, 51.056652], [13.885978, 51.055226], [13.88987, 51.055736], [13.891101, 51.055553], [13.896301, 51.052695], [13.899534, 51.047112], [13.898305, 51.042739], [13.897946, 51.042136], [13.897629, 51.041278], [13.897286, 51.040546], [13.892063, 51.036461], [13.88681, 51.039178], [13.886087, 51.03958], [13.885612, 51.039754], [13.880205, 51.044863], [13.878815, 51.045459], [13.877893, 51.045701], [13.872061, 51.048734], [13.871167, 51.049509], [13.870663, 51.049871], [13.870135, 51.050194], [13.863777, 51.049839], [13.862747, 51.049662], [13.859234, 51.047894], [13.858326, 51.046428], [13.85265, 51.040443], [13.849743, 51.041926], [13.848517, 51.042225], [13.848098, 51.042308], [13.847546, 51.042386], [13.846918, 51.042438], [13.84641, 51.042442], [13.837984, 51.043637], [13.829338, 51.046007], [13.829151, 51.046228], [13.828647, 51.046511], [13.828587, 51.046533], [13.824904, 51.048735], [13.827467, 51.056478], [13.826707, 51.059997], [13.825658, 51.060045], [13.825424, 51.060033], [13.824636, 51.059861], [13.823756, 51.059313], [13.81677, 51.059542], [13.814554, 51.062532], [13.812326, 51.064747], [13.811887, 51.065074], [13.811407, 51.065301], [13.811315, 51.06533], [13.811115, 51.065288], [13.81071, 51.065126], [13.810268, 51.064888], [13.809936, 51.064512], [13.807456, 51.061093], [13.79935, 51.05773], [13.798568, 51.058002], [13.797404, 51.058346], [13.79676, 51.058521], [13.79571, 51.0588], [13.795245, 51.058906], [13.794779, 51.059003], [13.793967, 51.059153], [13.79283, 51.059362], [13.788946, 51.067265], [13.788892, 51.067589], [13.787574, 51.068815], [13.78655, 51.069211], [13.785901, 51.069453], [13.785448, 51.06959], [13.777455, 51.071972], [13.772921, 51.072691], [13.770291, 51.07356], [13.770085, 51.07363], [13.768373, 51.074204], [13.76797, 51.07434], [13.766242, 51.07492], [13.766155, 51.074949], [13.766155, 51.074949], [13.765937, 51.075022], [13.76431, 51.074526], [13.763255, 51.074281], [13.755427, 51.077564], [13.755422, 51.077565], [13.753503, 51.077133], [13.751552, 51.076285], [13.747183, 51.07464], [13.745125, 51.074146], [13.740136, 51.075542], [13.744308, 51.083378], [13.745622, 51.084609], [13.750919, 51.086207], [13.751165, 51.086306], [13.750167, 51.092655], [13.750112, 51.092676], [13.749207, 51.092768], [13.749146, 51.092756], [13.748447, 51.09258], [13.740454, 51.093378], [13.73936, 51.098474], [13.740467, 51.101899], [13.739987, 51.102986], [13.741682, 51.109617], [13.749244, 51.108123], [13.749998, 51.107748], [13.750384, 51.107687], [13.751306, 51.107985], [13.757916, 51.110365], [13.758708, 51.110459], [13.759099, 51.110536], [13.76421, 51.114152], [13.768843, 51.114957], [13.771417, 51.117045], [13.772097, 51.119376], [13.775321, 51.125928], [13.774493, 51.129431], [13.773314, 51.12994], [13.773123, 51.12987], [13.769352, 51.129212], [13.76223, 51.133058], [13.761288, 51.13506], [13.764251, 51.142371], [13.76504, 51.142785], [13.768815, 51.14459], [13.772606, 51.146403], [13.773641, 51.146913], [13.774943, 51.147612], [13.776688, 51.148692], [13.779458, 51.150525], [13.782443, 51.152506], [13.784385, 51.153803], [13.785752, 51.154695], [13.786995, 51.155458], [13.789294, 51.156833], [13.791593, 51.158209], [13.793892, 51.159584], [13.796229, 51.160983], [13.800023, 51.163382], [13.803812, 51.165778], [13.806007, 51.167155], [13.81384, 51.170032], [13.81655, 51.170338], [13.817186, 51.17037], [13.819949, 51.170343], [13.821474, 51.170215], [13.821776, 51.173802], [13.820251, 51.173931], [13.818551, 51.173995], [13.817116, 51.17397], [13.816371, 51.173933], [13.813307, 51.173592], [13.812753, 51.173495], [13.811352, 51.173198], [13.809885, 51.172807], [13.808428, 51.172331], [13.806516, 51.171536], [13.805666, 51.171116], [13.805125, 51.170819], [13.804162, 51.170246], [13.801899, 51.168828], [13.798099, 51.166425], [13.794305, 51.164026], [13.792044, 51.162674], [13.789745, 51.161298], [13.787446, 51.159923], [13.785147, 51.158547], [13.783859, 51.157757], [13.782419, 51.156819], [13.780443, 51.1555], [13.773308, 51.157016], [13.768647, 51.162386], [13.767401, 51.164448], [13.764799, 51.165782], [13.763707, 51.166212], [13.76351, 51.166014], [13.759382, 51.163442], [13.7518, 51.168117], [13.751502, 51.169208], [13.750998, 51.17056], [13.750097, 51.172766], [13.74924, 51.174855], [13.748692, 51.176969], [13.74847, 51.179204], [13.748306, 51.180353], [13.748045, 51.181457], [13.747684, 51.18255], [13.74673, 51.184853], [13.745776, 51.187156], [13.744822, 51.18946], [13.742919, 51.194773], [13.742633, 51.195458], [13.740227, 51.203985], [13.736684, 51.20335], [13.737152, 51.200736], [13.73762, 51.198121], [13.73789, 51.197064], [13.738275, 51.195884], [13.739044, 51.194014], [13.739767, 51.192269], [13.740541, 51.190389], [13.741496, 51.188082], [13.74245, 51.185779], [13.743404, 51.183476], [13.744358, 51.181172], [13.744902, 51.178718], [13.74511, 51.176614], [13.745303, 51.175495], [13.74549, 51.174743], [13.74582, 51.173728], [13.746764, 51.171405], [13.747665, 51.169199], [13.742319, 51.163441], [13.736594, 51.164678], [13.735492, 51.164886], [13.734598, 51.163889], [13.734387, 51.16146], [13.734808, 51.161324], [13.735143, 51.161237], [13.735556, 51.161159], [13.736301, 51.16109], [13.736807, 51.161046], [13.74171, 51.159893], [13.74204, 51.159794], [13.742813, 51.159528], [13.743663, 51.159217], [13.745852, 51.150954], [13.745567, 51.150485], [13.745275, 51.149938], [13.74488, 51.148973], [13.738835, 51.142816], [13.738205, 51.142462], [13.737856, 51.142271], [13.737494, 51.142015], [13.73717, 51.141727], [13.729426, 51.13961], [13.727255, 51.140281], [13.726094, 51.14061], [13.723598, 51.141405], [13.723569, 51.141415], [13.723221, 51.141377], [13.722036, 51.141229], [13.721791, 51.140994], [13.721378, 51.140391], [13.721167, 51.139967], [13.722447, 51.137994], [13.717491, 51.130916], [13.71618, 51.131231], [13.715704, 51.131315], [13.714304, 51.130345], [13.714261, 51.130277], [13.71508, 51.127769], [13.711356, 51.120788], [13.707565, 51.120034], [13.706931, 51.12009], [13.706625, 51.120087], [13.700509, 51.122124], [13.698641, 51.124459], [13.698555, 51.124448], [13.690498, 51.123], [13.68894, 51.122385], [13.686485, 51.120736], [13.687076, 51.118028], [13.687526, 51.11729], [13.681881, 51.110473], [13.68129, 51.110384], [13.680666, 51.110236], [13.673485, 51.105624], [13.666614, 51.101413], [13.662861, 51.100468], [13.659393, 51.100202], [13.65314, 51.0998], [13.652336, 51.099423], [13.652147, 51.09922], [13.645, 51.094396], [13.637483, 51.093564], [13.636182, 51.093099], [13.635709, 51.092909], [13.62996, 51.090155], [13.625491, 51.090474], [13.624721, 51.090593], [13.621445, 51.0915], [13.621416, 51.091501], [13.618166, 51.090439], [13.618985, 51.086933], [13.622582, 51.086137], [13.625744, 51.082001], [13.623082, 51.075767], [13.616131, 51.07369], [13.611606, 51.075095], [13.60973, 51.080577], [13.608244, 51.081197], [13.605429, 51.082939], [13.604093, 51.083798], [13.603169, 51.083799], [13.603138, 51.083799], [13.602147, 51.083816], [13.601742, 51.083807], [13.601523, 51.082796], [13.598005, 51.076775], [13.595617, 51.074006], [13.594652, 51.073303], [13.585782, 51.074476], [13.584421, 51.083267], [13.584735, 51.083636], [13.584401, 51.0848], [13.582802, 51.08567], [13.581997, 51.085972], [13.580437, 51.086225], [13.579637, 51.082715], [13.578708, 51.080683], [13.576604, 51.076687], [13.571474, 51.072555], [13.566496, 51.068854], [13.56488, 51.067822], [13.562636, 51.066694], [13.560393, 51.065566], [13.552627, 51.067221], [13.552825, 51.073053], [13.5553, 51.07569], [13.555446, 51.076386], [13.555713, 51.077259], [13.556764, 51.082073], [13.555328, 51.085374], [13.55359, 51.086183], [13.551471, 51.08601], [13.550861, 51.085942], [13.550199, 51.085842], [13.54942, 51.085697], [13.543549, 51.083362], [13.537449, 51.081279], [13.53694, 51.081247], [13.535354, 51.080816], [13.528088, 51.084292], [13.526798, 51.087943], [13.526676, 51.088346], [13.52628, 51.093332], [13.526286, 51.09344], [13.525259, 51.094673], [13.523288, 51.097081], [13.521947, 51.09763], [13.521628, 51.097575], [13.521429, 51.09753], [13.520375, 51.096884], [13.518673, 51.095984], [13.517106, 51.095082], [13.508869, 51.093735], [13.500801, 51.0957], [13.49803, 51.103394], [13.498065, 51.104371], [13.498536, 51.107692], [13.49572, 51.109934], [13.486929, 51.108132], [13.485683, 51.105967], [13.479206, 51.101185], [13.477832, 51.10123], [13.477451, 51.10119], [13.476215, 51.099182], [13.476209, 51.096981], [13.476812, 51.095979], [13.477739, 51.09593], [13.482292, 51.096815], [13.484232, 51.096788], [13.485795, 51.097018], [13.486906, 51.097108], [13.491923, 51.096424], [13.495704, 51.091438], [13.497007, 51.086281], [13.490157, 51.080838], [13.489788, 51.080776], [13.489181, 51.08063], [13.48845, 51.080493], [13.487345, 51.080307], [13.482519, 51.081039], [13.4816, 51.081272], [13.481266, 51.081317], [13.480185, 51.080304], [13.479756, 51.077057], [13.481211, 51.073764], [13.487089, 51.070511], [13.487483, 51.070196], [13.488113, 51.069742], [13.485218, 51.061239], [13.482573, 51.061193], [13.479475, 51.06119], [13.478043, 51.061214], [13.476406, 51.061254], [13.473538, 51.061369], [13.471557, 51.061476], [13.467564, 51.061727], [13.46357, 51.061978], [13.459576, 51.062229], [13.455523, 51.062482], [13.453733, 51.062535], [13.452844, 51.062528], [13.451187, 51.062453], [13.449616, 51.06231], [13.448008, 51.062075], [13.44712, 51.061911], [13.446232, 51.061722], [13.444981, 51.061405], [13.442849, 51.060796], [13.442159, 51.060608], [13.434865, 51.059661], [13.426987, 51.060737], [13.424744, 51.061416], [13.423024, 51.061895], [13.422241, 51.062093], [13.421476, 51.06226], [13.420614, 51.062422], [13.419762, 51.062556], [13.418822, 51.062675], [13.418023, 51.062746], [13.417063, 51.062802], [13.415939, 51.062827], [13.415002, 51.062821], [13.414256, 51.062797], [13.412248, 51.062664], [13.410674, 51.062522], [13.408684, 51.06229], [13.406543, 51.061988], [13.404449, 51.061644], [13.401558, 51.061146], [13.399317, 51.060801], [13.391576, 51.060379], [13.390299, 51.060432], [13.388293, 51.060571], [13.386252, 51.060712], [13.385554, 51.060746], [13.384733, 51.060764], [13.383839, 51.06076], [13.379902, 51.060444], [13.378844, 51.060268], [13.377521, 51.059995], [13.376679, 51.059786], [13.37588, 51.059556], [13.374839, 51.059226], [13.373878, 51.058875], [13.372864, 51.058463], [13.370245, 51.057332], [13.369205, 51.056994], [13.363603, 51.056333], [13.359966, 51.056722], [13.356389, 51.057187], [13.355283, 51.057264], [13.354458, 51.057205], [13.352298, 51.057424], [13.351523, 51.057478], [13.350949, 51.057521], [13.349925, 51.057625], [13.348727, 51.057793], [13.344724, 51.060065], [13.342511, 51.064226], [13.346685, 51.069244], [13.349119, 51.069276], [13.349072, 51.072876], [13.344138, 51.078501], [13.342837, 51.080702], [13.342583, 51.080792], [13.340293, 51.080368], [13.340244, 51.080344], [13.339188, 51.077758], [13.339181, 51.077559], [13.335676, 51.069561], [13.33457, 51.069586], [13.333457, 51.06965], [13.332377, 51.069763], [13.331524, 51.0699], [13.327809, 51.072104], [13.326445, 51.073143], [13.325893, 51.073081], [13.318218, 51.07314], [13.315871, 51.073966], [13.314198, 51.074622], [13.312797, 51.075242], [13.311901, 51.075676], [13.311076, 51.0761], [13.310219, 51.076565], [13.308379, 51.077633], [13.306516, 51.078715], [13.305888, 51.079066], [13.30511, 51.07947], [13.304267, 51.079889], [13.303323, 51.080326], [13.302504, 51.08067], [13.301695, 51.080981], [13.30076, 51.081305], [13.299674, 51.081648], [13.298528, 51.081965], [13.297802, 51.082147], [13.296355, 51.08246], [13.295585, 51.082604], [13.294089, 51.082847], [13.292362, 51.083091], [13.290064, 51.083377], [13.287519, 51.083696], [13.285598, 51.083953], [13.283751, 51.084231], [13.276358, 51.087052], [13.275531, 51.08744], [13.274855, 51.087671], [13.267982, 51.089974], [13.267526, 51.090126], [13.259614, 51.089665], [13.257125, 51.090024], [13.254594, 51.090339], [13.251662, 51.090656], [13.249317, 51.090879], [13.246971, 51.091102], [13.244626, 51.091324], [13.241447, 51.091632], [13.24108, 51.088051]]], "type": "Polygon"}}], "metadata": {"attribution": "openrouteservice.org | OpenStreetMap contributors", "service": "isochrones", "timestamp": 1785652320114, "query": {"profile": "driving-car", "profileName": "driving-car", "locations": [[14.0307, 50.6607]], "range": [3600.0], "range_type": "time"}, "engine": {"version": "9.9.0", "build_date": "2026-06-12T10:08:58Z", "graph_date": "2026-07-26T12:04:00Z", "osm_date": "2026-07-20T00:00:00Z"}}}