{"type": "FeatureCollection", "bbox": [16.178076, 48.925863, 17.059766, 49.410687], "features": [{"type": "Feature", "properties": {"group_index": 0, "value": 1800.0, "center": [16.610610483276755, 49.202601110891734]}, "geometry": {"coordinates": [[[16.178076, 49.291164], [16.183807, 49.288024], [16.18627, 49.286625], [16.189394, 49.28483], [16.192531, 49.283108], [16.194581, 49.282085], [16.196362, 49.281263], [16.197854, 49.280628], [16.199419, 49.280001], [16.200413, 49.279632], [16.203601, 49.278549], [16.205894, 49.277887], [16.20755, 49.277446], [16.208906, 49.27712], [16.211032, 49.276661], [16.214096, 49.276057], [16.216418, 49.27565], [16.22055, 49.271063], [16.218969, 49.266969], [16.221406, 49.264318], [16.229474, 49.266742], [16.231524, 49.268111], [16.23876, 49.270658], [16.240436, 49.27046], [16.243864, 49.27034], [16.24687, 49.270205], [16.249854, 49.270071], [16.252838, 49.269936], [16.255822, 49.269802], [16.25897, 49.269635], [16.261561, 49.26948], [16.263492, 49.269351], [16.265435, 49.269221], [16.269065, 49.268967], [16.2727, 49.268713], [16.275012, 49.268554], [16.277322, 49.268395], [16.278794, 49.268281], [16.279908, 49.268175], [16.282073, 49.267896], [16.283145, 49.267721], [16.284185, 49.26753], [16.285724, 49.267203], [16.286958, 49.266904], [16.287984, 49.266629], [16.295336, 49.26263], [16.296811, 49.261131], [16.302373, 49.254769], [16.302347, 49.250521], [16.304748, 49.247839], [16.309012, 49.246589], [16.317619, 49.248169], [16.318638, 49.248566], [16.32057, 49.250231], [16.329143, 49.250796], [16.334062, 49.244306], [16.336001, 49.243178], [16.342541, 49.237571], [16.348558, 49.236659], [16.351014, 49.234334], [16.351549, 49.233922], [16.352853, 49.23305], [16.355174, 49.2315], [16.356884, 49.229832], [16.358411, 49.228251], [16.356479, 49.219468], [16.352457, 49.217168], [16.351035, 49.216332], [16.350345, 49.215653], [16.350164, 49.215384], [16.353154, 49.213378], [16.351157, 49.205929], [16.348414, 49.205515], [16.347928, 49.205345], [16.343351, 49.205511], [16.337014, 49.200167], [16.333572, 49.199934], [16.330953, 49.20059], [16.33021, 49.199919], [16.330006, 49.199716], [16.329656, 49.197232], [16.330697, 49.19683], [16.331343, 49.196646], [16.331865, 49.19655], [16.333041, 49.196374], [16.334737, 49.196173], [16.337789, 49.189784], [16.334003, 49.186869], [16.333606, 49.186802], [16.333139, 49.186649], [16.3324, 49.186303], [16.333925, 49.183042], [16.33616, 49.182614], [16.336535, 49.182536], [16.336934, 49.182499], [16.33745, 49.182525], [16.338211, 49.182673], [16.338819, 49.182826], [16.339224, 49.182972], [16.342378, 49.184072], [16.342792, 49.184145], [16.343202, 49.184244], [16.35178, 49.182661], [16.352214, 49.182354], [16.354155, 49.180619], [16.355677, 49.173763], [16.353097, 49.170244], [16.352693, 49.169285], [16.352595, 49.16668], [16.353936, 49.166491], [16.35553, 49.167068], [16.364081, 49.167919], [16.365305, 49.166813], [16.367498, 49.163958], [16.368491, 49.162805], [16.369231, 49.162166], [16.370081, 49.161487], [16.371193, 49.160814], [16.373066, 49.159855], [16.371659, 49.151251], [16.370507, 49.147841], [16.373175, 49.146939], [16.375282, 49.146228], [16.376696, 49.145837], [16.377764, 49.145511], [16.380897, 49.142661], [16.376312, 49.135049], [16.37418, 49.133927], [16.373658, 49.133756], [16.372479, 49.1333], [16.371152, 49.133044], [16.370168, 49.132891], [16.367477, 49.132494], [16.366983, 49.132505], [16.365799, 49.132653], [16.365103, 49.132779], [16.364224, 49.133017], [16.363285, 49.129541], [16.364164, 49.129304], [16.365131, 49.129116], [16.366527, 49.128934], [16.366997, 49.128895], [16.367521, 49.128894], [16.370675, 49.129327], [16.371703, 49.129486], [16.376197, 49.129052], [16.379536, 49.122652], [16.379366, 49.121706], [16.382854, 49.120816], [16.385359, 49.125096], [16.385905, 49.125892], [16.386334, 49.12665], [16.392184, 49.132201], [16.399772, 49.132003], [16.401567, 49.131135], [16.402392, 49.130761], [16.403149, 49.13049], [16.408742, 49.128078], [16.412021, 49.126385], [16.412372, 49.126197], [16.41403, 49.126554], [16.414248, 49.126814], [16.41407, 49.129371], [16.413719, 49.129559], [16.410393, 49.131276], [16.407046, 49.133534], [16.404647, 49.136219], [16.39764, 49.141253], [16.397069, 49.144579], [16.40094, 49.151539], [16.402373, 49.153009], [16.403714, 49.154114], [16.40423, 49.154901], [16.404541, 49.155496], [16.404728, 49.156343], [16.404631, 49.157477], [16.404595, 49.158344], [16.4041, 49.159865], [16.404008, 49.161377], [16.404052, 49.161817], [16.404475, 49.163531], [16.411513, 49.167891], [16.413722, 49.165448], [16.414627, 49.163245], [16.415092, 49.160089], [16.415317, 49.158354], [16.415736, 49.157585], [16.4163, 49.156568], [16.416788, 49.156158], [16.421488, 49.153265], [16.422968, 49.152266], [16.423579, 49.151829], [16.424025, 49.151649], [16.424661, 49.151533], [16.428243, 49.15066], [16.431107, 49.149162], [16.433263, 49.152044], [16.432884, 49.152377], [16.433874, 49.161197], [16.434395, 49.161255], [16.435202, 49.161403], [16.439559, 49.160064], [16.4401, 49.159498], [16.441553, 49.158465], [16.443147, 49.157215], [16.445225, 49.15502], [16.445803, 49.154389], [16.446522, 49.153846], [16.447289, 49.153444], [16.448094, 49.153143], [16.448868, 49.152943], [16.455036, 49.15229], [16.456629, 49.151638], [16.459497, 49.15008], [16.460404, 49.149524], [16.462766, 49.141162], [16.462761, 49.14015], [16.463012, 49.139352], [16.463507, 49.138557], [16.464115, 49.137953], [16.464738, 49.137535], [16.467504, 49.136371], [16.469397, 49.135855], [16.474432, 49.13269], [16.47631, 49.129932], [16.47838, 49.129099], [16.478512, 49.129137], [16.479235, 49.130353], [16.479653, 49.131267], [16.479597, 49.132355], [16.479508, 49.132905], [16.478866, 49.134984], [16.485764, 49.139804], [16.487071, 49.138773], [16.487483, 49.13828], [16.48795, 49.137933], [16.488799, 49.137208], [16.489843, 49.136456], [16.490426, 49.13623], [16.490833, 49.136047], [16.492446, 49.135376], [16.495975, 49.136089], [16.495926, 49.136536], [16.495488, 49.137736], [16.496216, 49.144006], [16.503015, 49.145431], [16.505674, 49.144116], [16.5062, 49.144655], [16.506598, 49.146024], [16.513302, 49.150539], [16.51469, 49.150385], [16.518302, 49.148534], [16.521271, 49.147918], [16.526773, 49.143434], [16.525627, 49.13746], [16.522432, 49.13527], [16.524133, 49.129997], [16.52415, 49.128778], [16.524013, 49.12385], [16.519234, 49.116682], [16.514745, 49.115702], [16.510028, 49.119341], [16.509415, 49.119785], [16.507091, 49.120825], [16.50562, 49.117539], [16.501495, 49.111057], [16.499157, 49.110987], [16.498631, 49.110853], [16.496531, 49.110455], [16.495869, 49.110398], [16.495271, 49.110305], [16.493585, 49.11001], [16.492292, 49.109896], [16.489402, 49.10958], [16.488692, 49.109477], [16.48673, 49.109141], [16.487338, 49.105593], [16.4893, 49.105929], [16.489913, 49.106016], [16.492978, 49.106031], [16.494885, 49.10653], [16.496069, 49.106794], [16.496814, 49.106866], [16.498061, 49.106888], [16.498346, 49.106907], [16.498682, 49.106959], [16.499074, 49.107071], [16.501332, 49.107461], [16.505349, 49.100161], [16.503664, 49.096979], [16.504172, 49.096711], [16.505075, 49.096272], [16.510422, 49.098663], [16.51308, 49.101018], [16.518338, 49.106284], [16.523249, 49.102075], [16.523715, 49.099642], [16.526259, 49.095926], [16.527024, 49.09776], [16.527251, 49.100319], [16.527864, 49.105802], [16.534736, 49.108764], [16.538366, 49.106405], [16.54164, 49.107901], [16.545809, 49.108938], [16.546225, 49.108949], [16.546951, 49.109048], [16.55016, 49.109064], [16.55534, 49.109095], [16.557405, 49.109202], [16.561306, 49.109018], [16.561982, 49.109232], [16.569298, 49.105727], [16.569498, 49.103834], [16.569765, 49.102566], [16.569837, 49.101337], [16.569749, 49.100316], [16.569753, 49.0943], [16.569534, 49.093541], [16.569147, 49.091923], [16.568015, 49.083293], [16.564599, 49.082725], [16.558428, 49.086032], [16.556815, 49.088314], [16.556587, 49.088914], [16.556095, 49.089864], [16.555598, 49.090384], [16.555192, 49.090702], [16.554969, 49.090827], [16.554747, 49.090874], [16.551328, 49.091059], [16.544733, 49.09018], [16.542122, 49.091514], [16.540998, 49.092036], [16.53913, 49.092978], [16.53751, 49.089763], [16.538454, 49.084653], [16.536029, 49.076078], [16.535693, 49.07584], [16.533266, 49.074666], [16.532425, 49.07435], [16.524975, 49.078794], [16.523303, 49.077864], [16.514631, 49.079334], [16.514332, 49.079082], [16.514002, 49.078771], [16.512343, 49.077146], [16.510695, 49.075531], [16.504929, 49.074615], [16.500203, 49.079981], [16.496604, 49.080017], [16.489484, 49.079172], [16.488128, 49.075837], [16.489733, 49.074684], [16.492836, 49.072674], [16.493108, 49.072857], [16.500836, 49.072147], [16.50228, 49.066059], [16.501424, 49.061924], [16.499315, 49.059006], [16.498026, 49.056748], [16.489131, 49.057023], [16.489017, 49.057104], [16.488747, 49.057196], [16.487779, 49.057488], [16.487575, 49.057412], [16.481904, 49.056736], [16.481476, 49.056628], [16.480525, 49.054996], [16.480556, 49.054756], [16.48235, 49.053136], [16.482778, 49.053243], [16.490813, 49.049272], [16.491561, 49.048745], [16.496402, 49.04462], [16.501047, 49.047106], [16.508189, 49.048377], [16.51238, 49.046441], [16.516062, 49.042242], [16.517693, 49.041781], [16.51808, 49.041676], [16.519636, 49.04181], [16.526362, 49.036985], [16.52627, 49.035187], [16.526348, 49.034972], [16.526612, 49.034315], [16.526834, 49.034082], [16.527432, 49.033548], [16.529031, 49.033789], [16.529367, 49.033828], [16.533204, 49.034932], [16.536195, 49.035627], [16.542881, 49.031354], [16.543566, 49.028591], [16.544462, 49.025094], [16.545347, 49.021636], [16.545764, 49.019836], [16.546166, 49.018107], [16.546516, 49.016266], [16.546854, 49.014491], [16.541327, 49.008853], [16.538487, 49.010531], [16.537695, 49.011079], [16.536133, 49.009257], [16.535979, 49.009105], [16.535647, 49.008119], [16.536331, 49.007475], [16.539664, 49.004219], [16.542865, 49.00109], [16.541733, 48.993951], [16.536083, 48.993814], [16.532013, 48.995385], [16.529682, 48.99442], [16.527738, 48.99374], [16.526289, 48.984949], [16.526025, 48.983145], [16.526348, 48.981918], [16.52652, 48.973271], [16.525359, 48.972529], [16.518127, 48.974089], [16.514676, 48.973063], [16.508846, 48.971969], [16.504314, 48.97446], [16.497503, 48.97554], [16.496448, 48.975866], [16.495385, 48.972427], [16.498652, 48.969881], [16.50658, 48.967709], [16.511793, 48.960773], [16.513264, 48.957487], [16.520235, 48.954679], [16.523683, 48.955716], [16.52939, 48.962012], [16.531233, 48.963255], [16.531271, 48.963367], [16.530215, 48.965516], [16.533393, 48.973214], [16.534647, 48.974036], [16.535597, 48.974706], [16.536553, 48.975419], [16.537535, 48.976194], [16.538277, 48.97681], [16.53931, 48.977714], [16.540601, 48.978968], [16.541228, 48.979618], [16.543028, 48.981958], [16.543945, 48.983118], [16.551134, 48.986987], [16.554729, 48.987179], [16.561171, 48.986055], [16.563832, 48.98848], [16.56962, 48.995012], [16.569931, 48.995243], [16.571805, 48.996713], [16.572682, 48.997534], [16.57727, 49.003197], [16.578748, 49.005494], [16.578426, 49.006606], [16.577201, 49.008744], [16.573215, 49.00827], [16.570385, 49.003237], [16.565138, 49.002293], [16.558834, 49.003415], [16.558388, 49.008735], [16.556221, 49.009016], [16.550573, 49.015061], [16.550289, 49.016652], [16.54986, 49.018847], [16.549438, 49.020668], [16.549007, 49.02253], [16.548115, 49.026013], [16.547226, 49.029481], [16.546558, 49.032182], [16.552459, 49.037959], [16.557711, 49.031783], [16.557714, 49.026304], [16.557776, 49.026269], [16.558239, 49.02604], [16.561512, 49.021506], [16.562997, 49.019885], [16.563635, 49.019161], [16.564248, 49.018856], [16.564702, 49.018728], [16.565344, 49.018504], [16.567242, 49.021007], [16.567599, 49.021394], [16.571714, 49.024667], [16.573888, 49.02555], [16.574378, 49.025716], [16.573223, 49.029126], [16.580311, 49.033525], [16.583397, 49.031672], [16.589834, 49.033267], [16.596417, 49.033977], [16.60001, 49.034209], [16.608114, 49.03436], [16.615088, 49.03681], [16.618619, 49.037512], [16.619169, 49.041732], [16.625765, 49.043082], [16.627958, 49.043107], [16.631919, 49.03626], [16.632757, 49.036214], [16.633272, 49.036227], [16.634368, 49.036364], [16.635257, 49.036536], [16.643954, 49.03498], [16.644904, 49.034806], [16.645557, 49.03492], [16.648098, 49.036849], [16.654738, 49.036658], [16.656844, 49.035563], [16.660211, 49.035047], [16.668819, 49.032969], [16.669167, 49.032903], [16.670953, 49.032643], [16.674308, 49.032928], [16.682094, 49.029427], [16.68259, 49.027794], [16.683027, 49.02625], [16.683823, 49.023103], [16.684423, 49.020087], [16.684832, 49.017481], [16.685067, 49.015548], [16.685192, 49.014206], [16.685379, 49.011852], [16.685514, 49.008986], [16.685598, 49.006782], [16.685689, 49.004609], [16.685824, 49.002529], [16.686072, 49.00034], [16.686248, 48.999124], [16.6864, 48.998314], [16.687066, 48.995336], [16.687919, 48.992663], [16.688606, 48.9908], [16.689242, 48.989299], [16.689674, 48.988372], [16.690436, 48.986859], [16.690861, 48.986059], [16.691938, 48.984199], [16.693532, 48.981771], [16.694454, 48.980504], [16.695324, 48.9794], [16.696619, 48.977855], [16.697985, 48.976231], [16.698917, 48.975245], [16.700038, 48.974104], [16.701381, 48.972814], [16.702292, 48.971983], [16.703296, 48.971106], [16.704309, 48.970259], [16.706893, 48.968225], [16.708849, 48.966753], [16.711688, 48.964663], [16.712435, 48.964096], [16.71361, 48.963158], [16.714389, 48.962515], [16.717636, 48.95953], [16.719535, 48.957616], [16.720873, 48.956314], [16.724983, 48.948666], [16.726675, 48.944515], [16.72698, 48.944221], [16.731725, 48.94215], [16.738853, 48.938715], [16.739652, 48.937676], [16.740093, 48.937187], [16.740615, 48.936651], [16.741662, 48.935681], [16.742376, 48.93509], [16.743358, 48.934353], [16.744364, 48.933655], [16.746292, 48.932423], [16.747246, 48.931852], [16.749243, 48.930706], [16.755072, 48.927348], [16.757434, 48.925863], [16.759416, 48.928867], [16.758692, 48.929356], [16.756944, 48.930423], [16.755275, 48.931438], [16.753749, 48.932319], [16.750993, 48.933852], [16.749038, 48.934974], [16.748141, 48.935511], [16.746304, 48.936688], [16.745412, 48.937309], [16.74088, 48.942654], [16.740023, 48.944901], [16.739556, 48.945969], [16.73905, 48.946882], [16.738705, 48.947423], [16.738254, 48.948051], [16.734804, 48.952655], [16.734508, 48.953057], [16.733958, 48.953547], [16.733458, 48.953822], [16.733047, 48.953971], [16.724971, 48.957713], [16.724126, 48.958412], [16.722784, 48.959652], [16.720867, 48.96159], [16.718162, 48.964018], [16.716733, 48.965248], [16.715902, 48.965935], [16.714682, 48.966909], [16.713863, 48.967531], [16.710984, 48.969652], [16.709058, 48.971101], [16.706536, 48.973088], [16.705606, 48.973866], [16.704662, 48.974693], [16.703807, 48.975474], [16.702533, 48.976699], [16.701487, 48.977767], [16.699378, 48.980169], [16.698082, 48.981713], [16.696444, 48.983887], [16.694949, 48.986172], [16.693617, 48.988544], [16.691297, 48.993906], [16.689631, 49.000881], [16.689401, 49.002933], [16.689282, 49.004838], [16.689195, 49.006932], [16.689112, 49.009122], [16.688975, 49.012022], [16.688781, 49.01449], [16.688651, 49.015882], [16.688406, 49.017913], [16.687979, 49.020644], [16.687354, 49.023803], [16.686518, 49.02713], [16.686055, 49.028773], [16.685539, 49.030473], [16.68509, 49.031867], [16.684661, 49.033109], [16.683269, 49.036779], [16.682666, 49.038185], [16.688397, 49.044691], [16.688841, 49.044725], [16.691297, 49.044943], [16.693752, 49.04516], [16.696207, 49.045378], [16.701154, 49.044378], [16.7035, 49.043184], [16.705846, 49.04199], [16.707712, 49.041041], [16.709578, 49.040092], [16.71121, 49.043301], [16.717545, 49.048757], [16.718678, 49.048405], [16.72049, 49.047922], [16.72112, 49.047879], [16.72463, 49.04809], [16.724414, 49.051684], [16.71965, 49.051871], [16.71838, 49.052308], [16.716229, 49.053396], [16.713988, 49.054525], [16.711747, 49.055655], [16.708327, 49.062852], [16.708404, 49.066215], [16.708457, 49.068421], [16.70851, 49.07063], [16.708295, 49.071531], [16.70761, 49.072295], [16.70674, 49.072633], [16.701564, 49.077545], [16.705991, 49.084311], [16.70832, 49.084551], [16.710833, 49.084819], [16.718394, 49.083509], [16.72191, 49.078345], [16.722306, 49.075974], [16.723056, 49.073277], [16.723548, 49.071945], [16.724802, 49.068689], [16.728161, 49.069984], [16.726907, 49.073239], [16.726432, 49.074524], [16.727746, 49.082981], [16.731767, 49.087425], [16.731941, 49.087559], [16.730882, 49.090291], [16.730016, 49.096408], [16.729953, 49.100007], [16.736312, 49.104459], [16.739736, 49.105572], [16.744153, 49.105635], [16.746366, 49.105316], [16.746832, 49.105219], [16.748972, 49.104714], [16.749113, 49.104675], [16.749841, 49.104773], [16.749912, 49.104798], [16.751162, 49.10702], [16.751153, 49.107045], [16.753912, 49.115113], [16.757425, 49.114576], [16.758889, 49.117865], [16.762393, 49.125779], [16.762771, 49.12632], [16.762921, 49.127596], [16.763977, 49.130714], [16.765176, 49.132529], [16.773138, 49.135732], [16.774254, 49.137248], [16.779329, 49.140871], [16.785004, 49.136298], [16.78467, 49.132081], [16.78357, 49.128653], [16.784225, 49.128443], [16.788266, 49.132013], [16.792757, 49.125322], [16.797022, 49.118577], [16.797346, 49.114213], [16.79792, 49.111908], [16.798398, 49.111746], [16.799016, 49.111714], [16.800549, 49.11257], [16.809388, 49.111024], [16.811703, 49.11378], [16.819997, 49.117002], [16.820661, 49.116581], [16.822362, 49.115449], [16.824356, 49.118447], [16.829929, 49.123907], [16.833915, 49.121042], [16.834428, 49.119797], [16.834751, 49.119351], [16.835389, 49.118612], [16.838114, 49.120964], [16.841394, 49.128039], [16.847276, 49.128642], [16.850342, 49.126752], [16.850743, 49.126854], [16.851252, 49.126991], [16.852719, 49.127398], [16.859292, 49.130089], [16.860213, 49.130415], [16.862246, 49.131017], [16.864149, 49.131499], [16.868623, 49.132054], [16.87174, 49.13438], [16.878365, 49.129262], [16.879829, 49.125973], [16.883577, 49.12254], [16.889216, 49.117883], [16.890016, 49.1162], [16.891233, 49.112812], [16.893587, 49.111925], [16.896433, 49.11413], [16.897282, 49.115008], [16.896081, 49.118402], [16.897538, 49.124319], [16.89645, 49.12507], [16.895659, 49.125509], [16.895173, 49.125715], [16.894414, 49.125846], [16.893711, 49.125744], [16.886422, 49.130587], [16.885305, 49.133049], [16.888587, 49.139356], [16.892592, 49.138775], [16.892901, 49.13937], [16.893171, 49.140694], [16.898233, 49.14745], [16.899314, 49.147799], [16.900268, 49.148054], [16.900791, 49.148179], [16.901408, 49.148305], [16.902321, 49.148461], [16.902989, 49.148554], [16.903595, 49.148621], [16.909253, 49.1437], [16.908559, 49.140878], [16.908312, 49.136875], [16.908282, 49.136412], [16.909012, 49.135572], [16.911764, 49.135497], [16.91962, 49.137281], [16.920138, 49.137372], [16.921648, 49.137986], [16.923161, 49.139054], [16.929463, 49.14324], [16.934826, 49.142637], [16.935117, 49.142528], [16.938522, 49.140602], [16.938693, 49.140595], [16.947148, 49.143355], [16.948098, 49.143351], [16.949311, 49.143429], [16.950687, 49.143538], [16.950403, 49.147126], [16.945825, 49.149702], [16.94243, 49.150901], [16.934361, 49.14887], [16.931408, 49.149255], [16.92617, 49.153746], [16.926297, 49.157344], [16.924766, 49.165778], [16.924506, 49.16691], [16.923359, 49.168558], [16.920121, 49.170224], [16.919989, 49.170296], [16.913928, 49.17454], [16.91086, 49.175037], [16.909123, 49.175382], [16.908429, 49.175468], [16.906114, 49.175276], [16.903839, 49.175156], [16.900627, 49.182447], [16.901189, 49.183252], [16.903539, 49.18483], [16.904157, 49.185276], [16.907677, 49.188302], [16.910781, 49.190124], [16.909677, 49.192004], [16.905568, 49.192709], [16.906292, 49.201164], [16.907979, 49.20235], [16.909131, 49.202799], [16.911676, 49.204766], [16.913982, 49.206552], [16.917152, 49.209335], [16.919047, 49.211093], [16.920824, 49.212893], [16.922528, 49.2148], [16.924812, 49.217625], [16.925571, 49.218714], [16.926364, 49.219951], [16.927585, 49.222129], [16.928769, 49.224244], [16.931212, 49.227811], [16.934909, 49.231687], [16.936005, 49.232669], [16.93793, 49.234305], [16.940233, 49.23611], [16.941638, 49.237144], [16.942971, 49.238085], [16.944697, 49.239248], [16.945971, 49.240065], [16.948632, 49.241681], [16.950421, 49.242698], [16.952275, 49.243698], [16.953892, 49.244497], [16.955469, 49.245278], [16.95711, 49.246042], [16.958695, 49.24678], [16.960385, 49.247496], [16.962018, 49.248189], [16.963751, 49.248854], [16.971812, 49.250533], [16.972782, 49.25058], [16.973159, 49.250664], [16.973691, 49.250827], [16.974208, 49.25105], [16.982398, 49.254603], [16.98489, 49.25529], [16.985966, 49.255599], [16.98774, 49.256156], [16.989586, 49.256737], [16.992103, 49.257647], [16.995377, 49.259049], [16.997215, 49.259942], [17.000413, 49.261637], [17.001392, 49.262173], [17.002791, 49.262936], [17.005543, 49.2644], [17.00735, 49.265313], [17.009448, 49.266263], [17.017493, 49.268344], [17.017885, 49.268411], [17.018452, 49.268555], [17.019015, 49.268745], [17.027284, 49.27098], [17.028418, 49.271096], [17.029597, 49.271183], [17.030808, 49.271233], [17.031996, 49.27125], [17.033316, 49.271226], [17.035761, 49.271119], [17.036894, 49.271081], [17.038108, 49.271061], [17.039491, 49.271094], [17.040138, 49.271137], [17.041308, 49.271246], [17.045568, 49.272097], [17.046687, 49.272444], [17.047419, 49.27271], [17.048117, 49.27299], [17.050126, 49.273892], [17.052074, 49.274767], [17.059766, 49.276914], [17.05919, 49.280468], [17.058313, 49.280326], [17.056967, 49.280068], [17.056178, 49.279889], [17.05483, 49.279542], [17.054214, 49.279363], [17.05304, 49.278992], [17.052201, 49.278699], [17.050725, 49.278104], [17.048653, 49.277176], [17.046643, 49.276274], [17.046086, 49.276054], [17.045461, 49.275829], [17.044508, 49.275537], [17.040844, 49.274816], [17.039808, 49.274722], [17.039253, 49.274686], [17.038027, 49.27466], [17.036959, 49.274681], [17.035883, 49.274717], [17.033473, 49.274823], [17.027901, 49.281713], [17.027215, 49.285247], [17.025062, 49.292962], [17.02612, 49.294869], [17.027178, 49.296776], [17.02403, 49.298522], [17.022972, 49.296615], [17.021914, 49.294708], [17.020359, 49.291906], [17.018805, 49.289104], [17.018212, 49.287895], [17.017973, 49.287211], [17.017793, 49.286209], [17.016992, 49.282123], [17.016731, 49.280013], [17.01511, 49.271801], [17.008112, 49.269607], [17.005866, 49.268593], [17.003923, 49.267615], [17.0011, 49.266114], [16.999668, 49.265332], [16.998686, 49.264796], [16.995529, 49.263123], [16.98901, 49.266489], [16.991289, 49.271309], [16.991333, 49.271368], [16.989838, 49.272374], [16.98843, 49.273497], [16.986809, 49.273935], [16.980559, 49.276336], [16.980319, 49.276333], [16.977651, 49.275085], [16.975682, 49.27359], [16.975418, 49.273289], [16.975266, 49.270122], [16.971861, 49.264162], [16.969422, 49.262902], [16.966983, 49.261643], [16.958467, 49.262544], [16.957701, 49.26315], [16.955468, 49.260327], [16.952626, 49.254238], [16.949364, 49.25257], [16.946102, 49.250901], [16.938807, 49.250458], [16.935981, 49.251511], [16.934725, 49.248137], [16.933808, 49.244611], [16.935479, 49.241422], [16.933448, 49.23545], [16.932124, 49.234223], [16.93072, 49.232917], [16.929315, 49.231436], [16.928187, 49.230085], [16.927307, 49.22893], [16.926579, 49.227897], [16.925485, 49.226122], [16.924166, 49.223761], [16.916579, 49.228012], [16.916513, 49.228097], [16.914673, 49.228728], [16.914209, 49.228441], [16.911193, 49.226372], [16.90404, 49.223352], [16.900664, 49.219235], [16.90026, 49.218874], [16.897817, 49.214942], [16.896642, 49.213016], [16.88864, 49.209538], [16.88187, 49.214536], [16.881462, 49.215821], [16.882871, 49.22317], [16.882492, 49.225939], [16.882474, 49.226439], [16.883048, 49.231513], [16.882798, 49.232541], [16.882687, 49.232938], [16.881892, 49.234876], [16.88177, 49.235005], [16.874012, 49.237798], [16.871494, 49.235225], [16.869603, 49.229933], [16.86966, 49.229544], [16.870204, 49.227981], [16.863319, 49.222267], [16.86082, 49.219675], [16.852284, 49.219213], [16.85091, 49.219115], [16.849411, 49.218547], [16.849403, 49.218539], [16.849254, 49.21586], [16.849648, 49.215625], [16.851485, 49.214736], [16.852166, 49.214682], [16.856367, 49.213431], [16.858938, 49.212725], [16.859437, 49.212615], [16.860058, 49.212563], [16.861112, 49.212692], [16.865079, 49.211261], [16.86792, 49.208149], [16.861879, 49.202272], [16.861205, 49.202393], [16.860525, 49.202391], [16.859686, 49.202228], [16.857872, 49.201562], [16.85323, 49.200984], [16.851182, 49.2016], [16.848968, 49.202279], [16.846754, 49.202958], [16.844539, 49.203637], [16.842287, 49.204327], [16.841498, 49.204532], [16.839781, 49.204774], [16.83879, 49.205107], [16.835649, 49.20695], [16.838796, 49.214848], [16.838826, 49.214865], [16.839309, 49.217543], [16.839298, 49.217557], [16.837048, 49.217995], [16.837018, 49.217979], [16.833163, 49.216552], [16.825114, 49.218413], [16.821644, 49.22065], [16.821086, 49.220234], [16.818115, 49.217685], [16.817853, 49.217319], [16.809317, 49.214719], [16.802797, 49.217176], [16.799352, 49.221861], [16.805103, 49.226359], [16.805664, 49.226296], [16.806185, 49.226268], [16.806381, 49.229862], [16.804675, 49.235734], [16.799211, 49.240783], [16.795724, 49.241361], [16.793142, 49.242089], [16.792445, 49.242199], [16.791382, 49.242285], [16.790133, 49.242115], [16.78922, 49.241918], [16.78829, 49.241594], [16.7876, 49.241362], [16.786807, 49.241106], [16.784796, 49.240672], [16.784085, 49.24054], [16.782671, 49.240089], [16.780429, 49.239333], [16.774724, 49.239574], [16.772868, 49.244817], [16.775802, 49.250193], [16.776146, 49.250511], [16.77701, 49.257268], [16.779404, 49.259993], [16.777775, 49.263204], [16.776595, 49.262625], [16.775808, 49.262025], [16.775324, 49.261341], [16.774706, 49.260398], [16.766526, 49.258534], [16.763207, 49.26423], [16.76392, 49.267245], [16.764682, 49.268559], [16.7643, 49.269954], [16.764087, 49.270283], [16.763673, 49.270506], [16.759688, 49.278184], [16.761548, 49.280082], [16.763661, 49.281425], [16.770116, 49.283685], [16.77072, 49.287234], [16.768975, 49.290167], [16.763139, 49.293715], [16.76227, 49.294054], [16.761492, 49.294136], [16.757311, 49.29463], [16.756456, 49.29466], [16.752354, 49.29515], [16.746929, 49.298453], [16.744141, 49.299014], [16.743366, 49.299057], [16.743023, 49.299037], [16.741773, 49.297512], [16.741392, 49.294452], [16.739392, 49.288236], [16.734398, 49.286573], [16.733257, 49.286409], [16.731986, 49.285623], [16.730542, 49.284741], [16.724125, 49.282156], [16.723558, 49.281973], [16.722742, 49.281526], [16.722237, 49.280996], [16.721764, 49.279876], [16.720738, 49.277473], [16.720496, 49.27289], [16.713107, 49.268874], [16.711191, 49.270496], [16.71051, 49.270971], [16.709963, 49.271193], [16.706836, 49.272268], [16.703312, 49.273543], [16.699762, 49.278491], [16.700488, 49.28515], [16.7003, 49.285214], [16.696199, 49.286774], [16.694586, 49.285891], [16.688717, 49.283612], [16.687225, 49.283019], [16.686187, 49.2821], [16.685182, 49.281189], [16.676925, 49.281395], [16.675997, 49.282022], [16.669433, 49.283286], [16.664016, 49.290069], [16.661761, 49.292875], [16.661178, 49.292491], [16.65935, 49.291258], [16.655705, 49.289075], [16.64823, 49.288733], [16.646053, 49.289473], [16.640211, 49.291672], [16.639792, 49.291927], [16.639224, 49.292158], [16.638117, 49.292478], [16.631614, 49.298166], [16.631471, 49.298863], [16.631171, 49.299452], [16.630651, 49.300019], [16.631001, 49.308526], [16.631512, 49.309166], [16.632382, 49.310178], [16.632764, 49.310677], [16.633023, 49.311615], [16.629998, 49.312881], [16.629918, 49.312862], [16.629605, 49.312691], [16.623097, 49.313898], [16.626472, 49.322206], [16.627072, 49.32235], [16.627699, 49.322653], [16.628214, 49.323068], [16.633443, 49.325476], [16.642406, 49.325133], [16.643002, 49.325278], [16.643581, 49.325543], [16.644234, 49.326042], [16.644623, 49.326532], [16.644885, 49.32705], [16.645068, 49.327631], [16.645561, 49.329398], [16.647287, 49.333817], [16.645503, 49.336766], [16.645685, 49.345274], [16.646286, 49.347829], [16.645958, 49.352385], [16.645908, 49.352533], [16.645558, 49.353298], [16.645018, 49.3539], [16.640474, 49.356833], [16.640362, 49.356854], [16.639499, 49.35681], [16.639383, 49.356765], [16.637977, 49.355872], [16.633557, 49.354595], [16.626911, 49.358048], [16.625408, 49.359002], [16.620849, 49.358877], [16.620583, 49.358853], [16.619537, 49.356796], [16.619743, 49.356252], [16.620875, 49.349993], [16.621934, 49.349089], [16.626001, 49.347792], [16.625821, 49.339834], [16.625019, 49.339111], [16.624403, 49.338396], [16.622995, 49.335855], [16.620975, 49.333201], [16.620132, 49.332651], [16.613757, 49.338934], [16.614016, 49.339475], [16.614074, 49.339646], [16.612842, 49.341705], [16.612081, 49.343651], [16.610748, 49.344372], [16.61053, 49.344493], [16.610054, 49.344736], [16.609181, 49.345216], [16.607367, 49.342684], [16.599681, 49.338246], [16.596229, 49.33721], [16.588534, 49.337591], [16.587747, 49.337823], [16.583184, 49.339994], [16.578596, 49.338794], [16.571577, 49.335669], [16.56903, 49.336882], [16.567403, 49.345326], [16.563911, 49.3463], [16.560345, 49.347692], [16.557035, 49.347871], [16.553035, 49.354348], [16.556606, 49.358792], [16.558408, 49.360114], [16.560251, 49.361468], [16.561317, 49.362306], [16.564553, 49.363479], [16.570363, 49.36165], [16.571224, 49.361034], [16.572582, 49.360219], [16.573841, 49.359588], [16.57513, 49.359546], [16.576272, 49.360024], [16.576879, 49.360679], [16.577068, 49.362436], [16.577792, 49.367682], [16.58386, 49.372895], [16.585152, 49.373195], [16.585851, 49.373326], [16.586113, 49.37339], [16.588395, 49.374553], [16.592588, 49.380294], [16.593113, 49.381386], [16.593021, 49.382928], [16.59108, 49.38596], [16.588846, 49.387747], [16.585819, 49.392623], [16.585611, 49.399661], [16.585594, 49.400064], [16.58546, 49.40074], [16.584349, 49.408056], [16.581891, 49.410687], [16.579417, 49.409424], [16.579338, 49.409373], [16.578661, 49.407381], [16.579403, 49.404272], [16.579497, 49.403826], [16.579689, 49.403213], [16.580073, 49.402334], [16.580991, 49.397298], [16.58101, 49.396822], [16.581178, 49.395644], [16.581233, 49.395266], [16.581433, 49.394319], [16.581945, 49.392006], [16.576361, 49.385653], [16.573161, 49.387302], [16.57151, 49.387438], [16.569582, 49.387745], [16.561173, 49.389239], [16.553568, 49.390928], [16.554898, 49.396009], [16.555756, 49.399505], [16.553677, 49.400015], [16.549496, 49.401704], [16.546214, 49.405114], [16.54596, 49.405254], [16.543363, 49.406655], [16.542667, 49.406141], [16.542574, 49.406031], [16.542398, 49.405123], [16.540567, 49.397803], [16.539341, 49.394418], [16.540841, 49.393875], [16.543984, 49.392768], [16.550824, 49.387077], [16.551056, 49.386469], [16.551466, 49.385872], [16.551982, 49.385309], [16.553859, 49.382608], [16.554128, 49.381894], [16.554719, 49.381173], [16.556158, 49.378319], [16.55647, 49.374688], [16.549233, 49.370295], [16.547126, 49.373252], [16.53936, 49.373245], [16.538689, 49.373585], [16.538123, 49.373721], [16.537494, 49.373745], [16.534601, 49.374052], [16.533127, 49.374291], [16.530194, 49.375198], [16.529275, 49.375609], [16.528933, 49.375694], [16.528126, 49.375719], [16.527454, 49.375502], [16.526753, 49.375103], [16.52621, 49.37468], [16.525652, 49.373904], [16.525455, 49.373185], [16.525554, 49.372317], [16.525623, 49.371998], [16.525918, 49.37132], [16.529792, 49.371073], [16.530313, 49.370883], [16.53085, 49.370804], [16.534353, 49.362565], [16.531256, 49.35887], [16.528522, 49.354303], [16.522646, 49.352964], [16.522038, 49.352262], [16.521483, 49.351674], [16.520702, 49.350762], [16.519525, 49.348819], [16.513321, 49.343798], [16.508478, 49.342577], [16.50713, 49.340391], [16.506482, 49.33962], [16.500185, 49.335734], [16.494416, 49.342505], [16.493343, 49.345941], [16.490956, 49.345196], [16.483915, 49.344151], [16.47655, 49.341738], [16.469032, 49.337657], [16.465006, 49.338188], [16.461014, 49.338714], [16.457581, 49.339228], [16.454006, 49.339667], [16.453432, 49.33975], [16.452001, 49.339859], [16.451047, 49.339818], [16.445834, 49.337457], [16.441854, 49.337456], [16.436211, 49.339959], [16.431401, 49.339744], [16.423832, 49.341304], [16.423367, 49.341454], [16.421969, 49.34065], [16.421514, 49.34012], [16.421355, 49.339625], [16.422264, 49.338027], [16.422729, 49.337877], [16.425972, 49.336825], [16.42898, 49.328507], [16.427353, 49.327322], [16.426802, 49.326835], [16.424529, 49.324317], [16.424205, 49.321545], [16.424221, 49.321522], [16.425903, 49.320989], [16.433919, 49.319255], [16.43655, 49.312752], [16.440013, 49.310426], [16.443794, 49.304525], [16.44485, 49.30146], [16.442525, 49.294856], [16.434826, 49.291205], [16.433029, 49.291838], [16.431832, 49.288443], [16.433425, 49.284001], [16.433145, 49.276811], [16.429398, 49.27058], [16.431021, 49.267367], [16.431435, 49.26405], [16.431498, 49.263792], [16.431771, 49.262182], [16.434038, 49.26062], [16.429695, 49.253326], [16.426722, 49.254224], [16.42365, 49.255148], [16.422951, 49.255315], [16.421612, 49.255585], [16.420706, 49.255776], [16.420271, 49.255836], [16.419741, 49.255891], [16.417474, 49.25629], [16.416612, 49.25621], [16.414275, 49.256041], [16.407025, 49.252789], [16.405269, 49.253308], [16.403656, 49.253779], [16.401387, 49.254799], [16.400618, 49.255257], [16.398494, 49.25235], [16.396895, 49.244577], [16.393844, 49.239714], [16.385723, 49.237489], [16.383733, 49.237575], [16.382658, 49.237728], [16.380928, 49.237614], [16.37295, 49.240492], [16.371327, 49.241967], [16.369645, 49.243493], [16.368471, 49.244463], [16.366925, 49.24556], [16.36545, 49.246477], [16.364406, 49.247087], [16.361478, 49.248777], [16.35855, 49.250466], [16.355623, 49.252156], [16.352671, 49.253859], [16.351111, 49.254728], [16.350004, 49.255315], [16.348833, 49.255873], [16.347141, 49.256596], [16.345218, 49.257284], [16.343971, 49.257664], [16.34295, 49.25795], [16.341971, 49.258188], [16.340917, 49.258437], [16.33989, 49.258635], [16.338646, 49.258839], [16.33666, 49.259084], [16.335627, 49.259173], [16.334636, 49.259237], [16.333457, 49.259283], [16.331901, 49.259182], [16.329002, 49.259372], [16.326911, 49.259292], [16.324582, 49.25946], [16.322652, 49.259535], [16.321286, 49.259512], [16.319692, 49.259663], [16.317953, 49.260013], [16.314774, 49.262683], [16.316423, 49.270108], [16.316963, 49.270561], [16.318857, 49.271565], [16.318022, 49.275067], [16.311635, 49.276086], [16.303879, 49.275248], [16.300391, 49.2744], [16.294727, 49.270238], [16.290967, 49.271568], [16.28957, 49.273029], [16.288049, 49.275448], [16.287592, 49.276447], [16.286903, 49.277507], [16.286053, 49.278881], [16.28387, 49.283489], [16.282367, 49.283298], [16.281668, 49.28321], [16.281139, 49.28306], [16.280646, 49.282804], [16.280122, 49.282358], [16.279764, 49.281835], [16.278477, 49.278486], [16.271049, 49.278755], [16.269872, 49.282102], [16.268491, 49.285426], [16.266395, 49.284556], [16.265681, 49.28415], [16.263259, 49.282919], [16.256131, 49.281614], [16.25263, 49.282637], [16.248308, 49.284039], [16.244253, 49.285378], [16.242807, 49.282081], [16.239502, 49.274313], [16.23778, 49.274579], [16.235566, 49.274889], [16.233571, 49.275483], [16.23011, 49.279648], [16.229692, 49.282222], [16.22975, 49.28301], [16.229726, 49.284712], [16.227851, 49.287427], [16.227752, 49.287518], [16.225952, 49.287778], [16.225768, 49.287677], [16.224478, 49.285879], [16.224269, 49.285535], [16.219818, 49.278867], [16.21704, 49.279195], [16.214792, 49.279589], [16.211791, 49.28018], [16.209746, 49.280621], [16.208468, 49.280927], [16.206889, 49.281347], [16.204758, 49.281957], [16.201664, 49.283007], [16.200759, 49.283342], [16.199262, 49.283942], [16.197869, 49.284533], [16.196187, 49.285307], [16.194263, 49.286264], [16.19119, 49.28795], [16.188048, 49.289755], [16.185585, 49.291155], [16.183079, 49.292577], [16.181424, 49.293459], [16.179769, 49.294341], [16.178076, 49.291164]]], "type": "Polygon"}}], "metadata": {"attribution": "openrouteservice.org | OpenStreetMap contributors", "service": "isochrones", "timestamp": 1785691396117, "query": {"profile": "driving-car", "profileName": "driving-car", "locations": [[16.6106008, 49.2026006]], "range": [1800.0], "range_type": "time"}, "engine": {"version": "9.9.0", "build_date": "2026-06-12T10:08:58Z", "graph_date": "2026-07-26T12:04:00Z", "osm_date": "2026-07-20T00:00:00Z"}}}